<?xml version="1.0" encoding="UTF-8" standalone="no" ?>
<gpx xmlns="http://www.topografix.com/GPX/1/1" creator="http://nakarte.me" xmlns:xsi="http://www.w3.org/2001/XMLSchema-instance" xsi:schemaLocation="http://www.topografix.com/GPX/1/1 http://www.topografix.com/GPX/1/1/gpx.xsd" version="1.1">
	<metadata>
		<time>2026-07-10T06:51:33.835Z</time>
	</metadata>
	<trk>
		<name>colorrun</name>
		<trkseg>
			<trkpt lat="56.026590" lon="92.939868"><time>1970-01-01T00:00:01.000Z</time></trkpt>
			<trkpt lat="56.026734" lon="92.939584"><time>1970-01-01T00:00:01.000Z</time></trkpt>
			<trkpt lat="56.026776" lon="92.939327"><time>1970-01-01T00:00:01.000Z</time></trkpt>
			<trkpt lat="56.026776" lon="92.939150"><time>1970-01-01T00:00:01.000Z</time></trkpt>
			<trkpt lat="56.026704" lon="92.938527"><time>1970-01-01T00:00:01.000Z</time></trkpt>
			<trkpt lat="56.026539" lon="92.937685"><time>1970-01-01T00:00:01.000Z</time></trkpt>
			<trkpt lat="56.026299" lon="92.936709"><time>1970-01-01T00:00:01.000Z</time></trkpt>
			<trkpt lat="56.025994" lon="92.935722"><time>1970-01-01T00:00:01.000Z</time></trkpt>
			<trkpt lat="56.025553" lon="92.934708"><time>1970-01-01T00:00:01.000Z</time></trkpt>
			<trkpt lat="56.025193" lon="92.933909"><time>1970-01-01T00:00:01.000Z</time></trkpt>
			<trkpt lat="56.025017" lon="92.933490"><time>1970-01-01T00:00:01.000Z</time></trkpt>
			<trkpt lat="56.024819" lon="92.932932"><time>1970-01-01T00:00:01.000Z</time></trkpt>
			<trkpt lat="56.024438" lon="92.931259"><time>1970-01-01T00:00:01.000Z</time></trkpt>
			<trkpt lat="56.024123" lon="92.929681"><time>1970-01-01T00:00:01.000Z</time></trkpt>
			<trkpt lat="56.023871" lon="92.928415"><time>1970-01-01T00:00:01.000Z</time></trkpt>
			<trkpt lat="56.023638" lon="92.927321"><time>1970-01-01T00:00:01.000Z</time></trkpt>
			<trkpt lat="56.023488" lon="92.926811"><time>1970-01-01T00:00:01.000Z</time></trkpt>
			<trkpt lat="56.023275" lon="92.926276"><time>1970-01-01T00:00:01.000Z</time></trkpt>
			<trkpt lat="56.023095" lon="92.925850"><time>1970-01-01T00:00:01.000Z</time></trkpt>
			<trkpt lat="56.022822" lon="92.925233"><time>1970-01-01T00:00:01.000Z</time></trkpt>
			<trkpt lat="56.022528" lon="92.924509"><time>1970-01-01T00:00:01.000Z</time></trkpt>
			<trkpt lat="56.022378" lon="92.924214"><time>1970-01-01T00:00:01.000Z</time></trkpt>
			<trkpt lat="56.022277" lon="92.923978"><time>1970-01-01T00:00:01.000Z</time></trkpt>
			<trkpt lat="56.022010" lon="92.923651"><time>1970-01-01T00:00:01.000Z</time></trkpt>
			<trkpt lat="56.021761" lon="92.923286"><time>1970-01-01T00:00:01.000Z</time></trkpt>
			<trkpt lat="56.021617" lon="92.923018"><time>1970-01-01T00:00:01.000Z</time></trkpt>
			<trkpt lat="56.021101" lon="92.922491"><time>1970-01-01T00:00:01.000Z</time></trkpt>
			<trkpt lat="56.020328" lon="92.921687"><time>1970-01-01T00:00:01.000Z</time></trkpt>
			<trkpt lat="56.019521" lon="92.920872"><time>1970-01-01T00:00:01.000Z</time></trkpt>
			<trkpt lat="56.019170" lon="92.920561"><time>1970-01-01T00:00:01.000Z</time></trkpt>
			<trkpt lat="56.018403" lon="92.919987"><time>1970-01-01T00:00:01.000Z</time></trkpt>
			<trkpt lat="56.018280" lon="92.919858"><time>1970-01-01T00:00:01.000Z</time></trkpt>
			<trkpt lat="56.018112" lon="92.919520"><time>1970-01-01T00:00:01.000Z</time></trkpt>
			<trkpt lat="56.017986" lon="92.919322"><time>1970-01-01T00:00:01.000Z</time></trkpt>
			<trkpt lat="56.017800" lon="92.919166"><time>1970-01-01T00:00:01.000Z</time></trkpt>
			<trkpt lat="56.017638" lon="92.919032"><time>1970-01-01T00:00:01.000Z</time></trkpt>
			<trkpt lat="56.017524" lon="92.918973"><time>1970-01-01T00:00:01.000Z</time></trkpt>
			<trkpt lat="56.017307" lon="92.918994"><time>1970-01-01T00:00:01.000Z</time></trkpt>
			<trkpt lat="56.017213" lon="92.918994"><time>1970-01-01T00:00:01.000Z</time></trkpt>
			<trkpt lat="56.017048" lon="92.918828"><time>1970-01-01T00:00:01.000Z</time></trkpt>
			<trkpt lat="56.016844" lon="92.918517"><time>1970-01-01T00:00:01.000Z</time></trkpt>
			<trkpt lat="56.016636" lon="92.918209"><time>1970-01-01T00:00:01.000Z</time></trkpt>
			<trkpt lat="56.016290" lon="92.917776"><time>1970-01-01T00:00:01.000Z</time></trkpt>
			<trkpt lat="56.015828" lon="92.917243"><time>1970-01-01T00:00:01.000Z</time></trkpt>
			<trkpt lat="56.015497" lon="92.916816"><time>1970-01-01T00:00:01.000Z</time></trkpt>
			<trkpt lat="56.015258" lon="92.916544"><time>1970-01-01T00:00:01.000Z</time></trkpt>
			<trkpt lat="56.015117" lon="92.916344"><time>1970-01-01T00:00:01.000Z</time></trkpt>
			<trkpt lat="56.015066" lon="92.916132"><time>1970-01-01T00:00:01.000Z</time></trkpt>
			<trkpt lat="56.015051" lon="92.915321"><time>1970-01-01T00:00:01.000Z</time></trkpt>
			<trkpt lat="56.015054" lon="92.914274"><time>1970-01-01T00:00:01.000Z</time></trkpt>
			<trkpt lat="56.014995" lon="92.913314"><time>1970-01-01T00:00:01.000Z</time></trkpt>
			<trkpt lat="56.014872" lon="92.912419"><time>1970-01-01T00:00:01.000Z</time></trkpt>
			<trkpt lat="56.014703" lon="92.911436"><time>1970-01-01T00:00:01.000Z</time></trkpt>
			<trkpt lat="56.014565" lon="92.910513"><time>1970-01-01T00:00:01.000Z</time></trkpt>
			<trkpt lat="56.014493" lon="92.910084"><time>1970-01-01T00:00:01.000Z</time></trkpt>
			<trkpt lat="56.014447" lon="92.909645"><time>1970-01-01T00:00:01.000Z</time></trkpt>
			<trkpt lat="56.014397" lon="92.909414"><time>1970-01-01T00:00:01.000Z</time></trkpt>
			<trkpt lat="56.014322" lon="92.909414"><time>1970-01-01T00:00:01.000Z</time></trkpt>
			<trkpt lat="56.014286" lon="92.909505"><time>1970-01-01T00:00:01.000Z</time></trkpt>
			<trkpt lat="56.014292" lon="92.909827"><time>1970-01-01T00:00:01.000Z</time></trkpt>
			<trkpt lat="56.014334" lon="92.910669"><time>1970-01-01T00:00:01.000Z</time></trkpt>
			<trkpt lat="56.014370" lon="92.911366"><time>1970-01-01T00:00:01.000Z</time></trkpt>
			<trkpt lat="56.014445" lon="92.912546"><time>1970-01-01T00:00:01.000Z</time></trkpt>
			<trkpt lat="56.014511" lon="92.913721"><time>1970-01-01T00:00:01.000Z</time></trkpt>
			<trkpt lat="56.014550" lon="92.914477"><time>1970-01-01T00:00:01.000Z</time></trkpt>
			<trkpt lat="56.014577" lon="92.915094"><time>1970-01-01T00:00:01.000Z</time></trkpt>
			<trkpt lat="56.014615" lon="92.915528"><time>1970-01-01T00:00:01.000Z</time></trkpt>
			<trkpt lat="56.014664" lon="92.915813"><time>1970-01-01T00:00:01.000Z</time></trkpt>
			<trkpt lat="56.014760" lon="92.916039"><time>1970-01-01T00:00:01.000Z</time></trkpt>
			<trkpt lat="56.015189" lon="92.916693"><time>1970-01-01T00:00:01.000Z</time></trkpt>
			<trkpt lat="56.015494" lon="92.917117"><time>1970-01-01T00:00:01.000Z</time></trkpt>
			<trkpt lat="56.015929" lon="92.917750"><time>1970-01-01T00:00:01.000Z</time></trkpt>
			<trkpt lat="56.016291" lon="92.918327"><time>1970-01-01T00:00:01.000Z</time></trkpt>
			<trkpt lat="56.016583" lon="92.918742"><time>1970-01-01T00:00:01.000Z</time></trkpt>
			<trkpt lat="56.016727" lon="92.918919"><time>1970-01-01T00:00:01.000Z</time></trkpt>
			<trkpt lat="56.017159" lon="92.919316"><time>1970-01-01T00:00:01.000Z</time></trkpt>
			<trkpt lat="56.017947" lon="92.919885"><time>1970-01-01T00:00:01.000Z</time></trkpt>
			<trkpt lat="56.018643" lon="92.920395"><time>1970-01-01T00:00:01.000Z</time></trkpt>
			<trkpt lat="56.019254" lon="92.920892"><time>1970-01-01T00:00:01.000Z</time></trkpt>
			<trkpt lat="56.019893" lon="92.921467"><time>1970-01-01T00:00:01.000Z</time></trkpt>
			<trkpt lat="56.020634" lon="92.922202"><time>1970-01-01T00:00:01.000Z</time></trkpt>
			<trkpt lat="56.021183" lon="92.922769"><time>1970-01-01T00:00:01.000Z</time></trkpt>
			<trkpt lat="56.021521" lon="92.923104"><time>1970-01-01T00:00:01.000Z</time></trkpt>
			<trkpt lat="56.021713" lon="92.923404"><time>1970-01-01T00:00:01.000Z</time></trkpt>
			<trkpt lat="56.022109" lon="92.923940"><time>1970-01-01T00:00:01.000Z</time></trkpt>
			<trkpt lat="56.022329" lon="92.924365"><time>1970-01-01T00:00:01.000Z</time></trkpt>
			<trkpt lat="56.022702" lon="92.925260"><time>1970-01-01T00:00:01.000Z</time></trkpt>
			<trkpt lat="56.023068" lon="92.926140"><time>1970-01-01T00:00:01.000Z</time></trkpt>
			<trkpt lat="56.023236" lon="92.926569"><time>1970-01-01T00:00:01.000Z</time></trkpt>
			<trkpt lat="56.023302" lon="92.926784"><time>1970-01-01T00:00:01.000Z</time></trkpt>
			<trkpt lat="56.023428" lon="92.927320"><time>1970-01-01T00:00:01.000Z</time></trkpt>
			<trkpt lat="56.023632" lon="92.928248"><time>1970-01-01T00:00:01.000Z</time></trkpt>
			<trkpt lat="56.023928" lon="92.929611"><time>1970-01-01T00:00:01.000Z</time></trkpt>
			<trkpt lat="56.024207" lon="92.931011"><time>1970-01-01T00:00:01.000Z</time></trkpt>
			<trkpt lat="56.024573" lon="92.932717"><time>1970-01-01T00:00:01.000Z</time></trkpt>
			<trkpt lat="56.024657" lon="92.933087"><time>1970-01-01T00:00:01.000Z</time></trkpt>
			<trkpt lat="56.025050" lon="92.934031"><time>1970-01-01T00:00:01.000Z</time></trkpt>
			<trkpt lat="56.025409" lon="92.934884"><time>1970-01-01T00:00:01.000Z</time></trkpt>
			<trkpt lat="56.025751" lon="92.935613"><time>1970-01-01T00:00:01.000Z</time></trkpt>
			<trkpt lat="56.026075" lon="92.936502"><time>1970-01-01T00:00:01.000Z</time></trkpt>
			<trkpt lat="56.026283" lon="92.937313"><time>1970-01-01T00:00:01.000Z</time></trkpt>
			<trkpt lat="56.026474" lon="92.938296"><time>1970-01-01T00:00:01.000Z</time></trkpt>
			<trkpt lat="56.026602" lon="92.939208"><time>1970-01-01T00:00:01.000Z</time></trkpt>
			<trkpt lat="56.026653" lon="92.939572"><time>1970-01-01T00:00:01.000Z</time></trkpt>
		</trkseg>
	</trk>
</gpx>