<?xml version="1.0" encoding="UTF-8" standalone="no" ?>
<gpx xmlns="http://www.topografix.com/GPX/1/1" creator="http://nakarte.me" xmlns:xsi="http://www.w3.org/2001/XMLSchema-instance" xsi:schemaLocation="http://www.topografix.com/GPX/1/1 http://www.topografix.com/GPX/1/1/gpx.xsd" version="1.1">
	<metadata>
		<time>2026-07-10T06:16:40.462Z</time>
	</metadata>
	<trk>
		<name>New track</name>
		<trkseg>
			<trkpt lat="56.025856" lon="92.940173"><time>1970-01-01T00:00:01.000Z</time></trkpt>
			<trkpt lat="56.025571" lon="92.940195"><time>1970-01-01T00:00:01.000Z</time></trkpt>
			<trkpt lat="56.025325" lon="92.940130"><time>1970-01-01T00:00:01.000Z</time></trkpt>
			<trkpt lat="56.024351" lon="92.940479"><time>1970-01-01T00:00:01.000Z</time></trkpt>
			<trkpt lat="56.024243" lon="92.940549"><time>1970-01-01T00:00:01.000Z</time></trkpt>
			<trkpt lat="56.023683" lon="92.940753"><time>1970-01-01T00:00:01.000Z</time></trkpt>
			<trkpt lat="56.023449" lon="92.940876"><time>1970-01-01T00:00:01.000Z</time></trkpt>
			<trkpt lat="56.022861" lon="92.941117"><time>1970-01-01T00:00:01.000Z</time></trkpt>
			<trkpt lat="56.022756" lon="92.941085"><time>1970-01-01T00:00:01.000Z</time></trkpt>
			<trkpt lat="56.022430" lon="92.941072"><time>1970-01-01T00:00:01.000Z</time></trkpt>
			<trkpt lat="56.022298" lon="92.941026"><time>1970-01-01T00:00:01.000Z</time></trkpt>
			<trkpt lat="56.022205" lon="92.940994"><time>1970-01-01T00:00:01.000Z</time></trkpt>
			<trkpt lat="56.022163" lon="92.940897"><time>1970-01-01T00:00:01.000Z</time></trkpt>
			<trkpt lat="56.022109" lon="92.940704"><time>1970-01-01T00:00:01.000Z</time></trkpt>
			<trkpt lat="56.022058" lon="92.940120"><time>1970-01-01T00:00:01.000Z</time></trkpt>
			<trkpt lat="56.022007" lon="92.939701"><time>1970-01-01T00:00:01.000Z</time></trkpt>
			<trkpt lat="56.021962" lon="92.939417"><time>1970-01-01T00:00:01.000Z</time></trkpt>
			<trkpt lat="56.021842" lon="92.938859"><time>1970-01-01T00:00:01.000Z</time></trkpt>
			<trkpt lat="56.021770" lon="92.938387"><time>1970-01-01T00:00:01.000Z</time></trkpt>
			<trkpt lat="56.021690" lon="92.937923"><time>1970-01-01T00:00:01.000Z</time></trkpt>
			<trkpt lat="56.021602" lon="92.937507"><time>1970-01-01T00:00:01.000Z</time></trkpt>
			<trkpt lat="56.021494" lon="92.937035"><time>1970-01-01T00:00:01.000Z</time></trkpt>
			<trkpt lat="56.021455" lon="92.936815"><time>1970-01-01T00:00:01.000Z</time></trkpt>
			<trkpt lat="56.021350" lon="92.936343"><time>1970-01-01T00:00:01.000Z</time></trkpt>
			<trkpt lat="56.021182" lon="92.935635"><time>1970-01-01T00:00:01.000Z</time></trkpt>
			<trkpt lat="56.021011" lon="92.934991"><time>1970-01-01T00:00:01.000Z</time></trkpt>
			<trkpt lat="56.020801" lon="92.934213"><time>1970-01-01T00:00:01.000Z</time></trkpt>
			<trkpt lat="56.020676" lon="92.933693"><time>1970-01-01T00:00:01.000Z</time></trkpt>
			<trkpt lat="56.020403" lon="92.932701"><time>1970-01-01T00:00:01.000Z</time></trkpt>
			<trkpt lat="56.020241" lon="92.932180"><time>1970-01-01T00:00:01.000Z</time></trkpt>
			<trkpt lat="56.020118" lon="92.931848"><time>1970-01-01T00:00:01.000Z</time></trkpt>
			<trkpt lat="56.019977" lon="92.931569"><time>1970-01-01T00:00:01.000Z</time></trkpt>
			<trkpt lat="56.019776" lon="92.931257"><time>1970-01-01T00:00:01.000Z</time></trkpt>
			<trkpt lat="56.019623" lon="92.931027"><time>1970-01-01T00:00:01.000Z</time></trkpt>
			<trkpt lat="56.019446" lon="92.930662"><time>1970-01-01T00:00:01.000Z</time></trkpt>
			<trkpt lat="56.019216" lon="92.929988"><time>1970-01-01T00:00:01.000Z</time></trkpt>
			<trkpt lat="56.019104" lon="92.929675"><time>1970-01-01T00:00:01.000Z</time></trkpt>
			<trkpt lat="56.018901" lon="92.928962"><time>1970-01-01T00:00:01.000Z</time></trkpt>
			<trkpt lat="56.018757" lon="92.928329"><time>1970-01-01T00:00:01.000Z</time></trkpt>
			<trkpt lat="56.018571" lon="92.927347"><time>1970-01-01T00:00:01.000Z</time></trkpt>
			<trkpt lat="56.018301" lon="92.925957"><time>1970-01-01T00:00:01.000Z</time></trkpt>
			<trkpt lat="56.018001" lon="92.924439"><time>1970-01-01T00:00:01.000Z</time></trkpt>
			<trkpt lat="56.017773" lon="92.923334"><time>1970-01-01T00:00:01.000Z</time></trkpt>
			<trkpt lat="56.017401" lon="92.921462"><time>1970-01-01T00:00:01.000Z</time></trkpt>
			<trkpt lat="56.017389" lon="92.921521"><time>1970-01-01T00:00:01.000Z</time></trkpt>
			<trkpt lat="56.017635" lon="92.922744"><time>1970-01-01T00:00:01.000Z</time></trkpt>
			<trkpt lat="56.017821" lon="92.923651"><time>1970-01-01T00:00:01.000Z</time></trkpt>
			<trkpt lat="56.017929" lon="92.924166"><time>1970-01-01T00:00:01.000Z</time></trkpt>
			<trkpt lat="56.018121" lon="92.925164"><time>1970-01-01T00:00:01.000Z</time></trkpt>
			<trkpt lat="56.018340" lon="92.926285"><time>1970-01-01T00:00:01.000Z</time></trkpt>
			<trkpt lat="56.018574" lon="92.927529"><time>1970-01-01T00:00:01.000Z</time></trkpt>
			<trkpt lat="56.018703" lon="92.928178"><time>1970-01-01T00:00:01.000Z</time></trkpt>
			<trkpt lat="56.018787" lon="92.928586"><time>1970-01-01T00:00:01.000Z</time></trkpt>
			<trkpt lat="56.018919" lon="92.929171"><time>1970-01-01T00:00:01.000Z</time></trkpt>
			<trkpt lat="56.019252" lon="92.930234"><time>1970-01-01T00:00:01.000Z</time></trkpt>
			<trkpt lat="56.019386" lon="92.930619"><time>1970-01-01T00:00:01.000Z</time></trkpt>
			<trkpt lat="56.019515" lon="92.930936"><time>1970-01-01T00:00:01.000Z</time></trkpt>
			<trkpt lat="56.019815" lon="92.931402"><time>1970-01-01T00:00:01.000Z</time></trkpt>
			<trkpt lat="56.020000" lon="92.931678"><time>1970-01-01T00:00:01.000Z</time></trkpt>
			<trkpt lat="56.020148" lon="92.932051"><time>1970-01-01T00:00:01.000Z</time></trkpt>
			<trkpt lat="56.020298" lon="92.932475"><time>1970-01-01T00:00:01.000Z</time></trkpt>
			<trkpt lat="56.020469" lon="92.933055"><time>1970-01-01T00:00:01.000Z</time></trkpt>
			<trkpt lat="56.020691" lon="92.933908"><time>1970-01-01T00:00:01.000Z</time></trkpt>
			<trkpt lat="56.020888" lon="92.934675"><time>1970-01-01T00:00:01.000Z</time></trkpt>
			<trkpt lat="56.021089" lon="92.935410"><time>1970-01-01T00:00:01.000Z</time></trkpt>
			<trkpt lat="56.021254" lon="92.936075"><time>1970-01-01T00:00:01.000Z</time></trkpt>
			<trkpt lat="56.021363" lon="92.936564"><time>1970-01-01T00:00:01.000Z</time></trkpt>
			<trkpt lat="56.021437" lon="92.936901"><time>1970-01-01T00:00:01.000Z</time></trkpt>
			<trkpt lat="56.021497" lon="92.937185"><time>1970-01-01T00:00:01.000Z</time></trkpt>
			<trkpt lat="56.021617" lon="92.937732"><time>1970-01-01T00:00:01.000Z</time></trkpt>
			<trkpt lat="56.021704" lon="92.938161"><time>1970-01-01T00:00:01.000Z</time></trkpt>
			<trkpt lat="56.021773" lon="92.938607"><time>1970-01-01T00:00:01.000Z</time></trkpt>
			<trkpt lat="56.021842" lon="92.939014"><time>1970-01-01T00:00:01.000Z</time></trkpt>
			<trkpt lat="56.021917" lon="92.939368"><time>1970-01-01T00:00:01.000Z</time></trkpt>
			<trkpt lat="56.021965" lon="92.939615"><time>1970-01-01T00:00:01.000Z</time></trkpt>
			<trkpt lat="56.022007" lon="92.940018"><time>1970-01-01T00:00:01.000Z</time></trkpt>
			<trkpt lat="56.022061" lon="92.940404"><time>1970-01-01T00:00:01.000Z</time></trkpt>
			<trkpt lat="56.022109" lon="92.940844"><time>1970-01-01T00:00:01.000Z</time></trkpt>
			<trkpt lat="56.022169" lon="92.941241"><time>1970-01-01T00:00:01.000Z</time></trkpt>
			<trkpt lat="56.022211" lon="92.941632"><time>1970-01-01T00:00:01.000Z</time></trkpt>
			<trkpt lat="56.022304" lon="92.941831"><time>1970-01-01T00:00:01.000Z</time></trkpt>
			<trkpt lat="56.022426" lon="92.941911"><time>1970-01-01T00:00:01.000Z</time></trkpt>
			<trkpt lat="56.022552" lon="92.941938"><time>1970-01-01T00:00:01.000Z</time></trkpt>
			<trkpt lat="56.022615" lon="92.941782"><time>1970-01-01T00:00:01.000Z</time></trkpt>
			<trkpt lat="56.022726" lon="92.941461"><time>1970-01-01T00:00:01.000Z</time></trkpt>
			<trkpt lat="56.022834" lon="92.941192"><time>1970-01-01T00:00:01.000Z</time></trkpt>
			<trkpt lat="56.022906" lon="92.941128"><time>1970-01-01T00:00:01.000Z</time></trkpt>
			<trkpt lat="56.023569" lon="92.940860"><time>1970-01-01T00:00:01.000Z</time></trkpt>
			<trkpt lat="56.024279" lon="92.940581"><time>1970-01-01T00:00:01.000Z</time></trkpt>
			<trkpt lat="56.024825" lon="92.940361"><time>1970-01-01T00:00:01.000Z</time></trkpt>
			<trkpt lat="56.025289" lon="92.940189"><time>1970-01-01T00:00:01.000Z</time></trkpt>
			<trkpt lat="56.025271" lon="92.940114"><time>1970-01-01T00:00:01.000Z</time></trkpt>
			<trkpt lat="56.023904" lon="92.940634"><time>1970-01-01T00:00:01.000Z</time></trkpt>
			<trkpt lat="56.023104" lon="92.940962"><time>1970-01-01T00:00:01.000Z</time></trkpt>
			<trkpt lat="56.022846" lon="92.941064"><time>1970-01-01T00:00:01.000Z</time></trkpt>
			<trkpt lat="56.022546" lon="92.941037"><time>1970-01-01T00:00:01.000Z</time></trkpt>
			<trkpt lat="56.022336" lon="92.941005"><time>1970-01-01T00:00:01.000Z</time></trkpt>
			<trkpt lat="56.022211" lon="92.940930"><time>1970-01-01T00:00:01.000Z</time></trkpt>
			<trkpt lat="56.022151" lon="92.940758"><time>1970-01-01T00:00:01.000Z</time></trkpt>
			<trkpt lat="56.022100" lon="92.940238"><time>1970-01-01T00:00:01.000Z</time></trkpt>
			<trkpt lat="56.022034" lon="92.939669"><time>1970-01-01T00:00:01.000Z</time></trkpt>
			<trkpt lat="56.021914" lon="92.939068"><time>1970-01-01T00:00:01.000Z</time></trkpt>
			<trkpt lat="56.021782" lon="92.938215"><time>1970-01-01T00:00:01.000Z</time></trkpt>
			<trkpt lat="56.021665" lon="92.937647"><time>1970-01-01T00:00:01.000Z</time></trkpt>
			<trkpt lat="56.021557" lon="92.937217"><time>1970-01-01T00:00:01.000Z</time></trkpt>
			<trkpt lat="56.021404" lon="92.936482"><time>1970-01-01T00:00:01.000Z</time></trkpt>
			<trkpt lat="56.021233" lon="92.935769"><time>1970-01-01T00:00:01.000Z</time></trkpt>
			<trkpt lat="56.021140" lon="92.935388"><time>1970-01-01T00:00:01.000Z</time></trkpt>
			<trkpt lat="56.020954" lon="92.934680"><time>1970-01-01T00:00:01.000Z</time></trkpt>
			<trkpt lat="56.020777" lon="92.934009"><time>1970-01-01T00:00:01.000Z</time></trkpt>
			<trkpt lat="56.020565" lon="92.933178"><time>1970-01-01T00:00:01.000Z</time></trkpt>
			<trkpt lat="56.020358" lon="92.932454"><time>1970-01-01T00:00:01.000Z</time></trkpt>
			<trkpt lat="56.020136" lon="92.931789"><time>1970-01-01T00:00:01.000Z</time></trkpt>
			<trkpt lat="56.019932" lon="92.931411"><time>1970-01-01T00:00:01.000Z</time></trkpt>
			<trkpt lat="56.019674" lon="92.931016"><time>1970-01-01T00:00:01.000Z</time></trkpt>
			<trkpt lat="56.019515" lon="92.930716"><time>1970-01-01T00:00:01.000Z</time></trkpt>
			<trkpt lat="56.019389" lon="92.930394"><time>1970-01-01T00:00:01.000Z</time></trkpt>
			<trkpt lat="56.019185" lon="92.929793"><time>1970-01-01T00:00:01.000Z</time></trkpt>
			<trkpt lat="56.019054" lon="92.929368"><time>1970-01-01T00:00:01.000Z</time></trkpt>
			<trkpt lat="56.018916" lon="92.928876"><time>1970-01-01T00:00:01.000Z</time></trkpt>
			<trkpt lat="56.018775" lon="92.928253"><time>1970-01-01T00:00:01.000Z</time></trkpt>
			<trkpt lat="56.018558" lon="92.927120"><time>1970-01-01T00:00:01.000Z</time></trkpt>
			<trkpt lat="56.018355" lon="92.926097"><time>1970-01-01T00:00:01.000Z</time></trkpt>
			<trkpt lat="56.018180" lon="92.925154"><time>1970-01-01T00:00:01.000Z</time></trkpt>
			<trkpt lat="56.017959" lon="92.923999"><time>1970-01-01T00:00:01.000Z</time></trkpt>
			<trkpt lat="56.017773" lon="92.923114"><time>1970-01-01T00:00:01.000Z</time></trkpt>
			<trkpt lat="56.017497" lon="92.921741"><time>1970-01-01T00:00:01.000Z</time></trkpt>
			<trkpt lat="56.017425" lon="92.921392"><time>1970-01-01T00:00:01.000Z</time></trkpt>
			<trkpt lat="56.017354" lon="92.921471"><time>1970-01-01T00:00:01.000Z</time></trkpt>
			<trkpt lat="56.017701" lon="92.923179"><time>1970-01-01T00:00:01.000Z</time></trkpt>
			<trkpt lat="56.017917" lon="92.924246"><time>1970-01-01T00:00:01.000Z</time></trkpt>
			<trkpt lat="56.018199" lon="92.925705"><time>1970-01-01T00:00:01.000Z</time></trkpt>
			<trkpt lat="56.018382" lon="92.926644"><time>1970-01-01T00:00:01.000Z</time></trkpt>
			<trkpt lat="56.018511" lon="92.927309"><time>1970-01-01T00:00:01.000Z</time></trkpt>
			<trkpt lat="56.018619" lon="92.927910"><time>1970-01-01T00:00:01.000Z</time></trkpt>
			<trkpt lat="56.018769" lon="92.928709"><time>1970-01-01T00:00:01.000Z</time></trkpt>
			<trkpt lat="56.018976" lon="92.929417"><time>1970-01-01T00:00:01.000Z</time></trkpt>
			<trkpt lat="56.019167" lon="92.930072"><time>1970-01-01T00:00:01.000Z</time></trkpt>
			<trkpt lat="56.019413" lon="92.930764"><time>1970-01-01T00:00:01.000Z</time></trkpt>
			<trkpt lat="56.019584" lon="92.931148"><time>1970-01-01T00:00:01.000Z</time></trkpt>
			<trkpt lat="56.019920" lon="92.931665"><time>1970-01-01T00:00:01.000Z</time></trkpt>
			<trkpt lat="56.020076" lon="92.931981"><time>1970-01-01T00:00:01.000Z</time></trkpt>
			<trkpt lat="56.020220" lon="92.932368"><time>1970-01-01T00:00:01.000Z</time></trkpt>
			<trkpt lat="56.020388" lon="92.932942"><time>1970-01-01T00:00:01.000Z</time></trkpt>
			<trkpt lat="56.020562" lon="92.933527"><time>1970-01-01T00:00:01.000Z</time></trkpt>
			<trkpt lat="56.020751" lon="92.934256"><time>1970-01-01T00:00:01.000Z</time></trkpt>
			<trkpt lat="56.020927" lon="92.934932"><time>1970-01-01T00:00:01.000Z</time></trkpt>
			<trkpt lat="56.021146" lon="92.935774"><time>1970-01-01T00:00:01.000Z</time></trkpt>
			<trkpt lat="56.021290" lon="92.936381"><time>1970-01-01T00:00:01.000Z</time></trkpt>
			<trkpt lat="56.021458" lon="92.937089"><time>1970-01-01T00:00:01.000Z</time></trkpt>
			<trkpt lat="56.021575" lon="92.937711"><time>1970-01-01T00:00:01.000Z</time></trkpt>
			<trkpt lat="56.021706" lon="92.938371"><time>1970-01-01T00:00:01.000Z</time></trkpt>
			<trkpt lat="56.021782" lon="92.938805"><time>1970-01-01T00:00:01.000Z</time></trkpt>
			<trkpt lat="56.021842" lon="92.939213"><time>1970-01-01T00:00:01.000Z</time></trkpt>
			<trkpt lat="56.021920" lon="92.939540"><time>1970-01-01T00:00:01.000Z</time></trkpt>
			<trkpt lat="56.021959" lon="92.939830"><time>1970-01-01T00:00:01.000Z</time></trkpt>
			<trkpt lat="56.021998" lon="92.940184"><time>1970-01-01T00:00:01.000Z</time></trkpt>
			<trkpt lat="56.022071" lon="92.940791"><time>1970-01-01T00:00:01.000Z</time></trkpt>
			<trkpt lat="56.022124" lon="92.941208"><time>1970-01-01T00:00:01.000Z</time></trkpt>
			<trkpt lat="56.022172" lon="92.941584"><time>1970-01-01T00:00:01.000Z</time></trkpt>
			<trkpt lat="56.022251" lon="92.941838"><time>1970-01-01T00:00:01.000Z</time></trkpt>
			<trkpt lat="56.022375" lon="92.941965"><time>1970-01-01T00:00:01.000Z</time></trkpt>
			<trkpt lat="56.022495" lon="92.941997"><time>1970-01-01T00:00:01.000Z</time></trkpt>
			<trkpt lat="56.022579" lon="92.941976"><time>1970-01-01T00:00:01.000Z</time></trkpt>
			<trkpt lat="56.022651" lon="92.941782"><time>1970-01-01T00:00:01.000Z</time></trkpt>
			<trkpt lat="56.022786" lon="92.941396"><time>1970-01-01T00:00:01.000Z</time></trkpt>
			<trkpt lat="56.022879" lon="92.941192"><time>1970-01-01T00:00:01.000Z</time></trkpt>
			<trkpt lat="56.023329" lon="92.940999"><time>1970-01-01T00:00:01.000Z</time></trkpt>
			<trkpt lat="56.023847" lon="92.940790"><time>1970-01-01T00:00:01.000Z</time></trkpt>
			<trkpt lat="56.024525" lon="92.940527"><time>1970-01-01T00:00:01.000Z</time></trkpt>
			<trkpt lat="56.025095" lon="92.940291"><time>1970-01-01T00:00:01.000Z</time></trkpt>
			<trkpt lat="56.025358" lon="92.940189"><time>1970-01-01T00:00:01.000Z</time></trkpt>
			<trkpt lat="56.025586" lon="92.940259"><time>1970-01-01T00:00:01.000Z</time></trkpt>
			<trkpt lat="56.025862" lon="92.940238"><time>1970-01-01T00:00:01.000Z</time></trkpt>
		</trkseg>
	</trk>
</gpx>