<?xml version="1.0" encoding="UTF-8" standalone="no" ?>
<gpx xmlns="http://www.topografix.com/GPX/1/1" creator="http://nakarte.me" xmlns:xsi="http://www.w3.org/2001/XMLSchema-instance" xsi:schemaLocation="http://www.topografix.com/GPX/1/1 http://www.topografix.com/GPX/1/1/gpx.xsd" version="1.1">
	<metadata>
		<time>2026-07-10T06:39:44.190Z</time>
	</metadata>
	<wpt lat="56.029141" lon="92.946724">
		<name>001</name>
	</wpt>
	<trk>
		<name>snowswn</name>
		<trkseg>
			<trkpt lat="56.029084" lon="92.946816"><time>1970-01-01T00:00:01.000Z</time></trkpt>
			<trkpt lat="56.029153" lon="92.947293"><time>1970-01-01T00:00:01.000Z</time></trkpt>
			<trkpt lat="56.029180" lon="92.947394"><time>1970-01-01T00:00:01.000Z</time></trkpt>
			<trkpt lat="56.029285" lon="92.947919"><time>1970-01-01T00:00:01.000Z</time></trkpt>
			<trkpt lat="56.029387" lon="92.948241"><time>1970-01-01T00:00:01.000Z</time></trkpt>
			<trkpt lat="56.029498" lon="92.948552"><time>1970-01-01T00:00:01.000Z</time></trkpt>
			<trkpt lat="56.029540" lon="92.948654"><time>1970-01-01T00:00:01.000Z</time></trkpt>
			<trkpt lat="56.029552" lon="92.948788"><time>1970-01-01T00:00:01.000Z</time></trkpt>
			<trkpt lat="56.029780" lon="92.949513"><time>1970-01-01T00:00:01.000Z</time></trkpt>
			<trkpt lat="56.029891" lon="92.949786"><time>1970-01-01T00:00:01.000Z</time></trkpt>
			<trkpt lat="56.030122" lon="92.950135"><time>1970-01-01T00:00:01.000Z</time></trkpt>
			<trkpt lat="56.030280" lon="92.950371"><time>1970-01-01T00:00:01.000Z</time></trkpt>
			<trkpt lat="56.030562" lon="92.950628"><time>1970-01-01T00:00:01.000Z</time></trkpt>
			<trkpt lat="56.030682" lon="92.950832"><time>1970-01-01T00:00:01.000Z</time></trkpt>
			<trkpt lat="56.030817" lon="92.951111"><time>1970-01-01T00:00:01.000Z</time></trkpt>
			<trkpt lat="56.031069" lon="92.951363"><time>1970-01-01T00:00:01.000Z</time></trkpt>
			<trkpt lat="56.031317" lon="92.951723"><time>1970-01-01T00:00:01.000Z</time></trkpt>
			<trkpt lat="56.031737" lon="92.952560"><time>1970-01-01T00:00:01.000Z</time></trkpt>
			<trkpt lat="56.032100" lon="92.953268"><time>1970-01-01T00:00:01.000Z</time></trkpt>
			<trkpt lat="56.032208" lon="92.953557"><time>1970-01-01T00:00:01.000Z</time></trkpt>
			<trkpt lat="56.032253" lon="92.953788"><time>1970-01-01T00:00:01.000Z</time></trkpt>
			<trkpt lat="56.032286" lon="92.953997"><time>1970-01-01T00:00:01.000Z</time></trkpt>
			<trkpt lat="56.032316" lon="92.954153"><time>1970-01-01T00:00:01.000Z</time></trkpt>
			<trkpt lat="56.032420" lon="92.954469"><time>1970-01-01T00:00:01.000Z</time></trkpt>
			<trkpt lat="56.032534" lon="92.954856"><time>1970-01-01T00:00:01.000Z</time></trkpt>
			<trkpt lat="56.032681" lon="92.955306"><time>1970-01-01T00:00:01.000Z</time></trkpt>
			<trkpt lat="56.032934" lon="92.955843"><time>1970-01-01T00:00:01.000Z</time></trkpt>
			<trkpt lat="56.033305" lon="92.956583"><time>1970-01-01T00:00:01.000Z</time></trkpt>
			<trkpt lat="56.033550" lon="92.957114"><time>1970-01-01T00:00:01.000Z</time></trkpt>
			<trkpt lat="56.033691" lon="92.957436"><time>1970-01-01T00:00:01.000Z</time></trkpt>
			<trkpt lat="56.033874" lon="92.957940"><time>1970-01-01T00:00:01.000Z</time></trkpt>
			<trkpt lat="56.033980" lon="92.958292"><time>1970-01-01T00:00:01.000Z</time></trkpt>
			<trkpt lat="56.034054" lon="92.958562"><time>1970-01-01T00:00:01.000Z</time></trkpt>
			<trkpt lat="56.034147" lon="92.958906"><time>1970-01-01T00:00:01.000Z</time></trkpt>
			<trkpt lat="56.034261" lon="92.959399"><time>1970-01-01T00:00:01.000Z</time></trkpt>
			<trkpt lat="56.034354" lon="92.959791"><time>1970-01-01T00:00:01.000Z</time></trkpt>
			<trkpt lat="56.034402" lon="92.959946"><time>1970-01-01T00:00:01.000Z</time></trkpt>
			<trkpt lat="56.034596" lon="92.960290"><time>1970-01-01T00:00:01.000Z</time></trkpt>
			<trkpt lat="56.034950" lon="92.960832"><time>1970-01-01T00:00:01.000Z</time></trkpt>
			<trkpt lat="56.035133" lon="92.961169"><time>1970-01-01T00:00:01.000Z</time></trkpt>
			<trkpt lat="56.035268" lon="92.961556"><time>1970-01-01T00:00:01.000Z</time></trkpt>
			<trkpt lat="56.035394" lon="92.961953"><time>1970-01-01T00:00:01.000Z</time></trkpt>
			<trkpt lat="56.035496" lon="92.962275"><time>1970-01-01T00:00:01.000Z</time></trkpt>
			<trkpt lat="56.035543" lon="92.962473"><time>1970-01-01T00:00:01.000Z</time></trkpt>
			<trkpt lat="56.035600" lon="92.963063"><time>1970-01-01T00:00:01.000Z</time></trkpt>
			<trkpt lat="56.035651" lon="92.963621"><time>1970-01-01T00:00:01.000Z</time></trkpt>
			<trkpt lat="56.035708" lon="92.963975"><time>1970-01-01T00:00:01.000Z</time></trkpt>
			<trkpt lat="56.035800" lon="92.964327"><time>1970-01-01T00:00:01.000Z</time></trkpt>
			<trkpt lat="56.035997" lon="92.964893"><time>1970-01-01T00:00:01.000Z</time></trkpt>
			<trkpt lat="56.036179" lon="92.965423"><time>1970-01-01T00:00:01.000Z</time></trkpt>
			<trkpt lat="56.036332" lon="92.965917"><time>1970-01-01T00:00:01.000Z</time></trkpt>
			<trkpt lat="56.036455" lon="92.966282"><time>1970-01-01T00:00:01.000Z</time></trkpt>
			<trkpt lat="56.036541" lon="92.966555"><time>1970-01-01T00:00:01.000Z</time></trkpt>
			<trkpt lat="56.036694" lon="92.966942"><time>1970-01-01T00:00:01.000Z</time></trkpt>
			<trkpt lat="56.036752" lon="92.967061"><time>1970-01-01T00:00:01.000Z</time></trkpt>
			<trkpt lat="56.037039" lon="92.967634"><time>1970-01-01T00:00:01.000Z</time></trkpt>
			<trkpt lat="56.037256" lon="92.968019"><time>1970-01-01T00:00:01.000Z</time></trkpt>
			<trkpt lat="56.037333" lon="92.968122"><time>1970-01-01T00:00:01.000Z</time></trkpt>
			<trkpt lat="56.037435" lon="92.968347"><time>1970-01-01T00:00:01.000Z</time></trkpt>
			<trkpt lat="56.037496" lon="92.968445"><time>1970-01-01T00:00:01.000Z</time></trkpt>
			<trkpt lat="56.037549" lon="92.968529"><time>1970-01-01T00:00:01.000Z</time></trkpt>
			<trkpt lat="56.037628" lon="92.968624"><time>1970-01-01T00:00:01.000Z</time></trkpt>
			<trkpt lat="56.037923" lon="92.968921"><time>1970-01-01T00:00:01.000Z</time></trkpt>
			<trkpt lat="56.038202" lon="92.969195"><time>1970-01-01T00:00:01.000Z</time></trkpt>
			<trkpt lat="56.038172" lon="92.969125"><time>1970-01-01T00:00:01.000Z</time></trkpt>
			<trkpt lat="56.037764" lon="92.968723"><time>1970-01-01T00:00:01.000Z</time></trkpt>
			<trkpt lat="56.037596" lon="92.968540"><time>1970-01-01T00:00:01.000Z</time></trkpt>
			<trkpt lat="56.037473" lon="92.968363"><time>1970-01-01T00:00:01.000Z</time></trkpt>
			<trkpt lat="56.037114" lon="92.967719"><time>1970-01-01T00:00:01.000Z</time></trkpt>
			<trkpt lat="56.036868" lon="92.967237"><time>1970-01-01T00:00:01.000Z</time></trkpt>
			<trkpt lat="56.036739" lon="92.966979"><time>1970-01-01T00:00:01.000Z</time></trkpt>
			<trkpt lat="56.036625" lon="92.966700"><time>1970-01-01T00:00:01.000Z</time></trkpt>
			<trkpt lat="56.036404" lon="92.966067"><time>1970-01-01T00:00:01.000Z</time></trkpt>
			<trkpt lat="56.036219" lon="92.965519"><time>1970-01-01T00:00:01.000Z</time></trkpt>
			<trkpt lat="56.036068" lon="92.965043"><time>1970-01-01T00:00:01.000Z</time></trkpt>
			<trkpt lat="56.035882" lon="92.964517"><time>1970-01-01T00:00:01.000Z</time></trkpt>
			<trkpt lat="56.035762" lon="92.964109"><time>1970-01-01T00:00:01.000Z</time></trkpt>
			<trkpt lat="56.035693" lon="92.963755"><time>1970-01-01T00:00:01.000Z</time></trkpt>
			<trkpt lat="56.035651" lon="92.963369"><time>1970-01-01T00:00:01.000Z</time></trkpt>
			<trkpt lat="56.035600" lon="92.962747"><time>1970-01-01T00:00:01.000Z</time></trkpt>
			<trkpt lat="56.035555" lon="92.962339"><time>1970-01-01T00:00:01.000Z</time></trkpt>
			<trkpt lat="56.035460" lon="92.962055"><time>1970-01-01T00:00:01.000Z</time></trkpt>
			<trkpt lat="56.035335" lon="92.961681"><time>1970-01-01T00:00:01.000Z</time></trkpt>
			<trkpt lat="56.035217" lon="92.961304"><time>1970-01-01T00:00:01.000Z</time></trkpt>
			<trkpt lat="56.035097" lon="92.961019"><time>1970-01-01T00:00:01.000Z</time></trkpt>
			<trkpt lat="56.034854" lon="92.960612"><time>1970-01-01T00:00:01.000Z</time></trkpt>
			<trkpt lat="56.034650" lon="92.960317"><time>1970-01-01T00:00:01.000Z</time></trkpt>
			<trkpt lat="56.034459" lon="92.959984"><time>1970-01-01T00:00:01.000Z</time></trkpt>
			<trkpt lat="56.034408" lon="92.959877"><time>1970-01-01T00:00:01.000Z</time></trkpt>
			<trkpt lat="56.034315" lon="92.959555"><time>1970-01-01T00:00:01.000Z</time></trkpt>
			<trkpt lat="56.034278" lon="92.959405"><time>1970-01-01T00:00:01.000Z</time></trkpt>
			<trkpt lat="56.034244" lon="92.959188"><time>1970-01-01T00:00:01.000Z</time></trkpt>
			<trkpt lat="56.034120" lon="92.958707"><time>1970-01-01T00:00:01.000Z</time></trkpt>
			<trkpt lat="56.034051" lon="92.958428"><time>1970-01-01T00:00:01.000Z</time></trkpt>
			<trkpt lat="56.033922" lon="92.958004"><time>1970-01-01T00:00:01.000Z</time></trkpt>
			<trkpt lat="56.033823" lon="92.957720"><time>1970-01-01T00:00:01.000Z</time></trkpt>
			<trkpt lat="56.033667" lon="92.957291"><time>1970-01-01T00:00:01.000Z</time></trkpt>
			<trkpt lat="56.033481" lon="92.956883"><time>1970-01-01T00:00:01.000Z</time></trkpt>
			<trkpt lat="56.033260" lon="92.956427"><time>1970-01-01T00:00:01.000Z</time></trkpt>
			<trkpt lat="56.033014" lon="92.955934"><time>1970-01-01T00:00:01.000Z</time></trkpt>
			<trkpt lat="56.032818" lon="92.955543"><time>1970-01-01T00:00:01.000Z</time></trkpt>
			<trkpt lat="56.032732" lon="92.955354"><time>1970-01-01T00:00:01.000Z</time></trkpt>
			<trkpt lat="56.032645" lon="92.955124"><time>1970-01-01T00:00:01.000Z</time></trkpt>
			<trkpt lat="56.032513" lon="92.954668"><time>1970-01-01T00:00:01.000Z</time></trkpt>
			<trkpt lat="56.032394" lon="92.954298"><time>1970-01-01T00:00:01.000Z</time></trkpt>
			<trkpt lat="56.032328" lon="92.954056"><time>1970-01-01T00:00:01.000Z</time></trkpt>
			<trkpt lat="56.032298" lon="92.953858"><time>1970-01-01T00:00:01.000Z</time></trkpt>
			<trkpt lat="56.032244" lon="92.953600"><time>1970-01-01T00:00:01.000Z</time></trkpt>
			<trkpt lat="56.032202" lon="92.953429"><time>1970-01-01T00:00:01.000Z</time></trkpt>
			<trkpt lat="56.032043" lon="92.953091"><time>1970-01-01T00:00:01.000Z</time></trkpt>
			<trkpt lat="56.031877" lon="92.952748"><time>1970-01-01T00:00:01.000Z</time></trkpt>
			<trkpt lat="56.031458" lon="92.951943"><time>1970-01-01T00:00:01.000Z</time></trkpt>
			<trkpt lat="56.031317" lon="92.951664"><time>1970-01-01T00:00:01.000Z</time></trkpt>
			<trkpt lat="56.031192" lon="92.951476"><time>1970-01-01T00:00:01.000Z</time></trkpt>
			<trkpt lat="56.031051" lon="92.951299"><time>1970-01-01T00:00:01.000Z</time></trkpt>
			<trkpt lat="56.030910" lon="92.951165"><time>1970-01-01T00:00:01.000Z</time></trkpt>
			<trkpt lat="56.030811" lon="92.951036"><time>1970-01-01T00:00:01.000Z</time></trkpt>
			<trkpt lat="56.030643" lon="92.950709"><time>1970-01-01T00:00:01.000Z</time></trkpt>
			<trkpt lat="56.030529" lon="92.950526"><time>1970-01-01T00:00:01.000Z</time></trkpt>
			<trkpt lat="56.030319" lon="92.950355"><time>1970-01-01T00:00:01.000Z</time></trkpt>
			<trkpt lat="56.030211" lon="92.950205"><time>1970-01-01T00:00:01.000Z</time></trkpt>
			<trkpt lat="56.030018" lon="92.949929"><time>1970-01-01T00:00:01.000Z</time></trkpt>
			<trkpt lat="56.029972" lon="92.949861"><time>1970-01-01T00:00:01.000Z</time></trkpt>
			<trkpt lat="56.029876" lon="92.949690"><time>1970-01-01T00:00:01.000Z</time></trkpt>
			<trkpt lat="56.029665" lon="92.949053"><time>1970-01-01T00:00:01.000Z</time></trkpt>
			<trkpt lat="56.029447" lon="92.948338"><time>1970-01-01T00:00:01.000Z</time></trkpt>
			<trkpt lat="56.029336" lon="92.947984"><time>1970-01-01T00:00:01.000Z</time></trkpt>
			<trkpt lat="56.029285" lon="92.947812"><time>1970-01-01T00:00:01.000Z</time></trkpt>
			<trkpt lat="56.029219" lon="92.947469"><time>1970-01-01T00:00:01.000Z</time></trkpt>
			<trkpt lat="56.029198" lon="92.947340"><time>1970-01-01T00:00:01.000Z</time></trkpt>
			<trkpt lat="56.029132" lon="92.947361"><time>1970-01-01T00:00:01.000Z</time></trkpt>
			<trkpt lat="56.029237" lon="92.947812"><time>1970-01-01T00:00:01.000Z</time></trkpt>
			<trkpt lat="56.029342" lon="92.948236"><time>1970-01-01T00:00:01.000Z</time></trkpt>
			<trkpt lat="56.029615" lon="92.949089"><time>1970-01-01T00:00:01.000Z</time></trkpt>
			<trkpt lat="56.029807" lon="92.949674"><time>1970-01-01T00:00:01.000Z</time></trkpt>
			<trkpt lat="56.029987" lon="92.950028"><time>1970-01-01T00:00:01.000Z</time></trkpt>
			<trkpt lat="56.030196" lon="92.950312"><time>1970-01-01T00:00:01.000Z</time></trkpt>
			<trkpt lat="56.030379" lon="92.950505"><time>1970-01-01T00:00:01.000Z</time></trkpt>
			<trkpt lat="56.030520" lon="92.950650"><time>1970-01-01T00:00:01.000Z</time></trkpt>
			<trkpt lat="56.030639" lon="92.950833"><time>1970-01-01T00:00:01.000Z</time></trkpt>
			<trkpt lat="56.030772" lon="92.951117"><time>1970-01-01T00:00:01.000Z</time></trkpt>
			<trkpt lat="56.030925" lon="92.951272"><time>1970-01-01T00:00:01.000Z</time></trkpt>
			<trkpt lat="56.031135" lon="92.951492"><time>1970-01-01T00:00:01.000Z</time></trkpt>
			<trkpt lat="56.031356" lon="92.951862"><time>1970-01-01T00:00:01.000Z</time></trkpt>
			<trkpt lat="56.031623" lon="92.952383"><time>1970-01-01T00:00:01.000Z</time></trkpt>
			<trkpt lat="56.031911" lon="92.952967"><time>1970-01-01T00:00:01.000Z</time></trkpt>
			<trkpt lat="56.032055" lon="92.953252"><time>1970-01-01T00:00:01.000Z</time></trkpt>
			<trkpt lat="56.032142" lon="92.953439"><time>1970-01-01T00:00:01.000Z</time></trkpt>
			<trkpt lat="56.032214" lon="92.953681"><time>1970-01-01T00:00:01.000Z</time></trkpt>
			<trkpt lat="56.032241" lon="92.953917"><time>1970-01-01T00:00:01.000Z</time></trkpt>
			<trkpt lat="56.032298" lon="92.954185"><time>1970-01-01T00:00:01.000Z</time></trkpt>
			<trkpt lat="56.032397" lon="92.954491"><time>1970-01-01T00:00:01.000Z</time></trkpt>
			<trkpt lat="56.032582" lon="92.955086"><time>1970-01-01T00:00:01.000Z</time></trkpt>
			<trkpt lat="56.032694" lon="92.955475"><time>1970-01-01T00:00:01.000Z</time></trkpt>
			<trkpt lat="56.033020" lon="92.956095"><time>1970-01-01T00:00:01.000Z</time></trkpt>
			<trkpt lat="56.033392" lon="92.956835"><time>1970-01-01T00:00:01.000Z</time></trkpt>
			<trkpt lat="56.033682" lon="92.957479"><time>1970-01-01T00:00:01.000Z</time></trkpt>
			<trkpt lat="56.033823" lon="92.957908"><time>1970-01-01T00:00:01.000Z</time></trkpt>
			<trkpt lat="56.033917" lon="92.958235"><time>1970-01-01T00:00:01.000Z</time></trkpt>
			<trkpt lat="56.034006" lon="92.958557"><time>1970-01-01T00:00:01.000Z</time></trkpt>
			<trkpt lat="56.034168" lon="92.959142"><time>1970-01-01T00:00:01.000Z</time></trkpt>
			<trkpt lat="56.034291" lon="92.959651"><time>1970-01-01T00:00:01.000Z</time></trkpt>
			<trkpt lat="56.034411" lon="92.960043"><time>1970-01-01T00:00:01.000Z</time></trkpt>
			<trkpt lat="56.034740" lon="92.960574"><time>1970-01-01T00:00:01.000Z</time></trkpt>
			<trkpt lat="56.034991" lon="92.960986"><time>1970-01-01T00:00:01.000Z</time></trkpt>
			<trkpt lat="56.035178" lon="92.961347"><time>1970-01-01T00:00:01.000Z</time></trkpt>
			<trkpt lat="56.035433" lon="92.962183"><time>1970-01-01T00:00:01.000Z</time></trkpt>
			<trkpt lat="56.035499" lon="92.962441"><time>1970-01-01T00:00:01.000Z</time></trkpt>
			<trkpt lat="56.035545" lon="92.962763"><time>1970-01-01T00:00:01.000Z</time></trkpt>
			<trkpt lat="56.035590" lon="92.963402"><time>1970-01-01T00:00:01.000Z</time></trkpt>
			<trkpt lat="56.035657" lon="92.963836"><time>1970-01-01T00:00:01.000Z</time></trkpt>
			<trkpt lat="56.035732" lon="92.964184"><time>1970-01-01T00:00:01.000Z</time></trkpt>
			<trkpt lat="56.035912" lon="92.964742"><time>1970-01-01T00:00:01.000Z</time></trkpt>
			<trkpt lat="56.036083" lon="92.965236"><time>1970-01-01T00:00:01.000Z</time></trkpt>
			<trkpt lat="56.036251" lon="92.965719"><time>1970-01-01T00:00:01.000Z</time></trkpt>
			<trkpt lat="56.036390" lon="92.966171"><time>1970-01-01T00:00:01.000Z</time></trkpt>
			<trkpt lat="56.036580" lon="92.966780"><time>1970-01-01T00:00:01.000Z</time></trkpt>
			<trkpt lat="56.036787" lon="92.967215"><time>1970-01-01T00:00:01.000Z</time></trkpt>
			<trkpt lat="56.037129" lon="92.967870"><time>1970-01-01T00:00:01.000Z</time></trkpt>
			<trkpt lat="56.037305" lon="92.968196"><time>1970-01-01T00:00:01.000Z</time></trkpt>
			<trkpt lat="56.037500" lon="92.968556"><time>1970-01-01T00:00:01.000Z</time></trkpt>
			<trkpt lat="56.037740" lon="92.968792"><time>1970-01-01T00:00:01.000Z</time></trkpt>
			<trkpt lat="56.037971" lon="92.969050"><time>1970-01-01T00:00:01.000Z</time></trkpt>
			<trkpt lat="56.038190" lon="92.969259"><time>1970-01-01T00:00:01.000Z</time></trkpt>
			<trkpt lat="56.038247" lon="92.969211"><time>1970-01-01T00:00:01.000Z</time></trkpt>
			<trkpt lat="56.038190" lon="92.969077"><time>1970-01-01T00:00:01.000Z</time></trkpt>
			<trkpt lat="56.037674" lon="92.968572"><time>1970-01-01T00:00:01.000Z</time></trkpt>
			<trkpt lat="56.037563" lon="92.968444"><time>1970-01-01T00:00:01.000Z</time></trkpt>
			<trkpt lat="56.037414" lon="92.968197"><time>1970-01-01T00:00:01.000Z</time></trkpt>
			<trkpt lat="56.037183" lon="92.967784"><time>1970-01-01T00:00:01.000Z</time></trkpt>
			<trkpt lat="56.036937" lon="92.967301"><time>1970-01-01T00:00:01.000Z</time></trkpt>
			<trkpt lat="56.036739" lon="92.966899"><time>1970-01-01T00:00:01.000Z</time></trkpt>
			<trkpt lat="56.036532" lon="92.966352"><time>1970-01-01T00:00:01.000Z</time></trkpt>
			<trkpt lat="56.036305" lon="92.965686"><time>1970-01-01T00:00:01.000Z</time></trkpt>
			<trkpt lat="56.036131" lon="92.965161"><time>1970-01-01T00:00:01.000Z</time></trkpt>
			<trkpt lat="56.035948" lon="92.964640"><time>1970-01-01T00:00:01.000Z</time></trkpt>
			<trkpt lat="56.035846" lon="92.964318"><time>1970-01-01T00:00:01.000Z</time></trkpt>
			<trkpt lat="56.035760" lon="92.963992"><time>1970-01-01T00:00:01.000Z</time></trkpt>
			<trkpt lat="56.035693" lon="92.963514"><time>1970-01-01T00:00:01.000Z</time></trkpt>
			<trkpt lat="56.035654" lon="92.963144"><time>1970-01-01T00:00:01.000Z</time></trkpt>
			<trkpt lat="56.035603" lon="92.962591"><time>1970-01-01T00:00:01.000Z</time></trkpt>
			<trkpt lat="56.035555" lon="92.962237"><time>1970-01-01T00:00:01.000Z</time></trkpt>
			<trkpt lat="56.035448" lon="92.961931"><time>1970-01-01T00:00:01.000Z</time></trkpt>
			<trkpt lat="56.035292" lon="92.961454"><time>1970-01-01T00:00:01.000Z</time></trkpt>
			<trkpt lat="56.035169" lon="92.961137"><time>1970-01-01T00:00:01.000Z</time></trkpt>
			<trkpt lat="56.034984" lon="92.960778"><time>1970-01-01T00:00:01.000Z</time></trkpt>
			<trkpt lat="56.034717" lon="92.960352"><time>1970-01-01T00:00:01.000Z</time></trkpt>
			<trkpt lat="56.034548" lon="92.960081"><time>1970-01-01T00:00:01.000Z</time></trkpt>
			<trkpt lat="56.034387" lon="92.959734"><time>1970-01-01T00:00:01.000Z</time></trkpt>
			<trkpt lat="56.034282" lon="92.959297"><time>1970-01-01T00:00:01.000Z</time></trkpt>
			<trkpt lat="56.034201" lon="92.958943"><time>1970-01-01T00:00:01.000Z</time></trkpt>
			<trkpt lat="56.034096" lon="92.958514"><time>1970-01-01T00:00:01.000Z</time></trkpt>
			<trkpt lat="56.033986" lon="92.958158"><time>1970-01-01T00:00:01.000Z</time></trkpt>
			<trkpt lat="56.033901" lon="92.957849"><time>1970-01-01T00:00:01.000Z</time></trkpt>
			<trkpt lat="56.033760" lon="92.957463"><time>1970-01-01T00:00:01.000Z</time></trkpt>
			<trkpt lat="56.033595" lon="92.957076"><time>1970-01-01T00:00:01.000Z</time></trkpt>
			<trkpt lat="56.033334" lon="92.956541"><time>1970-01-01T00:00:01.000Z</time></trkpt>
			<trkpt lat="56.033155" lon="92.956148"><time>1970-01-01T00:00:01.000Z</time></trkpt>
			<trkpt lat="56.032879" lon="92.955601"><time>1970-01-01T00:00:01.000Z</time></trkpt>
			<trkpt lat="56.032699" lon="92.955204"><time>1970-01-01T00:00:01.000Z</time></trkpt>
			<trkpt lat="56.032564" lon="92.954754"><time>1970-01-01T00:00:01.000Z</time></trkpt>
			<trkpt lat="56.032456" lon="92.954421"><time>1970-01-01T00:00:01.000Z</time></trkpt>
			<trkpt lat="56.032370" lon="92.954126"><time>1970-01-01T00:00:01.000Z</time></trkpt>
			<trkpt lat="56.032313" lon="92.953793"><time>1970-01-01T00:00:01.000Z</time></trkpt>
			<trkpt lat="56.032250" lon="92.953461"><time>1970-01-01T00:00:01.000Z</time></trkpt>
			<trkpt lat="56.032103" lon="92.953150"><time>1970-01-01T00:00:01.000Z</time></trkpt>
			<trkpt lat="56.031953" lon="92.952841"><time>1970-01-01T00:00:01.000Z</time></trkpt>
			<trkpt lat="56.031785" lon="92.952506"><time>1970-01-01T00:00:01.000Z</time></trkpt>
			<trkpt lat="56.031491" lon="92.951916"><time>1970-01-01T00:00:01.000Z</time></trkpt>
			<trkpt lat="56.031225" lon="92.951455"><time>1970-01-01T00:00:01.000Z</time></trkpt>
			<trkpt lat="56.031120" lon="92.951320"><time>1970-01-01T00:00:01.000Z</time></trkpt>
			<trkpt lat="56.030988" lon="92.951170"><time>1970-01-01T00:00:01.000Z</time></trkpt>
			<trkpt lat="56.030868" lon="92.951058"><time>1970-01-01T00:00:01.000Z</time></trkpt>
			<trkpt lat="56.030745" lon="92.950843"><time>1970-01-01T00:00:01.000Z</time></trkpt>
			<trkpt lat="56.030664" lon="92.950677"><time>1970-01-01T00:00:01.000Z</time></trkpt>
			<trkpt lat="56.030532" lon="92.950484"><time>1970-01-01T00:00:01.000Z</time></trkpt>
			<trkpt lat="56.030424" lon="92.950398"><time>1970-01-01T00:00:01.000Z</time></trkpt>
			<trkpt lat="56.030289" lon="92.950248"><time>1970-01-01T00:00:01.000Z</time></trkpt>
			<trkpt lat="56.030137" lon="92.950054"><time>1970-01-01T00:00:01.000Z</time></trkpt>
			<trkpt lat="56.029996" lon="92.949818"><time>1970-01-01T00:00:01.000Z</time></trkpt>
			<trkpt lat="56.029882" lon="92.949625"><time>1970-01-01T00:00:01.000Z</time></trkpt>
			<trkpt lat="56.029780" lon="92.949309"><time>1970-01-01T00:00:01.000Z</time></trkpt>
			<trkpt lat="56.029628" lon="92.948836"><time>1970-01-01T00:00:01.000Z</time></trkpt>
			<trkpt lat="56.029477" lon="92.948332"><time>1970-01-01T00:00:01.000Z</time></trkpt>
			<trkpt lat="56.029333" lon="92.947860"><time>1970-01-01T00:00:01.000Z</time></trkpt>
			<trkpt lat="56.029237" lon="92.947367"><time>1970-01-01T00:00:01.000Z</time></trkpt>
			<trkpt lat="56.029141" lon="92.946782"><time>1970-01-01T00:00:01.000Z</time></trkpt>
			<trkpt lat="56.029132" lon="92.946643"><time>1970-01-01T00:00:01.000Z</time></trkpt>
		</trkseg>
	</trk>
</gpx>