<?xml version="1.0" encoding="UTF-8" standalone="no" ?>
<gpx xmlns="http://www.topografix.com/GPX/1/1" creator="http://nakarte.me" xmlns:xsi="http://www.w3.org/2001/XMLSchema-instance" xsi:schemaLocation="http://www.topografix.com/GPX/1/1 http://www.topografix.com/GPX/1/1/gpx.xsd" version="1.1">
	<metadata>
		<time>2026-07-10T06:56:06.388Z</time>
	</metadata>
	<trk>
		<name>night_vesna</name>
		<trkseg>
			<trkpt lat="56.006380" lon="92.871515"><time>1970-01-01T00:00:01.000Z</time></trkpt>
			<trkpt lat="56.006288" lon="92.870276"><time>1970-01-01T00:00:01.000Z</time></trkpt>
			<trkpt lat="56.006195" lon="92.869063"><time>1970-01-01T00:00:01.000Z</time></trkpt>
			<trkpt lat="56.006114" lon="92.868205"><time>1970-01-01T00:00:01.000Z</time></trkpt>
			<trkpt lat="56.006132" lon="92.867958"><time>1970-01-01T00:00:01.000Z</time></trkpt>
			<trkpt lat="56.006141" lon="92.867647"><time>1970-01-01T00:00:01.000Z</time></trkpt>
			<trkpt lat="56.006165" lon="92.867433"><time>1970-01-01T00:00:01.000Z</time></trkpt>
			<trkpt lat="56.006156" lon="92.867240"><time>1970-01-01T00:00:01.000Z</time></trkpt>
			<trkpt lat="56.006180" lon="92.866862"><time>1970-01-01T00:00:01.000Z</time></trkpt>
			<trkpt lat="56.006175" lon="92.865455"><time>1970-01-01T00:00:01.000Z</time></trkpt>
			<trkpt lat="56.006189" lon="92.864053"><time>1970-01-01T00:00:01.000Z</time></trkpt>
			<trkpt lat="56.006186" lon="92.862803"><time>1970-01-01T00:00:01.000Z</time></trkpt>
			<trkpt lat="56.006180" lon="92.861752"><time>1970-01-01T00:00:01.000Z</time></trkpt>
			<trkpt lat="56.006153" lon="92.861349"><time>1970-01-01T00:00:01.000Z</time></trkpt>
			<trkpt lat="56.006150" lon="92.860947"><time>1970-01-01T00:00:01.000Z</time></trkpt>
			<trkpt lat="56.006126" lon="92.860368"><time>1970-01-01T00:00:01.000Z</time></trkpt>
			<trkpt lat="56.006051" lon="92.859933"><time>1970-01-01T00:00:01.000Z</time></trkpt>
			<trkpt lat="56.005865" lon="92.859113"><time>1970-01-01T00:00:01.000Z</time></trkpt>
			<trkpt lat="56.005803" lon="92.858604"><time>1970-01-01T00:00:01.000Z</time></trkpt>
			<trkpt lat="56.005639" lon="92.857733"><time>1970-01-01T00:00:01.000Z</time></trkpt>
			<trkpt lat="56.005559" lon="92.857396"><time>1970-01-01T00:00:01.000Z</time></trkpt>
			<trkpt lat="56.005439" lon="92.857015"><time>1970-01-01T00:00:01.000Z</time></trkpt>
			<trkpt lat="56.005388" lon="92.856457"><time>1970-01-01T00:00:01.000Z</time></trkpt>
			<trkpt lat="56.005262" lon="92.855706"><time>1970-01-01T00:00:01.000Z</time></trkpt>
			<trkpt lat="56.004959" lon="92.854172"><time>1970-01-01T00:00:01.000Z</time></trkpt>
			<trkpt lat="56.004728" lon="92.852943"><time>1970-01-01T00:00:01.000Z</time></trkpt>
			<trkpt lat="56.004584" lon="92.852294"><time>1970-01-01T00:00:01.000Z</time></trkpt>
			<trkpt lat="56.004398" lon="92.851640"><time>1970-01-01T00:00:01.000Z</time></trkpt>
			<trkpt lat="56.004147" lon="92.851026"><time>1970-01-01T00:00:01.000Z</time></trkpt>
			<trkpt lat="56.003975" lon="92.850739"><time>1970-01-01T00:00:01.000Z</time></trkpt>
			<trkpt lat="56.003699" lon="92.850342"><time>1970-01-01T00:00:01.000Z</time></trkpt>
			<trkpt lat="56.003615" lon="92.850315"><time>1970-01-01T00:00:01.000Z</time></trkpt>
			<trkpt lat="56.003520" lon="92.850358"><time>1970-01-01T00:00:01.000Z</time></trkpt>
			<trkpt lat="56.003324" lon="92.850095"><time>1970-01-01T00:00:01.000Z</time></trkpt>
			<trkpt lat="56.003111" lon="92.849768"><time>1970-01-01T00:00:01.000Z</time></trkpt>
			<trkpt lat="56.002785" lon="92.849142"><time>1970-01-01T00:00:01.000Z</time></trkpt>
			<trkpt lat="56.002488" lon="92.848496"><time>1970-01-01T00:00:01.000Z</time></trkpt>
			<trkpt lat="56.002299" lon="92.848046"><time>1970-01-01T00:00:01.000Z</time></trkpt>
			<trkpt lat="56.002038" lon="92.847246"><time>1970-01-01T00:00:01.000Z</time></trkpt>
			<trkpt lat="56.001717" lon="92.846018"><time>1970-01-01T00:00:01.000Z</time></trkpt>
			<trkpt lat="56.001420" lon="92.844677"><time>1970-01-01T00:00:01.000Z</time></trkpt>
			<trkpt lat="56.001180" lon="92.843652"><time>1970-01-01T00:00:01.000Z</time></trkpt>
			<trkpt lat="56.000904" lon="92.842504"><time>1970-01-01T00:00:01.000Z</time></trkpt>
			<trkpt lat="56.000613" lon="92.841324"><time>1970-01-01T00:00:01.000Z</time></trkpt>
			<trkpt lat="56.000262" lon="92.839909"><time>1970-01-01T00:00:01.000Z</time></trkpt>
			<trkpt lat="55.999914" lon="92.838620"><time>1970-01-01T00:00:01.000Z</time></trkpt>
			<trkpt lat="55.999689" lon="92.837810"><time>1970-01-01T00:00:01.000Z</time></trkpt>
			<trkpt lat="55.999427" lon="92.836913"><time>1970-01-01T00:00:01.000Z</time></trkpt>
			<trkpt lat="55.999118" lon="92.835836"><time>1970-01-01T00:00:01.000Z</time></trkpt>
			<trkpt lat="55.998867" lon="92.835042"><time>1970-01-01T00:00:01.000Z</time></trkpt>
			<trkpt lat="55.998834" lon="92.835016"><time>1970-01-01T00:00:01.000Z</time></trkpt>
			<trkpt lat="55.998834" lon="92.835080"><time>1970-01-01T00:00:01.000Z</time></trkpt>
			<trkpt lat="55.999218" lon="92.836292"><time>1970-01-01T00:00:01.000Z</time></trkpt>
			<trkpt lat="55.999596" lon="92.837580"><time>1970-01-01T00:00:01.000Z</time></trkpt>
			<trkpt lat="55.999986" lon="92.838969"><time>1970-01-01T00:00:01.000Z</time></trkpt>
			<trkpt lat="56.000336" lon="92.840370"><time>1970-01-01T00:00:01.000Z</time></trkpt>
			<trkpt lat="56.000640" lon="92.841576"><time>1970-01-01T00:00:01.000Z</time></trkpt>
			<trkpt lat="56.000816" lon="92.842307"><time>1970-01-01T00:00:01.000Z</time></trkpt>
			<trkpt lat="56.001018" lon="92.843100"><time>1970-01-01T00:00:01.000Z</time></trkpt>
			<trkpt lat="56.001231" lon="92.844012"><time>1970-01-01T00:00:01.000Z</time></trkpt>
			<trkpt lat="56.001466" lon="92.845032"><time>1970-01-01T00:00:01.000Z</time></trkpt>
			<trkpt lat="56.001639" lon="92.845787"><time>1970-01-01T00:00:01.000Z</time></trkpt>
			<trkpt lat="56.001754" lon="92.846347"><time>1970-01-01T00:00:01.000Z</time></trkpt>
			<trkpt lat="56.001873" lon="92.846764"><time>1970-01-01T00:00:01.000Z</time></trkpt>
			<trkpt lat="56.001978" lon="92.847171"><time>1970-01-01T00:00:01.000Z</time></trkpt>
			<trkpt lat="56.002196" lon="92.847828"><time>1970-01-01T00:00:01.000Z</time></trkpt>
			<trkpt lat="56.002425" lon="92.848410"><time>1970-01-01T00:00:01.000Z</time></trkpt>
			<trkpt lat="56.002584" lon="92.848813"><time>1970-01-01T00:00:01.000Z</time></trkpt>
			<trkpt lat="56.002889" lon="92.849435"><time>1970-01-01T00:00:01.000Z</time></trkpt>
			<trkpt lat="56.003222" lon="92.850014"><time>1970-01-01T00:00:01.000Z</time></trkpt>
			<trkpt lat="56.003681" lon="92.850588"><time>1970-01-01T00:00:01.000Z</time></trkpt>
			<trkpt lat="56.003888" lon="92.850873"><time>1970-01-01T00:00:01.000Z</time></trkpt>
			<trkpt lat="56.004111" lon="92.851262"><time>1970-01-01T00:00:01.000Z</time></trkpt>
			<trkpt lat="56.004356" lon="92.851892"><time>1970-01-01T00:00:01.000Z</time></trkpt>
			<trkpt lat="56.004527" lon="92.852514"><time>1970-01-01T00:00:01.000Z</time></trkpt>
			<trkpt lat="56.004728" lon="92.853517"><time>1970-01-01T00:00:01.000Z</time></trkpt>
			<trkpt lat="56.004927" lon="92.854545"><time>1970-01-01T00:00:01.000Z</time></trkpt>
			<trkpt lat="56.005265" lon="92.856291"><time>1970-01-01T00:00:01.000Z</time></trkpt>
			<trkpt lat="56.005430" lon="92.857235"><time>1970-01-01T00:00:01.000Z</time></trkpt>
			<trkpt lat="56.005733" lon="92.858678"><time>1970-01-01T00:00:01.000Z</time></trkpt>
			<trkpt lat="56.005874" lon="92.859241"><time>1970-01-01T00:00:01.000Z</time></trkpt>
			<trkpt lat="56.006078" lon="92.860207"><time>1970-01-01T00:00:01.000Z</time></trkpt>
			<trkpt lat="56.006114" lon="92.860475"><time>1970-01-01T00:00:01.000Z</time></trkpt>
			<trkpt lat="56.006165" lon="92.862170"><time>1970-01-01T00:00:01.000Z</time></trkpt>
			<trkpt lat="56.006168" lon="92.863243"><time>1970-01-01T00:00:01.000Z</time></trkpt>
			<trkpt lat="56.006156" lon="92.865866"><time>1970-01-01T00:00:01.000Z</time></trkpt>
			<trkpt lat="56.006153" lon="92.866763"><time>1970-01-01T00:00:01.000Z</time></trkpt>
			<trkpt lat="56.006087" lon="92.868184"><time>1970-01-01T00:00:01.000Z</time></trkpt>
			<trkpt lat="56.006204" lon="92.869455"><time>1970-01-01T00:00:01.000Z</time></trkpt>
			<trkpt lat="56.006294" lon="92.870598"><time>1970-01-01T00:00:01.000Z</time></trkpt>
			<trkpt lat="56.006350" lon="92.871475"><time>1970-01-01T00:00:01.000Z</time></trkpt>
			<trkpt lat="56.006351" lon="92.871529"><time>1970-01-01T00:00:01.000Z</time></trkpt>
		</trkseg>
	</trk>
</gpx>