<?xml version="1.0" encoding="UTF-8"?>
<gpx creator="StravaGPX" version="1.1" xmlns="http://www.topografix.com/GPX/1/1" xmlns:xsi="http://www.w3.org/2001/XMLSchema-instance" xsi:schemaLocation="http://www.topografix.com/GPX/1/1 http://www.topografix.com/GPX/1/1/gpx.xsd">
 <trk>
  <name>Трасса 5к Забег ИКС</name>
  <type>running</type>
  <trkseg>
   <trkpt lat="56.0077460" lon="92.7231100">
    <ele>360.2</ele>
   </trkpt>
   <trkpt lat="56.0077310" lon="92.7232340">
    <ele>360.2</ele>
   </trkpt>
   <trkpt lat="56.0077200" lon="92.7233190">
    <ele>360.4</ele>
   </trkpt>
   <trkpt lat="56.0077090" lon="92.7234190">
    <ele>360.6</ele>
   </trkpt>
   <trkpt lat="56.0076980" lon="92.7235240">
    <ele>360.8</ele>
   </trkpt>
   <trkpt lat="56.0076850" lon="92.7236420">
    <ele>361.0</ele>
   </trkpt>
   <trkpt lat="56.0076730" lon="92.7237590">
    <ele>361.2</ele>
   </trkpt>
   <trkpt lat="56.0076600" lon="92.7238720">
    <ele>361.4</ele>
   </trkpt>
   <trkpt lat="56.0076460" lon="92.7239820">
    <ele>361.6</ele>
   </trkpt>
   <trkpt lat="56.0076290" lon="92.7240870">
    <ele>361.6</ele>
   </trkpt>
   <trkpt lat="56.0076080" lon="92.7241770">
    <ele>361.8</ele>
   </trkpt>
   <trkpt lat="56.0075730" lon="92.7242540">
    <ele>361.8</ele>
   </trkpt>
   <trkpt lat="56.0075280" lon="92.7243040">
    <ele>362.0</ele>
   </trkpt>
   <trkpt lat="56.0074750" lon="92.7243230">
    <ele>362.0</ele>
   </trkpt>
   <trkpt lat="56.0074220" lon="92.7243120">
    <ele>362.0</ele>
   </trkpt>
   <trkpt lat="56.0073670" lon="92.7242830">
    <ele>362.2</ele>
   </trkpt>
   <trkpt lat="56.0073170" lon="92.7242360">
    <ele>362.6</ele>
   </trkpt>
   <trkpt lat="56.0072700" lon="92.7241690">
    <ele>363.2</ele>
   </trkpt>
   <trkpt lat="56.0072320" lon="92.7240790">
    <ele>363.6</ele>
   </trkpt>
   <trkpt lat="56.0072100" lon="92.7239780">
    <ele>364.0</ele>
   </trkpt>
   <trkpt lat="56.0072040" lon="92.7238740">
    <ele>364.0</ele>
   </trkpt>
   <trkpt lat="56.0072110" lon="92.7237690">
    <ele>364.2</ele>
   </trkpt>
   <trkpt lat="56.0072230" lon="92.7236640">
    <ele>364.0</ele>
   </trkpt>
   <trkpt lat="56.0072390" lon="92.7235560">
    <ele>364.2</ele>
   </trkpt>
   <trkpt lat="56.0072550" lon="92.7234390">
    <ele>364.4</ele>
   </trkpt>
   <trkpt lat="56.0072700" lon="92.7233200">
    <ele>364.6</ele>
   </trkpt>
   <trkpt lat="56.0072850" lon="92.7232040">
    <ele>364.4</ele>
   </trkpt>
   <trkpt lat="56.0073000" lon="92.7230840">
    <ele>364.0</ele>
   </trkpt>
   <trkpt lat="56.0073160" lon="92.7229640">
    <ele>363.8</ele>
   </trkpt>
   <trkpt lat="56.0073310" lon="92.7228450">
    <ele>363.8</ele>
   </trkpt>
   <trkpt lat="56.0073480" lon="92.7227300">
    <ele>363.8</ele>
   </trkpt>
   <trkpt lat="56.0073610" lon="92.7226130">
    <ele>364.4</ele>
   </trkpt>
   <trkpt lat="56.0073710" lon="92.7224930">
    <ele>365.4</ele>
   </trkpt>
   <trkpt lat="56.0073810" lon="92.7223790">
    <ele>365.6</ele>
   </trkpt>
   <trkpt lat="56.0073940" lon="92.7222690">
    <ele>365.2</ele>
   </trkpt>
   <trkpt lat="56.0074100" lon="92.7221680">
    <ele>364.6</ele>
   </trkpt>
   <trkpt lat="56.0074350" lon="92.7220810">
    <ele>364.2</ele>
   </trkpt>
   <trkpt lat="56.0074760" lon="92.7220180">
    <ele>364.0</ele>
   </trkpt>
   <trkpt lat="56.0075260" lon="92.7219850">
    <ele>363.8</ele>
   </trkpt>
   <trkpt lat="56.0075810" lon="92.7219750">
    <ele>363.8</ele>
   </trkpt>
   <trkpt lat="56.0076360" lon="92.7219630">
    <ele>364.0</ele>
   </trkpt>
   <trkpt lat="56.0076900" lon="92.7219360">
    <ele>364.2</ele>
   </trkpt>
   <trkpt lat="56.0077380" lon="92.7218930">
    <ele>364.0</ele>
   </trkpt>
   <trkpt lat="56.0077850" lon="92.7218330">
    <ele>364.0</ele>
   </trkpt>
   <trkpt lat="56.0078290" lon="92.7217570">
    <ele>364.0</ele>
   </trkpt>
   <trkpt lat="56.0078720" lon="92.7216680">
    <ele>364.2</ele>
   </trkpt>
   <trkpt lat="56.0079130" lon="92.7215670">
    <ele>364.6</ele>
   </trkpt>
   <trkpt lat="56.0079490" lon="92.7214600">
    <ele>364.8</ele>
   </trkpt>
   <trkpt lat="56.0079830" lon="92.7213500">
    <ele>364.6</ele>
   </trkpt>
   <trkpt lat="56.0080130" lon="92.7212320">
    <ele>364.6</ele>
   </trkpt>
   <trkpt lat="56.0080400" lon="92.7211080">
    <ele>364.6</ele>
   </trkpt>
   <trkpt lat="56.0080610" lon="92.7209770">
    <ele>364.8</ele>
   </trkpt>
   <trkpt lat="56.0080790" lon="92.7208420">
    <ele>365.2</ele>
   </trkpt>
   <trkpt lat="56.0080920" lon="92.7207060">
    <ele>365.8</ele>
   </trkpt>
   <trkpt lat="56.0081050" lon="92.7205610">
    <ele>366.4</ele>
   </trkpt>
   <trkpt lat="56.0081250" lon="92.7204080">
    <ele>366.4</ele>
   </trkpt>
   <trkpt lat="56.0081550" lon="92.7202480">
    <ele>366.0</ele>
   </trkpt>
   <trkpt lat="56.0081910" lon="92.7200840">
    <ele>365.8</ele>
   </trkpt>
   <trkpt lat="56.0082310" lon="92.7199210">
    <ele>365.6</ele>
   </trkpt>
   <trkpt lat="56.0082680" lon="92.7197520">
    <ele>364.4</ele>
   </trkpt>
   <trkpt lat="56.0083060" lon="92.7195860">
    <ele>363.8</ele>
   </trkpt>
   <trkpt lat="56.0083400" lon="92.7194290">
    <ele>363.0</ele>
   </trkpt>
   <trkpt lat="56.0083610" lon="92.7192820">
    <ele>362.8</ele>
   </trkpt>
   <trkpt lat="56.0083750" lon="92.7191360">
    <ele>362.8</ele>
   </trkpt>
   <trkpt lat="56.0083810" lon="92.7189940">
    <ele>362.6</ele>
   </trkpt>
   <trkpt lat="56.0083780" lon="92.7188580">
    <ele>363.2</ele>
   </trkpt>
   <trkpt lat="56.0083620" lon="92.7187270">
    <ele>364.6</ele>
   </trkpt>
   <trkpt lat="56.0083380" lon="92.7186000">
    <ele>366.6</ele>
   </trkpt>
   <trkpt lat="56.0083120" lon="92.7184770">
    <ele>369.2</ele>
   </trkpt>
   <trkpt lat="56.0082870" lon="92.7183520">
    <ele>370.0</ele>
   </trkpt>
   <trkpt lat="56.0082620" lon="92.7182250">
    <ele>370.6</ele>
   </trkpt>
   <trkpt lat="56.0082350" lon="92.7180950">
    <ele>371.4</ele>
   </trkpt>
   <trkpt lat="56.0082040" lon="92.7179650">
    <ele>371.6</ele>
   </trkpt>
   <trkpt lat="56.0081710" lon="92.7178350">
    <ele>371.4</ele>
   </trkpt>
   <trkpt lat="56.0081360" lon="92.7177030">
    <ele>372.4</ele>
   </trkpt>
   <trkpt lat="56.0081000" lon="92.7175720">
    <ele>372.8</ele>
   </trkpt>
   <trkpt lat="56.0080670" lon="92.7174490">
    <ele>373.2</ele>
   </trkpt>
   <trkpt lat="56.0080320" lon="92.7173190">
    <ele>373.0</ele>
   </trkpt>
   <trkpt lat="56.0079980" lon="92.7171950">
    <ele>373.0</ele>
   </trkpt>
   <trkpt lat="56.0079660" lon="92.7170750">
    <ele>373.2</ele>
   </trkpt>
   <trkpt lat="56.0079350" lon="92.7169550">
    <ele>373.4</ele>
   </trkpt>
   <trkpt lat="56.0079020" lon="92.7168330">
    <ele>374.2</ele>
   </trkpt>
   <trkpt lat="56.0078660" lon="92.7167090">
    <ele>375.4</ele>
   </trkpt>
   <trkpt lat="56.0078270" lon="92.7165930">
    <ele>376.2</ele>
   </trkpt>
   <trkpt lat="56.0077830" lon="92.7164820">
    <ele>377.0</ele>
   </trkpt>
   <trkpt lat="56.0077350" lon="92.7163830">
    <ele>377.6</ele>
   </trkpt>
   <trkpt lat="56.0076800" lon="92.7162990">
    <ele>378.2</ele>
   </trkpt>
   <trkpt lat="56.0076180" lon="92.7162350">
    <ele>378.8</ele>
   </trkpt>
   <trkpt lat="56.0075530" lon="92.7161850">
    <ele>379.6</ele>
   </trkpt>
   <trkpt lat="56.0074930" lon="92.7161510">
    <ele>380.0</ele>
   </trkpt>
   <trkpt lat="56.0074360" lon="92.7161090">
    <ele>380.8</ele>
   </trkpt>
   <trkpt lat="56.0073800" lon="92.7160710">
    <ele>381.2</ele>
   </trkpt>
   <trkpt lat="56.0073190" lon="92.7160610">
    <ele>381.8</ele>
   </trkpt>
   <trkpt lat="56.0072820" lon="92.7160350">
    <ele>382.4</ele>
   </trkpt>
   <trkpt lat="56.0072520" lon="92.7160050">
    <ele>383.0</ele>
   </trkpt>
   <trkpt lat="56.0072350" lon="92.7159710">
    <ele>383.4</ele>
   </trkpt>
   <trkpt lat="56.0072240" lon="92.7159480">
    <ele>383.6</ele>
   </trkpt>
   <trkpt lat="56.0072120" lon="92.7159280">
    <ele>383.6</ele>
   </trkpt>
   <trkpt lat="56.0072080" lon="92.7159220">
    <ele>383.4</ele>
   </trkpt>
   <trkpt lat="56.0072060" lon="92.7159270">
    <ele>383.0</ele>
   </trkpt>
   <trkpt lat="56.0071970" lon="92.7159150">
    <ele>382.8</ele>
   </trkpt>
   <trkpt lat="56.0071870" lon="92.7159010">
    <ele>382.6</ele>
   </trkpt>
   <trkpt lat="56.0071720" lon="92.7158720">
    <ele>382.8</ele>
   </trkpt>
   <trkpt lat="56.0071520" lon="92.7158250">
    <ele>383.2</ele>
   </trkpt>
   <trkpt lat="56.0071310" lon="92.7157670">
    <ele>384.0</ele>
   </trkpt>
   <trkpt lat="56.0071110" lon="92.7157100">
    <ele>385.2</ele>
   </trkpt>
   <trkpt lat="56.0070930" lon="92.7156480">
    <ele>386.2</ele>
   </trkpt>
   <trkpt lat="56.0070760" lon="92.7155870">
    <ele>387.0</ele>
   </trkpt>
   <trkpt lat="56.0070590" lon="92.7155320">
    <ele>387.8</ele>
   </trkpt>
   <trkpt lat="56.0070420" lon="92.7154810">
    <ele>388.2</ele>
   </trkpt>
   <trkpt lat="56.0070250" lon="92.7154280">
    <ele>388.6</ele>
   </trkpt>
   <trkpt lat="56.0070070" lon="92.7153740">
    <ele>389.2</ele>
   </trkpt>
   <trkpt lat="56.0069900" lon="92.7153050">
    <ele>390.0</ele>
   </trkpt>
   <trkpt lat="56.0069750" lon="92.7152280">
    <ele>390.8</ele>
   </trkpt>
   <trkpt lat="56.0069630" lon="92.7151450">
    <ele>391.8</ele>
   </trkpt>
   <trkpt lat="56.0069520" lon="92.7150640">
    <ele>392.6</ele>
   </trkpt>
   <trkpt lat="56.0069420" lon="92.7149900">
    <ele>393.6</ele>
   </trkpt>
   <trkpt lat="56.0069310" lon="92.7149150">
    <ele>394.2</ele>
   </trkpt>
   <trkpt lat="56.0069210" lon="92.7148440">
    <ele>394.8</ele>
   </trkpt>
   <trkpt lat="56.0069080" lon="92.7147650">
    <ele>395.6</ele>
   </trkpt>
   <trkpt lat="56.0068960" lon="92.7146900">
    <ele>396.2</ele>
   </trkpt>
   <trkpt lat="56.0068860" lon="92.7146120">
    <ele>396.8</ele>
   </trkpt>
   <trkpt lat="56.0068750" lon="92.7145260">
    <ele>397.6</ele>
   </trkpt>
   <trkpt lat="56.0068640" lon="92.7144420">
    <ele>398.0</ele>
   </trkpt>
   <trkpt lat="56.0068520" lon="92.7143620">
    <ele>398.6</ele>
   </trkpt>
   <trkpt lat="56.0068410" lon="92.7142810">
    <ele>399.0</ele>
   </trkpt>
   <trkpt lat="56.0068310" lon="92.7141980">
    <ele>399.4</ele>
   </trkpt>
   <trkpt lat="56.0068220" lon="92.7141120">
    <ele>399.8</ele>
   </trkpt>
   <trkpt lat="56.0068090" lon="92.7140230">
    <ele>400.2</ele>
   </trkpt>
   <trkpt lat="56.0068000" lon="92.7139390">
    <ele>400.4</ele>
   </trkpt>
   <trkpt lat="56.0067860" lon="92.7138540">
    <ele>400.6</ele>
   </trkpt>
   <trkpt lat="56.0067680" lon="92.7137750">
    <ele>400.8</ele>
   </trkpt>
   <trkpt lat="56.0067430" lon="92.7137030">
    <ele>400.8</ele>
   </trkpt>
   <trkpt lat="56.0067140" lon="92.7136380">
    <ele>400.8</ele>
   </trkpt>
   <trkpt lat="56.0066840" lon="92.7135770">
    <ele>401.2</ele>
   </trkpt>
   <trkpt lat="56.0066550" lon="92.7135240">
    <ele>401.4</ele>
   </trkpt>
   <trkpt lat="56.0066240" lon="92.7134730">
    <ele>402.0</ele>
   </trkpt>
   <trkpt lat="56.0065940" lon="92.7134230">
    <ele>402.6</ele>
   </trkpt>
   <trkpt lat="56.0065610" lon="92.7133690">
    <ele>403.2</ele>
   </trkpt>
   <trkpt lat="56.0065300" lon="92.7133160">
    <ele>404.0</ele>
   </trkpt>
   <trkpt lat="56.0064990" lon="92.7132670">
    <ele>404.8</ele>
   </trkpt>
   <trkpt lat="56.0064650" lon="92.7132180">
    <ele>405.4</ele>
   </trkpt>
   <trkpt lat="56.0064350" lon="92.7131650">
    <ele>406.2</ele>
   </trkpt>
   <trkpt lat="56.0064050" lon="92.7131150">
    <ele>407.0</ele>
   </trkpt>
   <trkpt lat="56.0063750" lon="92.7130640">
    <ele>407.6</ele>
   </trkpt>
   <trkpt lat="56.0063480" lon="92.7130170">
    <ele>407.8</ele>
   </trkpt>
   <trkpt lat="56.0063370" lon="92.7129950">
    <ele>408.2</ele>
   </trkpt>
   <trkpt lat="56.0063390" lon="92.7129920">
    <ele>408.4</ele>
   </trkpt>
   <trkpt lat="56.0063430" lon="92.7129980">
    <ele>408.4</ele>
   </trkpt>
   <trkpt lat="56.0063430" lon="92.7129980">
    <ele>408.4</ele>
   </trkpt>
   <trkpt lat="56.0063430" lon="92.7129980">
    <ele>408.2</ele>
   </trkpt>
   <trkpt lat="56.0063430" lon="92.7129980">
    <ele>408.2</ele>
   </trkpt>
   <trkpt lat="56.0063360" lon="92.7129950">
    <ele>408.0</ele>
   </trkpt>
   <trkpt lat="56.0063350" lon="92.7129670">
    <ele>408.2</ele>
   </trkpt>
   <trkpt lat="56.0063500" lon="92.7129250">
    <ele>408.2</ele>
   </trkpt>
   <trkpt lat="56.0063690" lon="92.7129190">
    <ele>408.0</ele>
   </trkpt>
   <trkpt lat="56.0063880" lon="92.7129250">
    <ele>407.8</ele>
   </trkpt>
   <trkpt lat="56.0064120" lon="92.7129390">
    <ele>407.6</ele>
   </trkpt>
   <trkpt lat="56.0064410" lon="92.7129490">
    <ele>407.2</ele>
   </trkpt>
   <trkpt lat="56.0064700" lon="92.7129530">
    <ele>406.6</ele>
   </trkpt>
   <trkpt lat="56.0065020" lon="92.7129540">
    <ele>406.2</ele>
   </trkpt>
   <trkpt lat="56.0065350" lon="92.7129490">
    <ele>405.6</ele>
   </trkpt>
   <trkpt lat="56.0065620" lon="92.7129420">
    <ele>404.8</ele>
   </trkpt>
   <trkpt lat="56.0065960" lon="92.7129370">
    <ele>404.2</ele>
   </trkpt>
   <trkpt lat="56.0066360" lon="92.7129360">
    <ele>404.0</ele>
   </trkpt>
   <trkpt lat="56.0066840" lon="92.7129370">
    <ele>402.6</ele>
   </trkpt>
   <trkpt lat="56.0067280" lon="92.7129350">
    <ele>401.6</ele>
   </trkpt>
   <trkpt lat="56.0067700" lon="92.7129310">
    <ele>400.4</ele>
   </trkpt>
   <trkpt lat="56.0068120" lon="92.7129200">
    <ele>399.0</ele>
   </trkpt>
   <trkpt lat="56.0068580" lon="92.7129130">
    <ele>398.6</ele>
   </trkpt>
   <trkpt lat="56.0069050" lon="92.7129080">
    <ele>397.8</ele>
   </trkpt>
   <trkpt lat="56.0069520" lon="92.7129080">
    <ele>397.2</ele>
   </trkpt>
   <trkpt lat="56.0069950" lon="92.7129200">
    <ele>396.6</ele>
   </trkpt>
   <trkpt lat="56.0070330" lon="92.7129380">
    <ele>395.8</ele>
   </trkpt>
   <trkpt lat="56.0070690" lon="92.7129550">
    <ele>395.2</ele>
   </trkpt>
   <trkpt lat="56.0071030" lon="92.7129640">
    <ele>394.6</ele>
   </trkpt>
   <trkpt lat="56.0071370" lon="92.7129730">
    <ele>394.0</ele>
   </trkpt>
   <trkpt lat="56.0071710" lon="92.7129840">
    <ele>393.4</ele>
   </trkpt>
   <trkpt lat="56.0072120" lon="92.7130020">
    <ele>392.8</ele>
   </trkpt>
   <trkpt lat="56.0072390" lon="92.7130080">
    <ele>392.4</ele>
   </trkpt>
   <trkpt lat="56.0072710" lon="92.7130130">
    <ele>391.8</ele>
   </trkpt>
   <trkpt lat="56.0073020" lon="92.7130260">
    <ele>391.4</ele>
   </trkpt>
   <trkpt lat="56.0073320" lon="92.7130420">
    <ele>390.8</ele>
   </trkpt>
   <trkpt lat="56.0073620" lon="92.7130640">
    <ele>390.4</ele>
   </trkpt>
   <trkpt lat="56.0073900" lon="92.7130890">
    <ele>389.8</ele>
   </trkpt>
   <trkpt lat="56.0074170" lon="92.7131160">
    <ele>389.4</ele>
   </trkpt>
   <trkpt lat="56.0074440" lon="92.7131420">
    <ele>389.0</ele>
   </trkpt>
   <trkpt lat="56.0074710" lon="92.7131650">
    <ele>388.6</ele>
   </trkpt>
   <trkpt lat="56.0074980" lon="92.7131780">
    <ele>388.4</ele>
   </trkpt>
   <trkpt lat="56.0075250" lon="92.7131830">
    <ele>388.0</ele>
   </trkpt>
   <trkpt lat="56.0075450" lon="92.7131870">
    <ele>387.8</ele>
   </trkpt>
   <trkpt lat="56.0075670" lon="92.7131880">
    <ele>387.6</ele>
   </trkpt>
   <trkpt lat="56.0075890" lon="92.7131830">
    <ele>387.6</ele>
   </trkpt>
   <trkpt lat="56.0076060" lon="92.7131780">
    <ele>387.4</ele>
   </trkpt>
   <trkpt lat="56.0076270" lon="92.7131780">
    <ele>387.0</ele>
   </trkpt>
   <trkpt lat="56.0076500" lon="92.7131810">
    <ele>386.8</ele>
   </trkpt>
   <trkpt lat="56.0076700" lon="92.7131830">
    <ele>386.8</ele>
   </trkpt>
   <trkpt lat="56.0076900" lon="92.7131850">
    <ele>386.6</ele>
   </trkpt>
   <trkpt lat="56.0077100" lon="92.7131820">
    <ele>386.4</ele>
   </trkpt>
   <trkpt lat="56.0077300" lon="92.7131780">
    <ele>386.4</ele>
   </trkpt>
   <trkpt lat="56.0077460" lon="92.7131780">
    <ele>386.4</ele>
   </trkpt>
   <trkpt lat="56.0077640" lon="92.7131760">
    <ele>386.4</ele>
   </trkpt>
   <trkpt lat="56.0077820" lon="92.7131780">
    <ele>386.6</ele>
   </trkpt>
   <trkpt lat="56.0077980" lon="92.7131780">
    <ele>386.6</ele>
   </trkpt>
   <trkpt lat="56.0078150" lon="92.7131720">
    <ele>386.4</ele>
   </trkpt>
   <trkpt lat="56.0078370" lon="92.7131720">
    <ele>386.4</ele>
   </trkpt>
   <trkpt lat="56.0078580" lon="92.7131710">
    <ele>386.2</ele>
   </trkpt>
   <trkpt lat="56.0078820" lon="92.7131670">
    <ele>386.0</ele>
   </trkpt>
   <trkpt lat="56.0079050" lon="92.7131600">
    <ele>385.8</ele>
   </trkpt>
   <trkpt lat="56.0079250" lon="92.7131550">
    <ele>385.6</ele>
   </trkpt>
   <trkpt lat="56.0079470" lon="92.7131490">
    <ele>385.4</ele>
   </trkpt>
   <trkpt lat="56.0079620" lon="92.7131360">
    <ele>385.2</ele>
   </trkpt>
   <trkpt lat="56.0079770" lon="92.7131290">
    <ele>385.0</ele>
   </trkpt>
   <trkpt lat="56.0079900" lon="92.7131170">
    <ele>384.8</ele>
   </trkpt>
   <trkpt lat="56.0080080" lon="92.7130960">
    <ele>384.8</ele>
   </trkpt>
   <trkpt lat="56.0080270" lon="92.7130800">
    <ele>384.8</ele>
   </trkpt>
   <trkpt lat="56.0080510" lon="92.7130560">
    <ele>384.8</ele>
   </trkpt>
   <trkpt lat="56.0080770" lon="92.7130380">
    <ele>384.8</ele>
   </trkpt>
   <trkpt lat="56.0081090" lon="92.7130290">
    <ele>385.0</ele>
   </trkpt>
   <trkpt lat="56.0081320" lon="92.7130220">
    <ele>385.0</ele>
   </trkpt>
   <trkpt lat="56.0081610" lon="92.7130080">
    <ele>385.0</ele>
   </trkpt>
   <trkpt lat="56.0081890" lon="92.7129790">
    <ele>385.0</ele>
   </trkpt>
   <trkpt lat="56.0082160" lon="92.7129480">
    <ele>385.0</ele>
   </trkpt>
   <trkpt lat="56.0082440" lon="92.7129170">
    <ele>384.8</ele>
   </trkpt>
   <trkpt lat="56.0082720" lon="92.7128780">
    <ele>384.8</ele>
   </trkpt>
   <trkpt lat="56.0083010" lon="92.7128350">
    <ele>384.8</ele>
   </trkpt>
   <trkpt lat="56.0083320" lon="92.7127770">
    <ele>384.8</ele>
   </trkpt>
   <trkpt lat="56.0083610" lon="92.7127020">
    <ele>385.2</ele>
   </trkpt>
   <trkpt lat="56.0083850" lon="92.7126190">
    <ele>385.8</ele>
   </trkpt>
   <trkpt lat="56.0084060" lon="92.7125340">
    <ele>386.4</ele>
   </trkpt>
   <trkpt lat="56.0084270" lon="92.7124470">
    <ele>387.0</ele>
   </trkpt>
   <trkpt lat="56.0084480" lon="92.7123620">
    <ele>388.0</ele>
   </trkpt>
   <trkpt lat="56.0084700" lon="92.7122800">
    <ele>388.8</ele>
   </trkpt>
   <trkpt lat="56.0084920" lon="92.7121980">
    <ele>389.4</ele>
   </trkpt>
   <trkpt lat="56.0085130" lon="92.7121290">
    <ele>389.8</ele>
   </trkpt>
   <trkpt lat="56.0085360" lon="92.7120680">
    <ele>390.8</ele>
   </trkpt>
   <trkpt lat="56.0085610" lon="92.7120020">
    <ele>391.8</ele>
   </trkpt>
   <trkpt lat="56.0085860" lon="92.7119330">
    <ele>392.6</ele>
   </trkpt>
   <trkpt lat="56.0086110" lon="92.7118610">
    <ele>393.4</ele>
   </trkpt>
   <trkpt lat="56.0086370" lon="92.7117900">
    <ele>394.2</ele>
   </trkpt>
   <trkpt lat="56.0086650" lon="92.7117150">
    <ele>394.8</ele>
   </trkpt>
   <trkpt lat="56.0086930" lon="92.7116410">
    <ele>395.2</ele>
   </trkpt>
   <trkpt lat="56.0087220" lon="92.7115730">
    <ele>395.8</ele>
   </trkpt>
   <trkpt lat="56.0087510" lon="92.7114990">
    <ele>396.6</ele>
   </trkpt>
   <trkpt lat="56.0087820" lon="92.7114180">
    <ele>397.2</ele>
   </trkpt>
   <trkpt lat="56.0088130" lon="92.7113440">
    <ele>398.0</ele>
   </trkpt>
   <trkpt lat="56.0088450" lon="92.7112780">
    <ele>398.6</ele>
   </trkpt>
   <trkpt lat="56.0088760" lon="92.7112080">
    <ele>399.2</ele>
   </trkpt>
   <trkpt lat="56.0089100" lon="92.7111480">
    <ele>399.8</ele>
   </trkpt>
   <trkpt lat="56.0089430" lon="92.7110890">
    <ele>400.6</ele>
   </trkpt>
   <trkpt lat="56.0089730" lon="92.7110380">
    <ele>401.2</ele>
   </trkpt>
   <trkpt lat="56.0090050" lon="92.7109810">
    <ele>402.0</ele>
   </trkpt>
   <trkpt lat="56.0090390" lon="92.7109200">
    <ele>402.8</ele>
   </trkpt>
   <trkpt lat="56.0090720" lon="92.7108610">
    <ele>403.8</ele>
   </trkpt>
   <trkpt lat="56.0091030" lon="92.7108050">
    <ele>404.8</ele>
   </trkpt>
   <trkpt lat="56.0091340" lon="92.7107490">
    <ele>406.0</ele>
   </trkpt>
   <trkpt lat="56.0091640" lon="92.7106950">
    <ele>407.0</ele>
   </trkpt>
   <trkpt lat="56.0091940" lon="92.7106430">
    <ele>408.0</ele>
   </trkpt>
   <trkpt lat="56.0092230" lon="92.7105840">
    <ele>409.0</ele>
   </trkpt>
   <trkpt lat="56.0092530" lon="92.7105230">
    <ele>410.0</ele>
   </trkpt>
   <trkpt lat="56.0092830" lon="92.7104590">
    <ele>410.8</ele>
   </trkpt>
   <trkpt lat="56.0093170" lon="92.7103930">
    <ele>411.4</ele>
   </trkpt>
   <trkpt lat="56.0093550" lon="92.7103210">
    <ele>412.2</ele>
   </trkpt>
   <trkpt lat="56.0093940" lon="92.7102540">
    <ele>412.4</ele>
   </trkpt>
   <trkpt lat="56.0094300" lon="92.7102020">
    <ele>412.2</ele>
   </trkpt>
   <trkpt lat="56.0094630" lon="92.7101490">
    <ele>412.0</ele>
   </trkpt>
   <trkpt lat="56.0094950" lon="92.7100890">
    <ele>411.6</ele>
   </trkpt>
   <trkpt lat="56.0095230" lon="92.7100250">
    <ele>411.2</ele>
   </trkpt>
   <trkpt lat="56.0095470" lon="92.7099580">
    <ele>410.8</ele>
   </trkpt>
   <trkpt lat="56.0095710" lon="92.7098890">
    <ele>410.4</ele>
   </trkpt>
   <trkpt lat="56.0095920" lon="92.7098160">
    <ele>410.0</ele>
   </trkpt>
   <trkpt lat="56.0096070" lon="92.7097420">
    <ele>409.8</ele>
   </trkpt>
   <trkpt lat="56.0096160" lon="92.7096650">
    <ele>409.6</ele>
   </trkpt>
   <trkpt lat="56.0096230" lon="92.7095920">
    <ele>409.4</ele>
   </trkpt>
   <trkpt lat="56.0096230" lon="92.7095130">
    <ele>409.6</ele>
   </trkpt>
   <trkpt lat="56.0096160" lon="92.7094360">
    <ele>409.8</ele>
   </trkpt>
   <trkpt lat="56.0096070" lon="92.7093570">
    <ele>410.0</ele>
   </trkpt>
   <trkpt lat="56.0095950" lon="92.7092790">
    <ele>410.6</ele>
   </trkpt>
   <trkpt lat="56.0095790" lon="92.7092010">
    <ele>411.2</ele>
   </trkpt>
   <trkpt lat="56.0095600" lon="92.7091200">
    <ele>411.8</ele>
   </trkpt>
   <trkpt lat="56.0095370" lon="92.7090420">
    <ele>412.6</ele>
   </trkpt>
   <trkpt lat="56.0095100" lon="92.7089710">
    <ele>413.0</ele>
   </trkpt>
   <trkpt lat="56.0094810" lon="92.7089010">
    <ele>413.6</ele>
   </trkpt>
   <trkpt lat="56.0094410" lon="92.7088350">
    <ele>414.0</ele>
   </trkpt>
   <trkpt lat="56.0093950" lon="92.7087790">
    <ele>414.8</ele>
   </trkpt>
   <trkpt lat="56.0093430" lon="92.7087300">
    <ele>415.6</ele>
   </trkpt>
   <trkpt lat="56.0092880" lon="92.7086930">
    <ele>416.4</ele>
   </trkpt>
   <trkpt lat="56.0092370" lon="92.7086700">
    <ele>417.0</ele>
   </trkpt>
   <trkpt lat="56.0091820" lon="92.7086500">
    <ele>417.8</ele>
   </trkpt>
   <trkpt lat="56.0091280" lon="92.7086480">
    <ele>418.4</ele>
   </trkpt>
   <trkpt lat="56.0090730" lon="92.7086600">
    <ele>418.8</ele>
   </trkpt>
   <trkpt lat="56.0090110" lon="92.7086740">
    <ele>419.0</ele>
   </trkpt>
   <trkpt lat="56.0089610" lon="92.7087000">
    <ele>418.8</ele>
   </trkpt>
   <trkpt lat="56.0089100" lon="92.7087400">
    <ele>418.2</ele>
   </trkpt>
   <trkpt lat="56.0088640" lon="92.7087720">
    <ele>417.4</ele>
   </trkpt>
   <trkpt lat="56.0088170" lon="92.7088060">
    <ele>416.4</ele>
   </trkpt>
   <trkpt lat="56.0087750" lon="92.7088510">
    <ele>415.8</ele>
   </trkpt>
   <trkpt lat="56.0087360" lon="92.7089100">
    <ele>415.6</ele>
   </trkpt>
   <trkpt lat="56.0086960" lon="92.7089710">
    <ele>415.2</ele>
   </trkpt>
   <trkpt lat="56.0086600" lon="92.7090390">
    <ele>414.6</ele>
   </trkpt>
   <trkpt lat="56.0086270" lon="92.7091080">
    <ele>414.2</ele>
   </trkpt>
   <trkpt lat="56.0086010" lon="92.7091810">
    <ele>413.4</ele>
   </trkpt>
   <trkpt lat="56.0085740" lon="92.7092590">
    <ele>412.8</ele>
   </trkpt>
   <trkpt lat="56.0085510" lon="92.7093410">
    <ele>412.2</ele>
   </trkpt>
   <trkpt lat="56.0085300" lon="92.7094250">
    <ele>411.6</ele>
   </trkpt>
   <trkpt lat="56.0085110" lon="92.7095060">
    <ele>411.2</ele>
   </trkpt>
   <trkpt lat="56.0084940" lon="92.7095830">
    <ele>410.6</ele>
   </trkpt>
   <trkpt lat="56.0084800" lon="92.7096540">
    <ele>410.4</ele>
   </trkpt>
   <trkpt lat="56.0084650" lon="92.7097190">
    <ele>410.0</ele>
   </trkpt>
   <trkpt lat="56.0084510" lon="92.7097850">
    <ele>409.6</ele>
   </trkpt>
   <trkpt lat="56.0084370" lon="92.7098530">
    <ele>409.2</ele>
   </trkpt>
   <trkpt lat="56.0084230" lon="92.7099160">
    <ele>409.0</ele>
   </trkpt>
   <trkpt lat="56.0084100" lon="92.7099790">
    <ele>408.4</ele>
   </trkpt>
   <trkpt lat="56.0083950" lon="92.7100400">
    <ele>408.0</ele>
   </trkpt>
   <trkpt lat="56.0083830" lon="92.7101110">
    <ele>407.6</ele>
   </trkpt>
   <trkpt lat="56.0083690" lon="92.7101840">
    <ele>407.0</ele>
   </trkpt>
   <trkpt lat="56.0083550" lon="92.7102490">
    <ele>406.4</ele>
   </trkpt>
   <trkpt lat="56.0083410" lon="92.7103180">
    <ele>406.0</ele>
   </trkpt>
   <trkpt lat="56.0083280" lon="92.7103860">
    <ele>405.4</ele>
   </trkpt>
   <trkpt lat="56.0083140" lon="92.7104560">
    <ele>404.8</ele>
   </trkpt>
   <trkpt lat="56.0083010" lon="92.7105280">
    <ele>404.4</ele>
   </trkpt>
   <trkpt lat="56.0082880" lon="92.7106050">
    <ele>404.0</ele>
   </trkpt>
   <trkpt lat="56.0082740" lon="92.7106850">
    <ele>403.4</ele>
   </trkpt>
   <trkpt lat="56.0082570" lon="92.7107660">
    <ele>402.8</ele>
   </trkpt>
   <trkpt lat="56.0082400" lon="92.7108510">
    <ele>402.4</ele>
   </trkpt>
   <trkpt lat="56.0082260" lon="92.7109370">
    <ele>402.0</ele>
   </trkpt>
   <trkpt lat="56.0082140" lon="92.7110240">
    <ele>401.4</ele>
   </trkpt>
   <trkpt lat="56.0082030" lon="92.7111070">
    <ele>401.0</ele>
   </trkpt>
   <trkpt lat="56.0081880" lon="92.7111910">
    <ele>400.4</ele>
   </trkpt>
   <trkpt lat="56.0081690" lon="92.7112730">
    <ele>400.0</ele>
   </trkpt>
   <trkpt lat="56.0081470" lon="92.7113600">
    <ele>399.6</ele>
   </trkpt>
   <trkpt lat="56.0081240" lon="92.7114400">
    <ele>399.2</ele>
   </trkpt>
   <trkpt lat="56.0080980" lon="92.7115170">
    <ele>398.8</ele>
   </trkpt>
   <trkpt lat="56.0080660" lon="92.7115920">
    <ele>398.4</ele>
   </trkpt>
   <trkpt lat="56.0080280" lon="92.7116570">
    <ele>398.2</ele>
   </trkpt>
   <trkpt lat="56.0079850" lon="92.7117150">
    <ele>398.0</ele>
   </trkpt>
   <trkpt lat="56.0079510" lon="92.7117600">
    <ele>397.6</ele>
   </trkpt>
   <trkpt lat="56.0079160" lon="92.7118080">
    <ele>397.4</ele>
   </trkpt>
   <trkpt lat="56.0078780" lon="92.7118490">
    <ele>397.2</ele>
   </trkpt>
   <trkpt lat="56.0078420" lon="92.7118800">
    <ele>396.8</ele>
   </trkpt>
   <trkpt lat="56.0078040" lon="92.7118990">
    <ele>396.6</ele>
   </trkpt>
   <trkpt lat="56.0077670" lon="92.7119130">
    <ele>396.4</ele>
   </trkpt>
   <trkpt lat="56.0077310" lon="92.7119260">
    <ele>396.4</ele>
   </trkpt>
   <trkpt lat="56.0076940" lon="92.7119370">
    <ele>396.6</ele>
   </trkpt>
   <trkpt lat="56.0076570" lon="92.7119430">
    <ele>396.6</ele>
   </trkpt>
   <trkpt lat="56.0076180" lon="92.7119460">
    <ele>396.6</ele>
   </trkpt>
   <trkpt lat="56.0075780" lon="92.7119460">
    <ele>396.6</ele>
   </trkpt>
   <trkpt lat="56.0075350" lon="92.7119430">
    <ele>396.6</ele>
   </trkpt>
   <trkpt lat="56.0074940" lon="92.7119370">
    <ele>396.8</ele>
   </trkpt>
   <trkpt lat="56.0074540" lon="92.7119280">
    <ele>397.0</ele>
   </trkpt>
   <trkpt lat="56.0074160" lon="92.7119180">
    <ele>397.4</ele>
   </trkpt>
   <trkpt lat="56.0073770" lon="92.7119050">
    <ele>397.8</ele>
   </trkpt>
   <trkpt lat="56.0073390" lon="92.7118870">
    <ele>398.0</ele>
   </trkpt>
   <trkpt lat="56.0073050" lon="92.7118570">
    <ele>398.4</ele>
   </trkpt>
   <trkpt lat="56.0072730" lon="92.7118210">
    <ele>398.8</ele>
   </trkpt>
   <trkpt lat="56.0072400" lon="92.7117880">
    <ele>398.8</ele>
   </trkpt>
   <trkpt lat="56.0072090" lon="92.7117610">
    <ele>399.4</ele>
   </trkpt>
   <trkpt lat="56.0071750" lon="92.7117300">
    <ele>400.2</ele>
   </trkpt>
   <trkpt lat="56.0071440" lon="92.7116970">
    <ele>400.8</ele>
   </trkpt>
   <trkpt lat="56.0071140" lon="92.7116580">
    <ele>401.6</ele>
   </trkpt>
   <trkpt lat="56.0070880" lon="92.7116240">
    <ele>402.2</ele>
   </trkpt>
   <trkpt lat="56.0070600" lon="92.7115830">
    <ele>402.8</ele>
   </trkpt>
   <trkpt lat="56.0070360" lon="92.7115430">
    <ele>403.2</ele>
   </trkpt>
   <trkpt lat="56.0070080" lon="92.7114970">
    <ele>403.6</ele>
   </trkpt>
   <trkpt lat="56.0069820" lon="92.7114510">
    <ele>404.0</ele>
   </trkpt>
   <trkpt lat="56.0069540" lon="92.7114040">
    <ele>404.4</ele>
   </trkpt>
   <trkpt lat="56.0069250" lon="92.7113550">
    <ele>405.0</ele>
   </trkpt>
   <trkpt lat="56.0069020" lon="92.7112990">
    <ele>405.4</ele>
   </trkpt>
   <trkpt lat="56.0068760" lon="92.7112470">
    <ele>405.6</ele>
   </trkpt>
   <trkpt lat="56.0068530" lon="92.7111970">
    <ele>406.0</ele>
   </trkpt>
   <trkpt lat="56.0068260" lon="92.7111470">
    <ele>406.6</ele>
   </trkpt>
   <trkpt lat="56.0068050" lon="92.7110890">
    <ele>407.2</ele>
   </trkpt>
   <trkpt lat="56.0067810" lon="92.7110140">
    <ele>407.8</ele>
   </trkpt>
   <trkpt lat="56.0067600" lon="92.7109440">
    <ele>408.0</ele>
   </trkpt>
   <trkpt lat="56.0067340" lon="92.7108760">
    <ele>408.2</ele>
   </trkpt>
   <trkpt lat="56.0067050" lon="92.7108080">
    <ele>408.4</ele>
   </trkpt>
   <trkpt lat="56.0066770" lon="92.7107430">
    <ele>408.8</ele>
   </trkpt>
   <trkpt lat="56.0066480" lon="92.7106800">
    <ele>409.6</ele>
   </trkpt>
   <trkpt lat="56.0066140" lon="92.7106180">
    <ele>410.6</ele>
   </trkpt>
   <trkpt lat="56.0065780" lon="92.7105600">
    <ele>411.8</ele>
   </trkpt>
   <trkpt lat="56.0065410" lon="92.7105050">
    <ele>412.8</ele>
   </trkpt>
   <trkpt lat="56.0064970" lon="92.7104470">
    <ele>413.4</ele>
   </trkpt>
   <trkpt lat="56.0064520" lon="92.7103920">
    <ele>413.8</ele>
   </trkpt>
   <trkpt lat="56.0064060" lon="92.7103450">
    <ele>414.0</ele>
   </trkpt>
   <trkpt lat="56.0063590" lon="92.7103050">
    <ele>414.2</ele>
   </trkpt>
   <trkpt lat="56.0063110" lon="92.7102700">
    <ele>414.6</ele>
   </trkpt>
   <trkpt lat="56.0062580" lon="92.7102450">
    <ele>415.2</ele>
   </trkpt>
   <trkpt lat="56.0062020" lon="92.7102280">
    <ele>416.0</ele>
   </trkpt>
   <trkpt lat="56.0061440" lon="92.7102190">
    <ele>416.8</ele>
   </trkpt>
   <trkpt lat="56.0060840" lon="92.7102200">
    <ele>417.2</ele>
   </trkpt>
   <trkpt lat="56.0060220" lon="92.7102270">
    <ele>417.6</ele>
   </trkpt>
   <trkpt lat="56.0059630" lon="92.7102460">
    <ele>417.6</ele>
   </trkpt>
   <trkpt lat="56.0059050" lon="92.7102730">
    <ele>417.6</ele>
   </trkpt>
   <trkpt lat="56.0058520" lon="92.7103140">
    <ele>417.8</ele>
   </trkpt>
   <trkpt lat="56.0058030" lon="92.7103660">
    <ele>417.8</ele>
   </trkpt>
   <trkpt lat="56.0057650" lon="92.7104290">
    <ele>418.2</ele>
   </trkpt>
   <trkpt lat="56.0057350" lon="92.7104920">
    <ele>418.6</ele>
   </trkpt>
   <trkpt lat="56.0057080" lon="92.7105470">
    <ele>418.8</ele>
   </trkpt>
   <trkpt lat="56.0056820" lon="92.7106020">
    <ele>419.2</ele>
   </trkpt>
   <trkpt lat="56.0056530" lon="92.7106570">
    <ele>419.4</ele>
   </trkpt>
   <trkpt lat="56.0056240" lon="92.7107190">
    <ele>419.6</ele>
   </trkpt>
   <trkpt lat="56.0056040" lon="92.7107920">
    <ele>419.8</ele>
   </trkpt>
   <trkpt lat="56.0055820" lon="92.7108660">
    <ele>419.8</ele>
   </trkpt>
   <trkpt lat="56.0055530" lon="92.7109290">
    <ele>419.8</ele>
   </trkpt>
   <trkpt lat="56.0055190" lon="92.7109770">
    <ele>419.6</ele>
   </trkpt>
   <trkpt lat="56.0054770" lon="92.7110010">
    <ele>419.2</ele>
   </trkpt>
   <trkpt lat="56.0054340" lon="92.7110000">
    <ele>419.2</ele>
   </trkpt>
   <trkpt lat="56.0053980" lon="92.7109700">
    <ele>419.2</ele>
   </trkpt>
   <trkpt lat="56.0053700" lon="92.7109170">
    <ele>419.0</ele>
   </trkpt>
   <trkpt lat="56.0053500" lon="92.7108460">
    <ele>419.0</ele>
   </trkpt>
   <trkpt lat="56.0053350" lon="92.7107620">
    <ele>419.0</ele>
   </trkpt>
   <trkpt lat="56.0053250" lon="92.7106680">
    <ele>418.8</ele>
   </trkpt>
   <trkpt lat="56.0053190" lon="92.7105660">
    <ele>418.6</ele>
   </trkpt>
   <trkpt lat="56.0053170" lon="92.7104570">
    <ele>418.6</ele>
   </trkpt>
   <trkpt lat="56.0053190" lon="92.7103540">
    <ele>418.4</ele>
   </trkpt>
   <trkpt lat="56.0053240" lon="92.7102470">
    <ele>418.4</ele>
   </trkpt>
   <trkpt lat="56.0053320" lon="92.7101330">
    <ele>418.4</ele>
   </trkpt>
   <trkpt lat="56.0053480" lon="92.7100250">
    <ele>418.6</ele>
   </trkpt>
   <trkpt lat="56.0053710" lon="92.7099290">
    <ele>418.8</ele>
   </trkpt>
   <trkpt lat="56.0053990" lon="92.7098410">
    <ele>419.2</ele>
   </trkpt>
   <trkpt lat="56.0054330" lon="92.7097590">
    <ele>419.6</ele>
   </trkpt>
   <trkpt lat="56.0054680" lon="92.7096840">
    <ele>420.0</ele>
   </trkpt>
   <trkpt lat="56.0055070" lon="92.7096090">
    <ele>420.6</ele>
   </trkpt>
   <trkpt lat="56.0055480" lon="92.7095290">
    <ele>421.0</ele>
   </trkpt>
   <trkpt lat="56.0055890" lon="92.7094450">
    <ele>421.4</ele>
   </trkpt>
   <trkpt lat="56.0056300" lon="92.7093630">
    <ele>421.6</ele>
   </trkpt>
   <trkpt lat="56.0056680" lon="92.7092820">
    <ele>422.0</ele>
   </trkpt>
   <trkpt lat="56.0057050" lon="92.7092000">
    <ele>422.4</ele>
   </trkpt>
   <trkpt lat="56.0057410" lon="92.7091170">
    <ele>422.8</ele>
   </trkpt>
   <trkpt lat="56.0057780" lon="92.7090340">
    <ele>423.2</ele>
   </trkpt>
   <trkpt lat="56.0058170" lon="92.7089510">
    <ele>423.6</ele>
   </trkpt>
   <trkpt lat="56.0058550" lon="92.7088710">
    <ele>424.0</ele>
   </trkpt>
   <trkpt lat="56.0058920" lon="92.7088010">
    <ele>424.4</ele>
   </trkpt>
   <trkpt lat="56.0059290" lon="92.7087340">
    <ele>424.6</ele>
   </trkpt>
   <trkpt lat="56.0059660" lon="92.7086670">
    <ele>425.0</ele>
   </trkpt>
   <trkpt lat="56.0060040" lon="92.7086000">
    <ele>425.2</ele>
   </trkpt>
   <trkpt lat="56.0060410" lon="92.7085400">
    <ele>425.6</ele>
   </trkpt>
   <trkpt lat="56.0060790" lon="92.7084860">
    <ele>426.2</ele>
   </trkpt>
   <trkpt lat="56.0061210" lon="92.7084360">
    <ele>426.6</ele>
   </trkpt>
   <trkpt lat="56.0061640" lon="92.7083900">
    <ele>427.0</ele>
   </trkpt>
   <trkpt lat="56.0062100" lon="92.7083450">
    <ele>427.4</ele>
   </trkpt>
   <trkpt lat="56.0062570" lon="92.7083000">
    <ele>427.6</ele>
   </trkpt>
   <trkpt lat="56.0063050" lon="92.7082570">
    <ele>427.8</ele>
   </trkpt>
   <trkpt lat="56.0063490" lon="92.7082160">
    <ele>428.0</ele>
   </trkpt>
   <trkpt lat="56.0063930" lon="92.7081730">
    <ele>428.2</ele>
   </trkpt>
   <trkpt lat="56.0064330" lon="92.7081340">
    <ele>428.4</ele>
   </trkpt>
   <trkpt lat="56.0064750" lon="92.7080910">
    <ele>428.8</ele>
   </trkpt>
   <trkpt lat="56.0065190" lon="92.7080490">
    <ele>429.0</ele>
   </trkpt>
   <trkpt lat="56.0065610" lon="92.7080130">
    <ele>429.6</ele>
   </trkpt>
   <trkpt lat="56.0066080" lon="92.7079780">
    <ele>430.0</ele>
   </trkpt>
   <trkpt lat="56.0066580" lon="92.7079470">
    <ele>430.2</ele>
   </trkpt>
   <trkpt lat="56.0067130" lon="92.7079190">
    <ele>430.4</ele>
   </trkpt>
   <trkpt lat="56.0067720" lon="92.7078950">
    <ele>430.6</ele>
   </trkpt>
   <trkpt lat="56.0068340" lon="92.7078870">
    <ele>430.6</ele>
   </trkpt>
   <trkpt lat="56.0068960" lon="92.7078990">
    <ele>430.4</ele>
   </trkpt>
   <trkpt lat="56.0069530" lon="92.7079300">
    <ele>430.0</ele>
   </trkpt>
   <trkpt lat="56.0070060" lon="92.7079660">
    <ele>429.4</ele>
   </trkpt>
   <trkpt lat="56.0070580" lon="92.7080110">
    <ele>428.8</ele>
   </trkpt>
   <trkpt lat="56.0071010" lon="92.7080520">
    <ele>428.0</ele>
   </trkpt>
   <trkpt lat="56.0071340" lon="92.7080870">
    <ele>427.0</ele>
   </trkpt>
   <trkpt lat="56.0071680" lon="92.7081360">
    <ele>426.0</ele>
   </trkpt>
   <trkpt lat="56.0072030" lon="92.7081890">
    <ele>425.2</ele>
   </trkpt>
   <trkpt lat="56.0072400" lon="92.7082450">
    <ele>424.2</ele>
   </trkpt>
   <trkpt lat="56.0072760" lon="92.7083030">
    <ele>423.2</ele>
   </trkpt>
   <trkpt lat="56.0073030" lon="92.7083590">
    <ele>422.4</ele>
   </trkpt>
   <trkpt lat="56.0073260" lon="92.7083990">
    <ele>421.4</ele>
   </trkpt>
   <trkpt lat="56.0073520" lon="92.7084370">
    <ele>420.6</ele>
   </trkpt>
   <trkpt lat="56.0073830" lon="92.7084740">
    <ele>419.8</ele>
   </trkpt>
   <trkpt lat="56.0074130" lon="92.7085170">
    <ele>419.0</ele>
   </trkpt>
   <trkpt lat="56.0074420" lon="92.7085620">
    <ele>418.4</ele>
   </trkpt>
   <trkpt lat="56.0074670" lon="92.7085990">
    <ele>417.6</ele>
   </trkpt>
   <trkpt lat="56.0074940" lon="92.7086420">
    <ele>416.8</ele>
   </trkpt>
   <trkpt lat="56.0075210" lon="92.7086920">
    <ele>416.0</ele>
   </trkpt>
   <trkpt lat="56.0075520" lon="92.7087420">
    <ele>415.4</ele>
   </trkpt>
   <trkpt lat="56.0075870" lon="92.7087990">
    <ele>414.8</ele>
   </trkpt>
   <trkpt lat="56.0076280" lon="92.7088600">
    <ele>414.2</ele>
   </trkpt>
   <trkpt lat="56.0076730" lon="92.7089210">
    <ele>413.4</ele>
   </trkpt>
   <trkpt lat="56.0077160" lon="92.7089770">
    <ele>412.8</ele>
   </trkpt>
   <trkpt lat="56.0077610" lon="92.7090360">
    <ele>412.2</ele>
   </trkpt>
   <trkpt lat="56.0078060" lon="92.7090900">
    <ele>411.6</ele>
   </trkpt>
   <trkpt lat="56.0078520" lon="92.7091370">
    <ele>411.4</ele>
   </trkpt>
   <trkpt lat="56.0078970" lon="92.7091780">
    <ele>411.2</ele>
   </trkpt>
   <trkpt lat="56.0079430" lon="92.7092130">
    <ele>411.0</ele>
   </trkpt>
   <trkpt lat="56.0079980" lon="92.7092460">
    <ele>411.2</ele>
   </trkpt>
   <trkpt lat="56.0080510" lon="92.7092610">
    <ele>411.6</ele>
   </trkpt>
   <trkpt lat="56.0081020" lon="92.7092540">
    <ele>411.8</ele>
   </trkpt>
   <trkpt lat="56.0081530" lon="92.7092390">
    <ele>412.2</ele>
   </trkpt>
   <trkpt lat="56.0082040" lon="92.7092180">
    <ele>412.4</ele>
   </trkpt>
   <trkpt lat="56.0082510" lon="92.7091830">
    <ele>412.6</ele>
   </trkpt>
   <trkpt lat="56.0082980" lon="92.7091390">
    <ele>412.8</ele>
   </trkpt>
   <trkpt lat="56.0083360" lon="92.7090840">
    <ele>412.8</ele>
   </trkpt>
   <trkpt lat="56.0083710" lon="92.7090190">
    <ele>413.4</ele>
   </trkpt>
   <trkpt lat="56.0084020" lon="92.7089520">
    <ele>413.6</ele>
   </trkpt>
   <trkpt lat="56.0084310" lon="92.7088850">
    <ele>414.0</ele>
   </trkpt>
   <trkpt lat="56.0084560" lon="92.7088140">
    <ele>414.4</ele>
   </trkpt>
   <trkpt lat="56.0084810" lon="92.7087420">
    <ele>414.8</ele>
   </trkpt>
   <trkpt lat="56.0085040" lon="92.7086650">
    <ele>415.2</ele>
   </trkpt>
   <trkpt lat="56.0085260" lon="92.7085910">
    <ele>416.2</ele>
   </trkpt>
   <trkpt lat="56.0085480" lon="92.7085130">
    <ele>417.2</ele>
   </trkpt>
   <trkpt lat="56.0085710" lon="92.7084340">
    <ele>418.0</ele>
   </trkpt>
   <trkpt lat="56.0085950" lon="92.7083590">
    <ele>418.8</ele>
   </trkpt>
   <trkpt lat="56.0086180" lon="92.7082920">
    <ele>419.6</ele>
   </trkpt>
   <trkpt lat="56.0086410" lon="92.7082200">
    <ele>420.0</ele>
   </trkpt>
   <trkpt lat="56.0086630" lon="92.7081430">
    <ele>420.8</ele>
   </trkpt>
   <trkpt lat="56.0086820" lon="92.7080710">
    <ele>421.4</ele>
   </trkpt>
   <trkpt lat="56.0087020" lon="92.7079990">
    <ele>422.0</ele>
   </trkpt>
   <trkpt lat="56.0087210" lon="92.7079280">
    <ele>422.4</ele>
   </trkpt>
   <trkpt lat="56.0087380" lon="92.7078580">
    <ele>423.0</ele>
   </trkpt>
   <trkpt lat="56.0087520" lon="92.7077870">
    <ele>423.4</ele>
   </trkpt>
   <trkpt lat="56.0087620" lon="92.7077160">
    <ele>423.8</ele>
   </trkpt>
   <trkpt lat="56.0087660" lon="92.7076410">
    <ele>424.4</ele>
   </trkpt>
   <trkpt lat="56.0087660" lon="92.7075640">
    <ele>425.2</ele>
   </trkpt>
   <trkpt lat="56.0087550" lon="92.7075000">
    <ele>426.0</ele>
   </trkpt>
   <trkpt lat="56.0087310" lon="92.7074390">
    <ele>427.0</ele>
   </trkpt>
   <trkpt lat="56.0086970" lon="92.7073830">
    <ele>427.8</ele>
   </trkpt>
   <trkpt lat="56.0086570" lon="92.7073560">
    <ele>428.6</ele>
   </trkpt>
   <trkpt lat="56.0086100" lon="92.7073340">
    <ele>429.6</ele>
   </trkpt>
   <trkpt lat="56.0085570" lon="92.7073290">
    <ele>430.4</ele>
   </trkpt>
   <trkpt lat="56.0085060" lon="92.7073270">
    <ele>431.2</ele>
   </trkpt>
   <trkpt lat="56.0084580" lon="92.7073360">
    <ele>431.8</ele>
   </trkpt>
   <trkpt lat="56.0084040" lon="92.7073400">
    <ele>432.2</ele>
   </trkpt>
   <trkpt lat="56.0083520" lon="92.7073280">
    <ele>432.2</ele>
   </trkpt>
   <trkpt lat="56.0083040" lon="92.7073060">
    <ele>432.4</ele>
   </trkpt>
   <trkpt lat="56.0082700" lon="92.7072510">
    <ele>432.6</ele>
   </trkpt>
   <trkpt lat="56.0082510" lon="92.7071890">
    <ele>432.8</ele>
   </trkpt>
   <trkpt lat="56.0082370" lon="92.7071210">
    <ele>433.4</ele>
   </trkpt>
   <trkpt lat="56.0082300" lon="92.7070470">
    <ele>434.2</ele>
   </trkpt>
   <trkpt lat="56.0082320" lon="92.7069710">
    <ele>434.8</ele>
   </trkpt>
   <trkpt lat="56.0082310" lon="92.7068980">
    <ele>435.6</ele>
   </trkpt>
   <trkpt lat="56.0082280" lon="92.7068220">
    <ele>436.4</ele>
   </trkpt>
   <trkpt lat="56.0082270" lon="92.7067430">
    <ele>437.0</ele>
   </trkpt>
   <trkpt lat="56.0082260" lon="92.7066690">
    <ele>437.8</ele>
   </trkpt>
   <trkpt lat="56.0082220" lon="92.7065940">
    <ele>438.6</ele>
   </trkpt>
   <trkpt lat="56.0082160" lon="92.7065160">
    <ele>439.6</ele>
   </trkpt>
   <trkpt lat="56.0082120" lon="92.7064380">
    <ele>440.6</ele>
   </trkpt>
   <trkpt lat="56.0082110" lon="92.7063590">
    <ele>441.4</ele>
   </trkpt>
   <trkpt lat="56.0082070" lon="92.7062820">
    <ele>442.2</ele>
   </trkpt>
   <trkpt lat="56.0082030" lon="92.7062040">
    <ele>442.8</ele>
   </trkpt>
   <trkpt lat="56.0081990" lon="92.7061240">
    <ele>443.4</ele>
   </trkpt>
   <trkpt lat="56.0081970" lon="92.7060460">
    <ele>444.0</ele>
   </trkpt>
   <trkpt lat="56.0081940" lon="92.7059730">
    <ele>444.8</ele>
   </trkpt>
   <trkpt lat="56.0081860" lon="92.7058930">
    <ele>445.6</ele>
   </trkpt>
   <trkpt lat="56.0081830" lon="92.7058060">
    <ele>446.4</ele>
   </trkpt>
   <trkpt lat="56.0081830" lon="92.7057260">
    <ele>447.2</ele>
   </trkpt>
   <trkpt lat="56.0081840" lon="92.7056520">
    <ele>448.0</ele>
   </trkpt>
   <trkpt lat="56.0081810" lon="92.7055800">
    <ele>448.8</ele>
   </trkpt>
   <trkpt lat="56.0081790" lon="92.7055090">
    <ele>449.6</ele>
   </trkpt>
   <trkpt lat="56.0081760" lon="92.7054340">
    <ele>450.2</ele>
   </trkpt>
   <trkpt lat="56.0081730" lon="92.7053590">
    <ele>451.2</ele>
   </trkpt>
   <trkpt lat="56.0081680" lon="92.7052870">
    <ele>452.0</ele>
   </trkpt>
   <trkpt lat="56.0081560" lon="92.7052170">
    <ele>452.8</ele>
   </trkpt>
   <trkpt lat="56.0081380" lon="92.7051450">
    <ele>453.4</ele>
   </trkpt>
   <trkpt lat="56.0081170" lon="92.7050800">
    <ele>454.2</ele>
   </trkpt>
   <trkpt lat="56.0080930" lon="92.7050170">
    <ele>454.8</ele>
   </trkpt>
   <trkpt lat="56.0080590" lon="92.7049660">
    <ele>455.6</ele>
   </trkpt>
   <trkpt lat="56.0080230" lon="92.7049420">
    <ele>456.2</ele>
   </trkpt>
   <trkpt lat="56.0079870" lon="92.7049600">
    <ele>456.6</ele>
   </trkpt>
   <trkpt lat="56.0079290" lon="92.7050020">
    <ele>457.0</ele>
   </trkpt>
   <trkpt lat="56.0078820" lon="92.7050610">
    <ele>457.0</ele>
   </trkpt>
   <trkpt lat="56.0078330" lon="92.7051220">
    <ele>456.8</ele>
   </trkpt>
   <trkpt lat="56.0077840" lon="92.7051880">
    <ele>456.8</ele>
   </trkpt>
   <trkpt lat="56.0077360" lon="92.7052610">
    <ele>456.6</ele>
   </trkpt>
   <trkpt lat="56.0076850" lon="92.7053360">
    <ele>456.4</ele>
   </trkpt>
   <trkpt lat="56.0076300" lon="92.7054040">
    <ele>456.0</ele>
   </trkpt>
   <trkpt lat="56.0075770" lon="92.7054640">
    <ele>456.2</ele>
   </trkpt>
   <trkpt lat="56.0075260" lon="92.7055200">
    <ele>456.0</ele>
   </trkpt>
   <trkpt lat="56.0074730" lon="92.7055730">
    <ele>456.0</ele>
   </trkpt>
   <trkpt lat="56.0074230" lon="92.7056180">
    <ele>455.2</ele>
   </trkpt>
   <trkpt lat="56.0073740" lon="92.7056610">
    <ele>454.6</ele>
   </trkpt>
   <trkpt lat="56.0073260" lon="92.7057020">
    <ele>454.2</ele>
   </trkpt>
   <trkpt lat="56.0072780" lon="92.7057420">
    <ele>453.2</ele>
   </trkpt>
   <trkpt lat="56.0072310" lon="92.7057890">
    <ele>452.6</ele>
   </trkpt>
   <trkpt lat="56.0071830" lon="92.7058360">
    <ele>452.4</ele>
   </trkpt>
   <trkpt lat="56.0071440" lon="92.7058830">
    <ele>451.8</ele>
   </trkpt>
   <trkpt lat="56.0071080" lon="92.7059240">
    <ele>451.0</ele>
   </trkpt>
   <trkpt lat="56.0070730" lon="92.7059730">
    <ele>450.4</ele>
   </trkpt>
   <trkpt lat="56.0070400" lon="92.7060250">
    <ele>449.6</ele>
   </trkpt>
   <trkpt lat="56.0070090" lon="92.7060800">
    <ele>449.0</ele>
   </trkpt>
   <trkpt lat="56.0069790" lon="92.7061330">
    <ele>448.2</ele>
   </trkpt>
   <trkpt lat="56.0069470" lon="92.7061910">
    <ele>447.6</ele>
   </trkpt>
   <trkpt lat="56.0069200" lon="92.7062470">
    <ele>447.0</ele>
   </trkpt>
   <trkpt lat="56.0068930" lon="92.7063100">
    <ele>446.8</ele>
   </trkpt>
   <trkpt lat="56.0068690" lon="92.7063710">
    <ele>446.6</ele>
   </trkpt>
   <trkpt lat="56.0068460" lon="92.7064340">
    <ele>446.4</ele>
   </trkpt>
   <trkpt lat="56.0068220" lon="92.7065010">
    <ele>446.2</ele>
   </trkpt>
   <trkpt lat="56.0067950" lon="92.7065720">
    <ele>445.8</ele>
   </trkpt>
   <trkpt lat="56.0067670" lon="92.7066460">
    <ele>445.8</ele>
   </trkpt>
   <trkpt lat="56.0067410" lon="92.7067210">
    <ele>445.4</ele>
   </trkpt>
   <trkpt lat="56.0067170" lon="92.7068010">
    <ele>444.8</ele>
   </trkpt>
   <trkpt lat="56.0066920" lon="92.7068830">
    <ele>444.2</ele>
   </trkpt>
   <trkpt lat="56.0066670" lon="92.7069630">
    <ele>443.6</ele>
   </trkpt>
   <trkpt lat="56.0066400" lon="92.7070330">
    <ele>442.8</ele>
   </trkpt>
   <trkpt lat="56.0066120" lon="92.7070960">
    <ele>442.2</ele>
   </trkpt>
   <trkpt lat="56.0065830" lon="92.7071600">
    <ele>441.4</ele>
   </trkpt>
   <trkpt lat="56.0065520" lon="92.7072290">
    <ele>440.6</ele>
   </trkpt>
   <trkpt lat="56.0065180" lon="92.7072960">
    <ele>439.6</ele>
   </trkpt>
   <trkpt lat="56.0064830" lon="92.7073680">
    <ele>438.8</ele>
   </trkpt>
   <trkpt lat="56.0064480" lon="92.7074430">
    <ele>437.8</ele>
   </trkpt>
   <trkpt lat="56.0064130" lon="92.7075150">
    <ele>436.8</ele>
   </trkpt>
   <trkpt lat="56.0063800" lon="92.7075850">
    <ele>436.0</ele>
   </trkpt>
   <trkpt lat="56.0063460" lon="92.7076580">
    <ele>435.0</ele>
   </trkpt>
   <trkpt lat="56.0063130" lon="92.7077310">
    <ele>434.4</ele>
   </trkpt>
   <trkpt lat="56.0062800" lon="92.7078060">
    <ele>433.6</ele>
   </trkpt>
   <trkpt lat="56.0062510" lon="92.7078680">
    <ele>432.6</ele>
   </trkpt>
   <trkpt lat="56.0062220" lon="92.7079280">
    <ele>432.0</ele>
   </trkpt>
   <trkpt lat="56.0061940" lon="92.7079900">
    <ele>431.4</ele>
   </trkpt>
   <trkpt lat="56.0061640" lon="92.7080570">
    <ele>430.6</ele>
   </trkpt>
   <trkpt lat="56.0061350" lon="92.7081240">
    <ele>430.0</ele>
   </trkpt>
   <trkpt lat="56.0061050" lon="92.7081940">
    <ele>429.4</ele>
   </trkpt>
   <trkpt lat="56.0060740" lon="92.7082660">
    <ele>428.8</ele>
   </trkpt>
   <trkpt lat="56.0060410" lon="92.7083430">
    <ele>428.2</ele>
   </trkpt>
   <trkpt lat="56.0060080" lon="92.7084220">
    <ele>427.6</ele>
   </trkpt>
   <trkpt lat="56.0059770" lon="92.7084980">
    <ele>427.2</ele>
   </trkpt>
   <trkpt lat="56.0059470" lon="92.7085700">
    <ele>426.8</ele>
   </trkpt>
   <trkpt lat="56.0059180" lon="92.7086340">
    <ele>426.4</ele>
   </trkpt>
   <trkpt lat="56.0058860" lon="92.7086970">
    <ele>426.0</ele>
   </trkpt>
   <trkpt lat="56.0058520" lon="92.7087650">
    <ele>425.6</ele>
   </trkpt>
   <trkpt lat="56.0058160" lon="92.7088350">
    <ele>425.0</ele>
   </trkpt>
   <trkpt lat="56.0057810" lon="92.7089030">
    <ele>424.4</ele>
   </trkpt>
   <trkpt lat="56.0057470" lon="92.7089660">
    <ele>424.0</ele>
   </trkpt>
   <trkpt lat="56.0057150" lon="92.7090250">
    <ele>423.4</ele>
   </trkpt>
   <trkpt lat="56.0056840" lon="92.7090870">
    <ele>423.0</ele>
   </trkpt>
   <trkpt lat="56.0056530" lon="92.7091510">
    <ele>422.6</ele>
   </trkpt>
   <trkpt lat="56.0056210" lon="92.7092160">
    <ele>422.0</ele>
   </trkpt>
   <trkpt lat="56.0055890" lon="92.7092840">
    <ele>421.4</ele>
   </trkpt>
   <trkpt lat="56.0055550" lon="92.7093550">
    <ele>421.0</ele>
   </trkpt>
   <trkpt lat="56.0055220" lon="92.7094240">
    <ele>420.4</ele>
   </trkpt>
   <trkpt lat="56.0054890" lon="92.7094960">
    <ele>420.0</ele>
   </trkpt>
   <trkpt lat="56.0054560" lon="92.7095760">
    <ele>419.4</ele>
   </trkpt>
   <trkpt lat="56.0054250" lon="92.7096530">
    <ele>419.0</ele>
   </trkpt>
   <trkpt lat="56.0053910" lon="92.7097290">
    <ele>418.4</ele>
   </trkpt>
   <trkpt lat="56.0053610" lon="92.7098050">
    <ele>418.0</ele>
   </trkpt>
   <trkpt lat="56.0053330" lon="92.7098830">
    <ele>417.6</ele>
   </trkpt>
   <trkpt lat="56.0053080" lon="92.7099650">
    <ele>417.2</ele>
   </trkpt>
   <trkpt lat="56.0052850" lon="92.7100480">
    <ele>417.0</ele>
   </trkpt>
   <trkpt lat="56.0052630" lon="92.7101320">
    <ele>416.6</ele>
   </trkpt>
   <trkpt lat="56.0052450" lon="92.7102160">
    <ele>416.4</ele>
   </trkpt>
   <trkpt lat="56.0052290" lon="92.7102950">
    <ele>416.0</ele>
   </trkpt>
   <trkpt lat="56.0052140" lon="92.7103740">
    <ele>415.8</ele>
   </trkpt>
   <trkpt lat="56.0051990" lon="92.7104550">
    <ele>415.6</ele>
   </trkpt>
   <trkpt lat="56.0051870" lon="92.7105350">
    <ele>415.6</ele>
   </trkpt>
   <trkpt lat="56.0051800" lon="92.7106140">
    <ele>415.8</ele>
   </trkpt>
   <trkpt lat="56.0051750" lon="92.7106980">
    <ele>416.0</ele>
   </trkpt>
   <trkpt lat="56.0051690" lon="92.7107810">
    <ele>416.2</ele>
   </trkpt>
   <trkpt lat="56.0051640" lon="92.7108660">
    <ele>416.6</ele>
   </trkpt>
   <trkpt lat="56.0051570" lon="92.7109570">
    <ele>417.4</ele>
   </trkpt>
   <trkpt lat="56.0051550" lon="92.7110470">
    <ele>418.2</ele>
   </trkpt>
   <trkpt lat="56.0051550" lon="92.7111400">
    <ele>419.0</ele>
   </trkpt>
   <trkpt lat="56.0051580" lon="92.7112300">
    <ele>420.0</ele>
   </trkpt>
   <trkpt lat="56.0051650" lon="92.7113200">
    <ele>420.8</ele>
   </trkpt>
   <trkpt lat="56.0051780" lon="92.7114080">
    <ele>421.2</ele>
   </trkpt>
   <trkpt lat="56.0052020" lon="92.7114850">
    <ele>421.8</ele>
   </trkpt>
   <trkpt lat="56.0052360" lon="92.7115540">
    <ele>422.4</ele>
   </trkpt>
   <trkpt lat="56.0052820" lon="92.7116100">
    <ele>423.0</ele>
   </trkpt>
   <trkpt lat="56.0053320" lon="92.7116570">
    <ele>423.6</ele>
   </trkpt>
   <trkpt lat="56.0053830" lon="92.7117100">
    <ele>424.2</ele>
   </trkpt>
   <trkpt lat="56.0054290" lon="92.7117770">
    <ele>424.6</ele>
   </trkpt>
   <trkpt lat="56.0054680" lon="92.7118550">
    <ele>424.6</ele>
   </trkpt>
   <trkpt lat="56.0055000" lon="92.7119360">
    <ele>424.6</ele>
   </trkpt>
   <trkpt lat="56.0055280" lon="92.7120160">
    <ele>424.2</ele>
   </trkpt>
   <trkpt lat="56.0055510" lon="92.7120950">
    <ele>424.0</ele>
   </trkpt>
   <trkpt lat="56.0055720" lon="92.7121830">
    <ele>423.6</ele>
   </trkpt>
   <trkpt lat="56.0055910" lon="92.7122650">
    <ele>423.4</ele>
   </trkpt>
   <trkpt lat="56.0056110" lon="92.7123390">
    <ele>423.2</ele>
   </trkpt>
   <trkpt lat="56.0056310" lon="92.7124210">
    <ele>423.2</ele>
   </trkpt>
   <trkpt lat="56.0056540" lon="92.7125110">
    <ele>423.0</ele>
   </trkpt>
   <trkpt lat="56.0056810" lon="92.7125950">
    <ele>423.0</ele>
   </trkpt>
   <trkpt lat="56.0057080" lon="92.7126830">
    <ele>422.8</ele>
   </trkpt>
   <trkpt lat="56.0057340" lon="92.7127760">
    <ele>422.6</ele>
   </trkpt>
   <trkpt lat="56.0057590" lon="92.7128700">
    <ele>422.4</ele>
   </trkpt>
   <trkpt lat="56.0057820" lon="92.7129690">
    <ele>422.4</ele>
   </trkpt>
   <trkpt lat="56.0058040" lon="92.7130710">
    <ele>422.2</ele>
   </trkpt>
   <trkpt lat="56.0058250" lon="92.7131720">
    <ele>422.2</ele>
   </trkpt>
   <trkpt lat="56.0058460" lon="92.7132740">
    <ele>422.0</ele>
   </trkpt>
   <trkpt lat="56.0058690" lon="92.7133700">
    <ele>422.0</ele>
   </trkpt>
   <trkpt lat="56.0058900" lon="92.7134670">
    <ele>422.0</ele>
   </trkpt>
   <trkpt lat="56.0059080" lon="92.7135670">
    <ele>422.0</ele>
   </trkpt>
   <trkpt lat="56.0059260" lon="92.7136690">
    <ele>421.8</ele>
   </trkpt>
   <trkpt lat="56.0059450" lon="92.7137740">
    <ele>421.8</ele>
   </trkpt>
   <trkpt lat="56.0059630" lon="92.7138830">
    <ele>421.8</ele>
   </trkpt>
   <trkpt lat="56.0059770" lon="92.7139910">
    <ele>421.8</ele>
   </trkpt>
   <trkpt lat="56.0059840" lon="92.7140910">
    <ele>421.6</ele>
   </trkpt>
   <trkpt lat="56.0059830" lon="92.7141890">
    <ele>421.4</ele>
   </trkpt>
   <trkpt lat="56.0059740" lon="92.7142810">
    <ele>421.4</ele>
   </trkpt>
   <trkpt lat="56.0059540" lon="92.7143710">
    <ele>421.4</ele>
   </trkpt>
   <trkpt lat="56.0059250" lon="92.7144510">
    <ele>421.4</ele>
   </trkpt>
   <trkpt lat="56.0058850" lon="92.7145150">
    <ele>421.4</ele>
   </trkpt>
   <trkpt lat="56.0058430" lon="92.7145710">
    <ele>421.4</ele>
   </trkpt>
   <trkpt lat="56.0057920" lon="92.7146050">
    <ele>421.2</ele>
   </trkpt>
   <trkpt lat="56.0057390" lon="92.7146230">
    <ele>420.8</ele>
   </trkpt>
   <trkpt lat="56.0056850" lon="92.7146340">
    <ele>420.4</ele>
   </trkpt>
   <trkpt lat="56.0056270" lon="92.7146390">
    <ele>420.0</ele>
   </trkpt>
   <trkpt lat="56.0055660" lon="92.7146430">
    <ele>419.6</ele>
   </trkpt>
   <trkpt lat="56.0055060" lon="92.7146470">
    <ele>419.4</ele>
   </trkpt>
   <trkpt lat="56.0054450" lon="92.7146500">
    <ele>419.2</ele>
   </trkpt>
   <trkpt lat="56.0053890" lon="92.7146570">
    <ele>418.8</ele>
   </trkpt>
   <trkpt lat="56.0053360" lon="92.7146760">
    <ele>418.2</ele>
   </trkpt>
   <trkpt lat="56.0052880" lon="92.7147220">
    <ele>417.6</ele>
   </trkpt>
   <trkpt lat="56.0052410" lon="92.7147610">
    <ele>416.8</ele>
   </trkpt>
   <trkpt lat="56.0051990" lon="92.7147910">
    <ele>416.0</ele>
   </trkpt>
   <trkpt lat="56.0051600" lon="92.7148340">
    <ele>415.2</ele>
   </trkpt>
   <trkpt lat="56.0051240" lon="92.7148810">
    <ele>414.8</ele>
   </trkpt>
   <trkpt lat="56.0050910" lon="92.7149330">
    <ele>414.4</ele>
   </trkpt>
   <trkpt lat="56.0050660" lon="92.7149970">
    <ele>414.2</ele>
   </trkpt>
   <trkpt lat="56.0050460" lon="92.7150630">
    <ele>414.0</ele>
   </trkpt>
   <trkpt lat="56.0050310" lon="92.7151320">
    <ele>413.8</ele>
   </trkpt>
   <trkpt lat="56.0050190" lon="92.7152100">
    <ele>413.6</ele>
   </trkpt>
   <trkpt lat="56.0050120" lon="92.7152970">
    <ele>413.4</ele>
   </trkpt>
   <trkpt lat="56.0050130" lon="92.7153840">
    <ele>413.0</ele>
   </trkpt>
   <trkpt lat="56.0050190" lon="92.7154590">
    <ele>412.6</ele>
   </trkpt>
   <trkpt lat="56.0050270" lon="92.7155320">
    <ele>412.0</ele>
   </trkpt>
   <trkpt lat="56.0050430" lon="92.7156040">
    <ele>411.6</ele>
   </trkpt>
   <trkpt lat="56.0050660" lon="92.7156770">
    <ele>411.0</ele>
   </trkpt>
   <trkpt lat="56.0050930" lon="92.7157460">
    <ele>410.6</ele>
   </trkpt>
   <trkpt lat="56.0051250" lon="92.7158110">
    <ele>410.0</ele>
   </trkpt>
   <trkpt lat="56.0051620" lon="92.7158820">
    <ele>409.4</ele>
   </trkpt>
   <trkpt lat="56.0051990" lon="92.7159500">
    <ele>408.6</ele>
   </trkpt>
   <trkpt lat="56.0052350" lon="92.7160220">
    <ele>408.2</ele>
   </trkpt>
   <trkpt lat="56.0052720" lon="92.7160910">
    <ele>407.4</ele>
   </trkpt>
   <trkpt lat="56.0053070" lon="92.7161570">
    <ele>407.0</ele>
   </trkpt>
   <trkpt lat="56.0053440" lon="92.7162270">
    <ele>406.4</ele>
   </trkpt>
   <trkpt lat="56.0053810" lon="92.7162940">
    <ele>405.6</ele>
   </trkpt>
   <trkpt lat="56.0054170" lon="92.7163620">
    <ele>405.2</ele>
   </trkpt>
   <trkpt lat="56.0054540" lon="92.7164340">
    <ele>404.8</ele>
   </trkpt>
   <trkpt lat="56.0054880" lon="92.7165050">
    <ele>404.2</ele>
   </trkpt>
   <trkpt lat="56.0055240" lon="92.7165720">
    <ele>403.6</ele>
   </trkpt>
   <trkpt lat="56.0055600" lon="92.7166340">
    <ele>403.0</ele>
   </trkpt>
   <trkpt lat="56.0055990" lon="92.7166960">
    <ele>402.2</ele>
   </trkpt>
   <trkpt lat="56.0056380" lon="92.7167650">
    <ele>401.2</ele>
   </trkpt>
   <trkpt lat="56.0056760" lon="92.7168270">
    <ele>400.6</ele>
   </trkpt>
   <trkpt lat="56.0057180" lon="92.7168830">
    <ele>399.8</ele>
   </trkpt>
   <trkpt lat="56.0057650" lon="92.7169270">
    <ele>399.2</ele>
   </trkpt>
   <trkpt lat="56.0058110" lon="92.7169500">
    <ele>398.6</ele>
   </trkpt>
   <trkpt lat="56.0058590" lon="92.7169620">
    <ele>398.2</ele>
   </trkpt>
   <trkpt lat="56.0059040" lon="92.7169620">
    <ele>397.8</ele>
   </trkpt>
   <trkpt lat="56.0059480" lon="92.7169510">
    <ele>397.4</ele>
   </trkpt>
   <trkpt lat="56.0059890" lon="92.7169290">
    <ele>397.0</ele>
   </trkpt>
   <trkpt lat="56.0060260" lon="92.7169000">
    <ele>396.8</ele>
   </trkpt>
   <trkpt lat="56.0060630" lon="92.7168600">
    <ele>397.0</ele>
   </trkpt>
   <trkpt lat="56.0060930" lon="92.7168140">
    <ele>397.2</ele>
   </trkpt>
   <trkpt lat="56.0061150" lon="92.7167620">
    <ele>397.4</ele>
   </trkpt>
   <trkpt lat="56.0061340" lon="92.7167020">
    <ele>397.8</ele>
   </trkpt>
   <trkpt lat="56.0061520" lon="92.7166410">
    <ele>398.2</ele>
   </trkpt>
   <trkpt lat="56.0061670" lon="92.7165800">
    <ele>398.4</ele>
   </trkpt>
   <trkpt lat="56.0061820" lon="92.7165160">
    <ele>398.8</ele>
   </trkpt>
   <trkpt lat="56.0061940" lon="92.7164550">
    <ele>399.4</ele>
   </trkpt>
   <trkpt lat="56.0062080" lon="92.7163910">
    <ele>399.8</ele>
   </trkpt>
   <trkpt lat="56.0062220" lon="92.7163210">
    <ele>400.2</ele>
   </trkpt>
   <trkpt lat="56.0062360" lon="92.7162490">
    <ele>400.6</ele>
   </trkpt>
   <trkpt lat="56.0062470" lon="92.7161850">
    <ele>401.0</ele>
   </trkpt>
   <trkpt lat="56.0062560" lon="92.7161190">
    <ele>401.4</ele>
   </trkpt>
   <trkpt lat="56.0062670" lon="92.7160540">
    <ele>401.6</ele>
   </trkpt>
   <trkpt lat="56.0062770" lon="92.7159890">
    <ele>402.0</ele>
   </trkpt>
   <trkpt lat="56.0062890" lon="92.7159190">
    <ele>402.2</ele>
   </trkpt>
   <trkpt lat="56.0063030" lon="92.7158500">
    <ele>402.4</ele>
   </trkpt>
   <trkpt lat="56.0063180" lon="92.7157940">
    <ele>402.6</ele>
   </trkpt>
   <trkpt lat="56.0063310" lon="92.7157480">
    <ele>402.8</ele>
   </trkpt>
   <trkpt lat="56.0063450" lon="92.7157090">
    <ele>402.6</ele>
   </trkpt>
   <trkpt lat="56.0063630" lon="92.7156710">
    <ele>402.6</ele>
   </trkpt>
   <trkpt lat="56.0063840" lon="92.7156330">
    <ele>402.6</ele>
   </trkpt>
   <trkpt lat="56.0064100" lon="92.7155950">
    <ele>402.4</ele>
   </trkpt>
   <trkpt lat="56.0064380" lon="92.7155640">
    <ele>402.0</ele>
   </trkpt>
   <trkpt lat="56.0064660" lon="92.7155410">
    <ele>401.6</ele>
   </trkpt>
   <trkpt lat="56.0064970" lon="92.7155230">
    <ele>401.0</ele>
   </trkpt>
   <trkpt lat="56.0065280" lon="92.7155120">
    <ele>400.6</ele>
   </trkpt>
   <trkpt lat="56.0065620" lon="92.7155100">
    <ele>400.0</ele>
   </trkpt>
   <trkpt lat="56.0065940" lon="92.7155200">
    <ele>399.4</ele>
   </trkpt>
   <trkpt lat="56.0066210" lon="92.7155350">
    <ele>398.6</ele>
   </trkpt>
   <trkpt lat="56.0066480" lon="92.7155560">
    <ele>398.0</ele>
   </trkpt>
   <trkpt lat="56.0066710" lon="92.7155790">
    <ele>397.4</ele>
   </trkpt>
   <trkpt lat="56.0066950" lon="92.7156090">
    <ele>397.0</ele>
   </trkpt>
   <trkpt lat="56.0067190" lon="92.7156460">
    <ele>396.6</ele>
   </trkpt>
   <trkpt lat="56.0067430" lon="92.7156820">
    <ele>396.2</ele>
   </trkpt>
   <trkpt lat="56.0067640" lon="92.7157210">
    <ele>395.6</ele>
   </trkpt>
   <trkpt lat="56.0067860" lon="92.7157620">
    <ele>395.0</ele>
   </trkpt>
   <trkpt lat="56.0068100" lon="92.7158070">
    <ele>394.4</ele>
   </trkpt>
   <trkpt lat="56.0068280" lon="92.7158460">
    <ele>393.8</ele>
   </trkpt>
   <trkpt lat="56.0068460" lon="92.7158860">
    <ele>393.2</ele>
   </trkpt>
   <trkpt lat="56.0068610" lon="92.7159190">
    <ele>392.6</ele>
   </trkpt>
   <trkpt lat="56.0068760" lon="92.7159570">
    <ele>392.0</ele>
   </trkpt>
   <trkpt lat="56.0068910" lon="92.7159980">
    <ele>391.4</ele>
   </trkpt>
   <trkpt lat="56.0069080" lon="92.7160340">
    <ele>391.0</ele>
   </trkpt>
   <trkpt lat="56.0069240" lon="92.7160640">
    <ele>390.4</ele>
   </trkpt>
   <trkpt lat="56.0069410" lon="92.7160930">
    <ele>389.8</ele>
   </trkpt>
   <trkpt lat="56.0069580" lon="92.7161270">
    <ele>389.4</ele>
   </trkpt>
   <trkpt lat="56.0069740" lon="92.7161600">
    <ele>388.8</ele>
   </trkpt>
   <trkpt lat="56.0069900" lon="92.7161970">
    <ele>388.4</ele>
   </trkpt>
   <trkpt lat="56.0070040" lon="92.7162320">
    <ele>387.8</ele>
   </trkpt>
   <trkpt lat="56.0070190" lon="92.7162610">
    <ele>387.2</ele>
   </trkpt>
   <trkpt lat="56.0070280" lon="92.7162880">
    <ele>386.8</ele>
   </trkpt>
   <trkpt lat="56.0070370" lon="92.7163110">
    <ele>386.2</ele>
   </trkpt>
   <trkpt lat="56.0070460" lon="92.7163350">
    <ele>385.6</ele>
   </trkpt>
   <trkpt lat="56.0070610" lon="92.7163630">
    <ele>385.2</ele>
   </trkpt>
   <trkpt lat="56.0070720" lon="92.7163820">
    <ele>384.8</ele>
   </trkpt>
   <trkpt lat="56.0070830" lon="92.7164010">
    <ele>384.6</ele>
   </trkpt>
   <trkpt lat="56.0070980" lon="92.7164270">
    <ele>384.4</ele>
   </trkpt>
   <trkpt lat="56.0071190" lon="92.7164660">
    <ele>384.4</ele>
   </trkpt>
   <trkpt lat="56.0071420" lon="92.7165090">
    <ele>384.6</ele>
   </trkpt>
   <trkpt lat="56.0071680" lon="92.7165580">
    <ele>384.6</ele>
   </trkpt>
   <trkpt lat="56.0071950" lon="92.7166090">
    <ele>384.4</ele>
   </trkpt>
   <trkpt lat="56.0072270" lon="92.7166690">
    <ele>384.0</ele>
   </trkpt>
   <trkpt lat="56.0072610" lon="92.7167330">
    <ele>383.4</ele>
   </trkpt>
   <trkpt lat="56.0073000" lon="92.7168070">
    <ele>382.4</ele>
   </trkpt>
   <trkpt lat="56.0073410" lon="92.7168880">
    <ele>381.6</ele>
   </trkpt>
   <trkpt lat="56.0073840" lon="92.7169660">
    <ele>380.8</ele>
   </trkpt>
   <trkpt lat="56.0074310" lon="92.7170370">
    <ele>380.2</ele>
   </trkpt>
   <trkpt lat="56.0074820" lon="92.7171020">
    <ele>379.4</ele>
   </trkpt>
   <trkpt lat="56.0075320" lon="92.7171630">
    <ele>378.8</ele>
   </trkpt>
   <trkpt lat="56.0075820" lon="92.7172240">
    <ele>378.2</ele>
   </trkpt>
   <trkpt lat="56.0076320" lon="92.7172910">
    <ele>377.6</ele>
   </trkpt>
   <trkpt lat="56.0076820" lon="92.7173660">
    <ele>377.2</ele>
   </trkpt>
   <trkpt lat="56.0077330" lon="92.7174440">
    <ele>376.6</ele>
   </trkpt>
   <trkpt lat="56.0077810" lon="92.7175280">
    <ele>376.0</ele>
   </trkpt>
   <trkpt lat="56.0078300" lon="92.7176150">
    <ele>375.4</ele>
   </trkpt>
   <trkpt lat="56.0078810" lon="92.7177030">
    <ele>374.8</ele>
   </trkpt>
   <trkpt lat="56.0079300" lon="92.7177910">
    <ele>374.0</ele>
   </trkpt>
   <trkpt lat="56.0079740" lon="92.7178810">
    <ele>373.2</ele>
   </trkpt>
   <trkpt lat="56.0080160" lon="92.7179800">
    <ele>372.6</ele>
   </trkpt>
   <trkpt lat="56.0080520" lon="92.7180870">
    <ele>371.8</ele>
   </trkpt>
   <trkpt lat="56.0080770" lon="92.7182070">
    <ele>370.8</ele>
   </trkpt>
   <trkpt lat="56.0080940" lon="92.7183330">
    <ele>370.4</ele>
   </trkpt>
   <trkpt lat="56.0081030" lon="92.7184660">
    <ele>369.8</ele>
   </trkpt>
   <trkpt lat="56.0081040" lon="92.7186040">
    <ele>368.8</ele>
   </trkpt>
   <trkpt lat="56.0080930" lon="92.7187490">
    <ele>368.6</ele>
   </trkpt>
   <trkpt lat="56.0080640" lon="92.7188930">
    <ele>368.2</ele>
   </trkpt>
   <trkpt lat="56.0080150" lon="92.7190270">
    <ele>368.6</ele>
   </trkpt>
   <trkpt lat="56.0079560" lon="92.7191400">
    <ele>368.8</ele>
   </trkpt>
   <trkpt lat="56.0079040" lon="92.7192230">
    <ele>369.8</ele>
   </trkpt>
   <trkpt lat="56.0078310" lon="92.7193180">
    <ele>370.2</ele>
   </trkpt>
   <trkpt lat="56.0077570" lon="92.7193570">
    <ele>370.8</ele>
   </trkpt>
   <trkpt lat="56.0076950" lon="92.7193720">
    <ele>371.6</ele>
   </trkpt>
   <trkpt lat="56.0076210" lon="92.7193480">
    <ele>372.6</ele>
   </trkpt>
   <trkpt lat="56.0075430" lon="92.7192770">
    <ele>373.6</ele>
   </trkpt>
   <trkpt lat="56.0074750" lon="92.7191950">
    <ele>374.6</ele>
   </trkpt>
   <trkpt lat="56.0074130" lon="92.7191030">
    <ele>375.8</ele>
   </trkpt>
   <trkpt lat="56.0073500" lon="92.7190110">
    <ele>377.0</ele>
   </trkpt>
   <trkpt lat="56.0072880" lon="92.7189210">
    <ele>378.0</ele>
   </trkpt>
   <trkpt lat="56.0072310" lon="92.7188300">
    <ele>379.0</ele>
   </trkpt>
   <trkpt lat="56.0071680" lon="92.7187310">
    <ele>380.0</ele>
   </trkpt>
   <trkpt lat="56.0071090" lon="92.7186240">
    <ele>381.0</ele>
   </trkpt>
   <trkpt lat="56.0070570" lon="92.7185190">
    <ele>381.6</ele>
   </trkpt>
   <trkpt lat="56.0070030" lon="92.7184220">
    <ele>382.2</ele>
   </trkpt>
   <trkpt lat="56.0069460" lon="92.7183280">
    <ele>382.6</ele>
   </trkpt>
   <trkpt lat="56.0068890" lon="92.7182450">
    <ele>383.2</ele>
   </trkpt>
   <trkpt lat="56.0068280" lon="92.7181750">
    <ele>383.4</ele>
   </trkpt>
   <trkpt lat="56.0067630" lon="92.7181200">
    <ele>383.8</ele>
   </trkpt>
   <trkpt lat="56.0066960" lon="92.7180760">
    <ele>384.0</ele>
   </trkpt>
   <trkpt lat="56.0066300" lon="92.7180510">
    <ele>384.8</ele>
   </trkpt>
   <trkpt lat="56.0065720" lon="92.7180520">
    <ele>385.4</ele>
   </trkpt>
   <trkpt lat="56.0065240" lon="92.7180820">
    <ele>386.0</ele>
   </trkpt>
   <trkpt lat="56.0064850" lon="92.7181370">
    <ele>386.6</ele>
   </trkpt>
   <trkpt lat="56.0064570" lon="92.7182170">
    <ele>387.0</ele>
   </trkpt>
   <trkpt lat="56.0064510" lon="92.7183270">
    <ele>387.2</ele>
   </trkpt>
   <trkpt lat="56.0064510" lon="92.7184420">
    <ele>387.4</ele>
   </trkpt>
   <trkpt lat="56.0064660" lon="92.7185630">
    <ele>387.6</ele>
   </trkpt>
   <trkpt lat="56.0064840" lon="92.7186730">
    <ele>387.8</ele>
   </trkpt>
   <trkpt lat="56.0065220" lon="92.7187820">
    <ele>387.4</ele>
   </trkpt>
   <trkpt lat="56.0065710" lon="92.7188960">
    <ele>387.0</ele>
   </trkpt>
   <trkpt lat="56.0066140" lon="92.7190120">
    <ele>386.2</ele>
   </trkpt>
   <trkpt lat="56.0066560" lon="92.7191350">
    <ele>385.8</ele>
   </trkpt>
   <trkpt lat="56.0066980" lon="92.7192620">
    <ele>385.6</ele>
   </trkpt>
   <trkpt lat="56.0067440" lon="92.7193860">
    <ele>385.2</ele>
   </trkpt>
   <trkpt lat="56.0067990" lon="92.7195040">
    <ele>384.8</ele>
   </trkpt>
   <trkpt lat="56.0068620" lon="92.7196110">
    <ele>384.4</ele>
   </trkpt>
   <trkpt lat="56.0069350" lon="92.7196930">
    <ele>383.4</ele>
   </trkpt>
   <trkpt lat="56.0070180" lon="92.7197540">
    <ele>382.8</ele>
   </trkpt>
   <trkpt lat="56.0071060" lon="92.7198050">
    <ele>381.0</ele>
   </trkpt>
   <trkpt lat="56.0071950" lon="92.7198620">
    <ele>379.8</ele>
   </trkpt>
   <trkpt lat="56.0072830" lon="92.7199270">
    <ele>378.6</ele>
   </trkpt>
   <trkpt lat="56.0073700" lon="92.7199970">
    <ele>377.0</ele>
   </trkpt>
   <trkpt lat="56.0074550" lon="92.7200660">
    <ele>375.6</ele>
   </trkpt>
   <trkpt lat="56.0075370" lon="92.7201340">
    <ele>375.0</ele>
   </trkpt>
   <trkpt lat="56.0076130" lon="92.7202000">
    <ele>373.8</ele>
   </trkpt>
   <trkpt lat="56.0076930" lon="92.7202670">
    <ele>372.8</ele>
   </trkpt>
   <trkpt lat="56.0077680" lon="92.7203380">
    <ele>371.6</ele>
   </trkpt>
   <trkpt lat="56.0078370" lon="92.7204220">
    <ele>370.6</ele>
   </trkpt>
   <trkpt lat="56.0078970" lon="92.7205330">
    <ele>370.0</ele>
   </trkpt>
   <trkpt lat="56.0079390" lon="92.7206720">
    <ele>369.0</ele>
   </trkpt>
   <trkpt lat="56.0079750" lon="92.7208380">
    <ele>367.8</ele>
   </trkpt>
   <trkpt lat="56.0079880" lon="92.7210040">
    <ele>366.8</ele>
   </trkpt>
   <trkpt lat="56.0079740" lon="92.7211730">
    <ele>366.0</ele>
   </trkpt>
   <trkpt lat="56.0079430" lon="92.7213280">
    <ele>365.4</ele>
   </trkpt>
   <trkpt lat="56.0079120" lon="92.7214630">
    <ele>364.0</ele>
   </trkpt>
   <trkpt lat="56.0078800" lon="92.7215920">
    <ele>363.4</ele>
   </trkpt>
   <trkpt lat="56.0078490" lon="92.7217060">
    <ele>363.2</ele>
   </trkpt>
   <trkpt lat="56.0078100" lon="92.7218020">
    <ele>363.2</ele>
   </trkpt>
   <trkpt lat="56.0077590" lon="92.7218840">
    <ele>363.2</ele>
   </trkpt>
   <trkpt lat="56.0076960" lon="92.7219370">
    <ele>363.4</ele>
   </trkpt>
   <trkpt lat="56.0076260" lon="92.7219580">
    <ele>363.4</ele>
   </trkpt>
   <trkpt lat="56.0075570" lon="92.7219820">
    <ele>363.4</ele>
   </trkpt>
   <trkpt lat="56.0074950" lon="92.7220300">
    <ele>363.0</ele>
   </trkpt>
   <trkpt lat="56.0074450" lon="92.7220970">
    <ele>362.6</ele>
   </trkpt>
   <trkpt lat="56.0074180" lon="92.7221840">
    <ele>362.4</ele>
   </trkpt>
   <trkpt lat="56.0073870" lon="92.7222880">
    <ele>362.2</ele>
   </trkpt>
   <trkpt lat="56.0073670" lon="92.7224070">
    <ele>361.8</ele>
   </trkpt>
   <trkpt lat="56.0073520" lon="92.7225320">
    <ele>361.6</ele>
   </trkpt>
   <trkpt lat="56.0073350" lon="92.7226710">
    <ele>361.4</ele>
   </trkpt>
   <trkpt lat="56.0073160" lon="92.7228180">
    <ele>361.2</ele>
   </trkpt>
   <trkpt lat="56.0072990" lon="92.7229670">
    <ele>361.0</ele>
   </trkpt>
   <trkpt lat="56.0072830" lon="92.7231060">
    <ele>361.2</ele>
   </trkpt>
   <trkpt lat="56.0072670" lon="92.7232460">
    <ele>361.2</ele>
   </trkpt>
   <trkpt lat="56.0072500" lon="92.7233850">
    <ele>361.2</ele>
   </trkpt>
   <trkpt lat="56.0072310" lon="92.7235240">
    <ele>361.6</ele>
   </trkpt>
   <trkpt lat="56.0072130" lon="92.7236530">
    <ele>361.8</ele>
   </trkpt>
   <trkpt lat="56.0071990" lon="92.7237690">
    <ele>362.0</ele>
   </trkpt>
   <trkpt lat="56.0071950" lon="92.7238790">
    <ele>362.0</ele>
   </trkpt>
   <trkpt lat="56.0072080" lon="92.7239750">
    <ele>362.2</ele>
   </trkpt>
   <trkpt lat="56.0072350" lon="92.7240560">
    <ele>362.2</ele>
   </trkpt>
   <trkpt lat="56.0072690" lon="92.7241230">
    <ele>362.2</ele>
   </trkpt>
   <trkpt lat="56.0073150" lon="92.7241830">
    <ele>362.4</ele>
   </trkpt>
   <trkpt lat="56.0073690" lon="92.7242360">
    <ele>362.2</ele>
   </trkpt>
   <trkpt lat="56.0074260" lon="92.7242750">
    <ele>362.0</ele>
   </trkpt>
   <trkpt lat="56.0074840" lon="92.7242960">
    <ele>361.8</ele>
   </trkpt>
   <trkpt lat="56.0075390" lon="92.7242840">
    <ele>361.4</ele>
   </trkpt>
   <trkpt lat="56.0075860" lon="92.7242400">
    <ele>361.2</ele>
   </trkpt>
   <trkpt lat="56.0076270" lon="92.7241760">
    <ele>361.2</ele>
   </trkpt>
   <trkpt lat="56.0076500" lon="92.7240860">
    <ele>361.8</ele>
   </trkpt>
   <trkpt lat="56.0076660" lon="92.7239860">
    <ele>362.4</ele>
   </trkpt>
   <trkpt lat="56.0076780" lon="92.7238720">
    <ele>362.8</ele>
   </trkpt>
   <trkpt lat="56.0076940" lon="92.7237510">
    <ele>363.6</ele>
   </trkpt>
   <trkpt lat="56.0077100" lon="92.7236230">
    <ele>364.2</ele>
   </trkpt>
   <trkpt lat="56.0077260" lon="92.7234940">
    <ele>364.6</ele>
   </trkpt>
   <trkpt lat="56.0077410" lon="92.7233720">
    <ele>364.8</ele>
   </trkpt>
   <trkpt lat="56.0077550" lon="92.7232590">
    <ele>364.6</ele>
   </trkpt>
   <trkpt lat="56.0077680" lon="92.7231750">
    <ele>364.2</ele>
   </trkpt>
   <trkpt lat="56.0077740" lon="92.7231150">
    <ele>363.4</ele>
   </trkpt>
   <trkpt lat="56.0077800" lon="92.7230750">
    <ele>362.4</ele>
   </trkpt>
   <trkpt lat="56.0077850" lon="92.7230520">
    <ele>361.8</ele>
   </trkpt>
  </trkseg>
 </trk>
</gpx>
