<?xml version="1.0" encoding="UTF-8" standalone="no" ?>
<gpx xmlns="http://www.topografix.com/GPX/1/1" creator="http://nakarte.me" xmlns:xsi="http://www.w3.org/2001/XMLSchema-instance" xsi:schemaLocation="http://www.topografix.com/GPX/1/1 http://www.topografix.com/GPX/1/1/gpx.xsd" version="1.1">
	<metadata>
		<time>2026-07-10T07:30:54.066Z</time>
	</metadata>
	<trk>
		<name>zhara21k</name>
		<trkseg>
			<trkpt lat="56.012598" lon="92.893635"><time>1970-01-01T00:00:01.000Z</time></trkpt>
			<trkpt lat="56.012919" lon="92.893599"><time>1970-01-01T00:00:01.000Z</time></trkpt>
			<trkpt lat="56.013102" lon="92.893669"><time>1970-01-01T00:00:01.000Z</time></trkpt>
			<trkpt lat="56.013303" lon="92.893944"><time>1970-01-01T00:00:01.000Z</time></trkpt>
			<trkpt lat="56.013425" lon="92.894243"><time>1970-01-01T00:00:01.000Z</time></trkpt>
			<trkpt lat="56.013493" lon="92.894579"><time>1970-01-01T00:00:01.000Z</time></trkpt>
			<trkpt lat="56.013533" lon="92.895402"><time>1970-01-01T00:00:01.000Z</time></trkpt>
			<trkpt lat="56.013547" lon="92.895711"><time>1970-01-01T00:00:01.000Z</time></trkpt>
			<trkpt lat="56.013584" lon="92.896394"><time>1970-01-01T00:00:01.000Z</time></trkpt>
			<trkpt lat="56.013650" lon="92.897725"><time>1970-01-01T00:00:01.000Z</time></trkpt>
			<trkpt lat="56.013731" lon="92.899441"><time>1970-01-01T00:00:01.000Z</time></trkpt>
			<trkpt lat="56.013830" lon="92.901388"><time>1970-01-01T00:00:01.000Z</time></trkpt>
			<trkpt lat="56.014061" lon="92.905905"><time>1970-01-01T00:00:01.000Z</time></trkpt>
			<trkpt lat="56.014105" lon="92.906567"><time>1970-01-01T00:00:01.000Z</time></trkpt>
			<trkpt lat="56.014160" lon="92.907568"><time>1970-01-01T00:00:01.000Z</time></trkpt>
			<trkpt lat="56.014239" lon="92.908865"><time>1970-01-01T00:00:01.000Z</time></trkpt>
			<trkpt lat="56.014313" lon="92.910186"><time>1970-01-01T00:00:01.000Z</time></trkpt>
			<trkpt lat="56.014385" lon="92.911656"><time>1970-01-01T00:00:01.000Z</time></trkpt>
			<trkpt lat="56.014454" lon="92.912793"><time>1970-01-01T00:00:01.000Z</time></trkpt>
			<trkpt lat="56.014504" lon="92.913754"><time>1970-01-01T00:00:01.000Z</time></trkpt>
			<trkpt lat="56.014550" lon="92.914655"><time>1970-01-01T00:00:01.000Z</time></trkpt>
			<trkpt lat="56.014583" lon="92.915121"><time>1970-01-01T00:00:01.000Z</time></trkpt>
			<trkpt lat="56.014631" lon="92.915556"><time>1970-01-01T00:00:01.000Z</time></trkpt>
			<trkpt lat="56.014690" lon="92.915891"><time>1970-01-01T00:00:01.000Z</time></trkpt>
			<trkpt lat="56.014997" lon="92.916398"><time>1970-01-01T00:00:01.000Z</time></trkpt>
			<trkpt lat="56.015563" lon="92.917219"><time>1970-01-01T00:00:01.000Z</time></trkpt>
			<trkpt lat="56.015938" lon="92.917745"><time>1970-01-01T00:00:01.000Z</time></trkpt>
			<trkpt lat="56.016327" lon="92.918346"><time>1970-01-01T00:00:01.000Z</time></trkpt>
			<trkpt lat="56.016694" lon="92.918898"><time>1970-01-01T00:00:01.000Z</time></trkpt>
			<trkpt lat="56.016898" lon="92.919359"><time>1970-01-01T00:00:01.000Z</time></trkpt>
			<trkpt lat="56.017013" lon="92.919681"><time>1970-01-01T00:00:01.000Z</time></trkpt>
			<trkpt lat="56.017249" lon="92.920867"><time>1970-01-01T00:00:01.000Z</time></trkpt>
			<trkpt lat="56.017491" lon="92.922133"><time>1970-01-01T00:00:01.000Z</time></trkpt>
			<trkpt lat="56.017789" lon="92.923502"><time>1970-01-01T00:00:01.000Z</time></trkpt>
			<trkpt lat="56.018355" lon="92.926354"><time>1970-01-01T00:00:01.000Z</time></trkpt>
			<trkpt lat="56.018517" lon="92.927207"><time>1970-01-01T00:00:01.000Z</time></trkpt>
			<trkpt lat="56.018661" lon="92.927969"><time>1970-01-01T00:00:01.000Z</time></trkpt>
			<trkpt lat="56.018751" lon="92.928452"><time>1970-01-01T00:00:01.000Z</time></trkpt>
			<trkpt lat="56.018883" lon="92.929021"><time>1970-01-01T00:00:01.000Z</time></trkpt>
			<trkpt lat="56.019063" lon="92.929659"><time>1970-01-01T00:00:01.000Z</time></trkpt>
			<trkpt lat="56.019404" lon="92.930651"><time>1970-01-01T00:00:01.000Z</time></trkpt>
			<trkpt lat="56.019506" lon="92.930898"><time>1970-01-01T00:00:01.000Z</time></trkpt>
			<trkpt lat="56.019693" lon="92.931222"><time>1970-01-01T00:00:01.000Z</time></trkpt>
			<trkpt lat="56.019929" lon="92.931553"><time>1970-01-01T00:00:01.000Z</time></trkpt>
			<trkpt lat="56.020169" lon="92.932089"><time>1970-01-01T00:00:01.000Z</time></trkpt>
			<trkpt lat="56.020424" lon="92.932920"><time>1970-01-01T00:00:01.000Z</time></trkpt>
			<trkpt lat="56.020882" lon="92.934691"><time>1970-01-01T00:00:01.000Z</time></trkpt>
			<trkpt lat="56.021134" lon="92.935624"><time>1970-01-01T00:00:01.000Z</time></trkpt>
			<trkpt lat="56.021261" lon="92.936203"><time>1970-01-01T00:00:01.000Z</time></trkpt>
			<trkpt lat="56.021461" lon="92.937094"><time>1970-01-01T00:00:01.000Z</time></trkpt>
			<trkpt lat="56.021632" lon="92.937840"><time>1970-01-01T00:00:01.000Z</time></trkpt>
			<trkpt lat="56.021713" lon="92.938247"><time>1970-01-01T00:00:01.000Z</time></trkpt>
			<trkpt lat="56.021770" lon="92.938607"><time>1970-01-01T00:00:01.000Z</time></trkpt>
			<trkpt lat="56.021818" lon="92.938968"><time>1970-01-01T00:00:01.000Z</time></trkpt>
			<trkpt lat="56.021873" lon="92.939217"><time>1970-01-01T00:00:01.000Z</time></trkpt>
			<trkpt lat="56.021953" lon="92.939562"><time>1970-01-01T00:00:01.000Z</time></trkpt>
			<trkpt lat="56.022004" lon="92.939846"><time>1970-01-01T00:00:01.000Z</time></trkpt>
			<trkpt lat="56.022103" lon="92.940736"><time>1970-01-01T00:00:01.000Z</time></trkpt>
			<trkpt lat="56.022145" lon="92.941123"><time>1970-01-01T00:00:01.000Z</time></trkpt>
			<trkpt lat="56.022220" lon="92.941585"><time>1970-01-01T00:00:01.000Z</time></trkpt>
			<trkpt lat="56.022298" lon="92.941788"><time>1970-01-01T00:00:01.000Z</time></trkpt>
			<trkpt lat="56.022452" lon="92.941873"><time>1970-01-01T00:00:01.000Z</time></trkpt>
			<trkpt lat="56.022561" lon="92.941852"><time>1970-01-01T00:00:01.000Z</time></trkpt>
			<trkpt lat="56.022614" lon="92.941747"><time>1970-01-01T00:00:01.000Z</time></trkpt>
			<trkpt lat="56.022666" lon="92.941648"><time>1970-01-01T00:00:01.000Z</time></trkpt>
			<trkpt lat="56.022810" lon="92.941332"><time>1970-01-01T00:00:01.000Z</time></trkpt>
			<trkpt lat="56.022978" lon="92.941133"><time>1970-01-01T00:00:01.000Z</time></trkpt>
			<trkpt lat="56.023302" lon="92.940989"><time>1970-01-01T00:00:01.000Z</time></trkpt>
			<trkpt lat="56.024714" lon="92.940431"><time>1970-01-01T00:00:01.000Z</time></trkpt>
			<trkpt lat="56.025523" lon="92.940093"><time>1970-01-01T00:00:01.000Z</time></trkpt>
			<trkpt lat="56.026483" lon="92.939739"><time>1970-01-01T00:00:01.000Z</time></trkpt>
			<trkpt lat="56.026701" lon="92.939631"><time>1970-01-01T00:00:01.000Z</time></trkpt>
			<trkpt lat="56.026785" lon="92.939449"><time>1970-01-01T00:00:01.000Z</time></trkpt>
			<trkpt lat="56.026797" lon="92.939234"><time>1970-01-01T00:00:01.000Z</time></trkpt>
			<trkpt lat="56.026749" lon="92.938789"><time>1970-01-01T00:00:01.000Z</time></trkpt>
			<trkpt lat="56.026647" lon="92.938124"><time>1970-01-01T00:00:01.000Z</time></trkpt>
			<trkpt lat="56.026480" lon="92.937400"><time>1970-01-01T00:00:01.000Z</time></trkpt>
			<trkpt lat="56.026344" lon="92.936931"><time>1970-01-01T00:00:01.000Z</time></trkpt>
			<trkpt lat="56.026175" lon="92.936268"><time>1970-01-01T00:00:01.000Z</time></trkpt>
			<trkpt lat="56.025963" lon="92.935717"><time>1970-01-01T00:00:01.000Z</time></trkpt>
			<trkpt lat="56.025776" lon="92.935231"><time>1970-01-01T00:00:01.000Z</time></trkpt>
			<trkpt lat="56.025394" lon="92.934416"><time>1970-01-01T00:00:01.000Z</time></trkpt>
			<trkpt lat="56.025044" lon="92.933559"><time>1970-01-01T00:00:01.000Z</time></trkpt>
			<trkpt lat="56.024819" lon="92.932938"><time>1970-01-01T00:00:01.000Z</time></trkpt>
			<trkpt lat="56.024681" lon="92.932340"><time>1970-01-01T00:00:01.000Z</time></trkpt>
			<trkpt lat="56.024505" lon="92.931579"><time>1970-01-01T00:00:01.000Z</time></trkpt>
			<trkpt lat="56.024295" lon="92.930617"><time>1970-01-01T00:00:01.000Z</time></trkpt>
			<trkpt lat="56.024128" lon="92.929785"><time>1970-01-01T00:00:01.000Z</time></trkpt>
			<trkpt lat="56.024008" lon="92.929171"><time>1970-01-01T00:00:01.000Z</time></trkpt>
			<trkpt lat="56.023926" lon="92.928795"><time>1970-01-01T00:00:01.000Z</time></trkpt>
			<trkpt lat="56.023762" lon="92.927974"><time>1970-01-01T00:00:01.000Z</time></trkpt>
			<trkpt lat="56.023600" lon="92.927216"><time>1970-01-01T00:00:01.000Z</time></trkpt>
			<trkpt lat="56.023391" lon="92.926589"><time>1970-01-01T00:00:01.000Z</time></trkpt>
			<trkpt lat="56.023210" lon="92.926074"><time>1970-01-01T00:00:01.000Z</time></trkpt>
			<trkpt lat="56.023084" lon="92.925799"><time>1970-01-01T00:00:01.000Z</time></trkpt>
			<trkpt lat="56.022920" lon="92.925430"><time>1970-01-01T00:00:01.000Z</time></trkpt>
			<trkpt lat="56.022640" lon="92.924823"><time>1970-01-01T00:00:01.000Z</time></trkpt>
			<trkpt lat="56.022430" lon="92.924321"><time>1970-01-01T00:00:01.000Z</time></trkpt>
			<trkpt lat="56.022248" lon="92.923920"><time>1970-01-01T00:00:01.000Z</time></trkpt>
			<trkpt lat="56.022132" lon="92.923755"><time>1970-01-01T00:00:01.000Z</time></trkpt>
			<trkpt lat="56.021976" lon="92.923607"><time>1970-01-01T00:00:01.000Z</time></trkpt>
			<trkpt lat="56.021965" lon="92.923476"><time>1970-01-01T00:00:01.000Z</time></trkpt>
			<trkpt lat="56.022100" lon="92.923298"><time>1970-01-01T00:00:01.000Z</time></trkpt>
			<trkpt lat="56.022843" lon="92.922422"><time>1970-01-01T00:00:01.000Z</time></trkpt>
			<trkpt lat="56.022977" lon="92.922269"><time>1970-01-01T00:00:01.000Z</time></trkpt>
			<trkpt lat="56.023065" lon="92.922342"><time>1970-01-01T00:00:01.000Z</time></trkpt>
			<trkpt lat="56.023142" lon="92.922612"><time>1970-01-01T00:00:01.000Z</time></trkpt>
			<trkpt lat="56.023182" lon="92.922669"><time>1970-01-01T00:00:01.000Z</time></trkpt>
			<trkpt lat="56.023203" lon="92.922583"><time>1970-01-01T00:00:01.000Z</time></trkpt>
			<trkpt lat="56.023074" lon="92.922159"><time>1970-01-01T00:00:01.000Z</time></trkpt>
			<trkpt lat="56.022957" lon="92.921762"><time>1970-01-01T00:00:01.000Z</time></trkpt>
			<trkpt lat="56.022801" lon="92.921269"><time>1970-01-01T00:00:01.000Z</time></trkpt>
			<trkpt lat="56.022636" lon="92.920990"><time>1970-01-01T00:00:01.000Z</time></trkpt>
			<trkpt lat="56.022477" lon="92.920834"><time>1970-01-01T00:00:01.000Z</time></trkpt>
			<trkpt lat="56.022073" lon="92.920673"><time>1970-01-01T00:00:01.000Z</time></trkpt>
			<trkpt lat="56.021728" lon="92.920550"><time>1970-01-01T00:00:01.000Z</time></trkpt>
			<trkpt lat="56.021469" lon="92.920472"><time>1970-01-01T00:00:01.000Z</time></trkpt>
			<trkpt lat="56.021005" lon="92.920352"><time>1970-01-01T00:00:01.000Z</time></trkpt>
			<trkpt lat="56.020619" lon="92.920319"><time>1970-01-01T00:00:01.000Z</time></trkpt>
			<trkpt lat="56.020160" lon="92.920303"><time>1970-01-01T00:00:01.000Z</time></trkpt>
			<trkpt lat="56.019935" lon="92.920271"><time>1970-01-01T00:00:01.000Z</time></trkpt>
			<trkpt lat="56.019725" lon="92.920266"><time>1970-01-01T00:00:01.000Z</time></trkpt>
			<trkpt lat="56.019491" lon="92.920165"><time>1970-01-01T00:00:01.000Z</time></trkpt>
			<trkpt lat="56.019116" lon="92.919890"><time>1970-01-01T00:00:01.000Z</time></trkpt>
			<trkpt lat="56.018815" lon="92.919701"><time>1970-01-01T00:00:01.000Z</time></trkpt>
			<trkpt lat="56.018325" lon="92.919350"><time>1970-01-01T00:00:01.000Z</time></trkpt>
			<trkpt lat="56.018028" lon="92.919102"><time>1970-01-01T00:00:01.000Z</time></trkpt>
			<trkpt lat="56.017629" lon="92.918839"><time>1970-01-01T00:00:01.000Z</time></trkpt>
			<trkpt lat="56.017431" lon="92.918710"><time>1970-01-01T00:00:01.000Z</time></trkpt>
			<trkpt lat="56.017270" lon="92.918667"><time>1970-01-01T00:00:01.000Z</time></trkpt>
			<trkpt lat="56.017201" lon="92.918726"><time>1970-01-01T00:00:01.000Z</time></trkpt>
			<trkpt lat="56.017162" lon="92.918866"><time>1970-01-01T00:00:01.000Z</time></trkpt>
			<trkpt lat="56.017123" lon="92.919032"><time>1970-01-01T00:00:01.000Z</time></trkpt>
			<trkpt lat="56.017102" lon="92.919214"><time>1970-01-01T00:00:01.000Z</time></trkpt>
			<trkpt lat="56.017150" lon="92.919311"><time>1970-01-01T00:00:01.000Z</time></trkpt>
			<trkpt lat="56.017410" lon="92.919477"><time>1970-01-01T00:00:01.000Z</time></trkpt>
			<trkpt lat="56.017833" lon="92.919801"><time>1970-01-01T00:00:01.000Z</time></trkpt>
			<trkpt lat="56.017983" lon="92.919901"><time>1970-01-01T00:00:01.000Z</time></trkpt>
			<trkpt lat="56.018457" lon="92.920234"><time>1970-01-01T00:00:01.000Z</time></trkpt>
			<trkpt lat="56.018850" lon="92.920507"><time>1970-01-01T00:00:01.000Z</time></trkpt>
			<trkpt lat="56.019188" lon="92.920786"><time>1970-01-01T00:00:01.000Z</time></trkpt>
			<trkpt lat="56.019617" lon="92.921178"><time>1970-01-01T00:00:01.000Z</time></trkpt>
			<trkpt lat="56.020076" lon="92.921644"><time>1970-01-01T00:00:01.000Z</time></trkpt>
			<trkpt lat="56.020667" lon="92.922213"><time>1970-01-01T00:00:01.000Z</time></trkpt>
			<trkpt lat="56.021098" lon="92.922658"><time>1970-01-01T00:00:01.000Z</time></trkpt>
			<trkpt lat="56.021431" lon="92.922975"><time>1970-01-01T00:00:01.000Z</time></trkpt>
			<trkpt lat="56.021613" lon="92.923251"><time>1970-01-01T00:00:01.000Z</time></trkpt>
			<trkpt lat="56.021920" lon="92.923667"><time>1970-01-01T00:00:01.000Z</time></trkpt>
			<trkpt lat="56.022175" lon="92.924037"><time>1970-01-01T00:00:01.000Z</time></trkpt>
			<trkpt lat="56.022313" lon="92.924327"><time>1970-01-01T00:00:01.000Z</time></trkpt>
			<trkpt lat="56.022588" lon="92.924986"><time>1970-01-01T00:00:01.000Z</time></trkpt>
			<trkpt lat="56.022917" lon="92.925762"><time>1970-01-01T00:00:01.000Z</time></trkpt>
			<trkpt lat="56.023178" lon="92.926393"><time>1970-01-01T00:00:01.000Z</time></trkpt>
			<trkpt lat="56.023287" lon="92.926703"><time>1970-01-01T00:00:01.000Z</time></trkpt>
			<trkpt lat="56.023365" lon="92.927052"><time>1970-01-01T00:00:01.000Z</time></trkpt>
			<trkpt lat="56.023491" lon="92.927615"><time>1970-01-01T00:00:01.000Z</time></trkpt>
			<trkpt lat="56.023608" lon="92.928151"><time>1970-01-01T00:00:01.000Z</time></trkpt>
			<trkpt lat="56.023805" lon="92.928972"><time>1970-01-01T00:00:01.000Z</time></trkpt>
			<trkpt lat="56.023925" lon="92.929530"><time>1970-01-01T00:00:01.000Z</time></trkpt>
			<trkpt lat="56.024060" lon="92.930260"><time>1970-01-01T00:00:01.000Z</time></trkpt>
			<trkpt lat="56.024228" lon="92.931080"><time>1970-01-01T00:00:01.000Z</time></trkpt>
			<trkpt lat="56.024379" lon="92.931856"><time>1970-01-01T00:00:01.000Z</time></trkpt>
			<trkpt lat="56.024552" lon="92.932663"><time>1970-01-01T00:00:01.000Z</time></trkpt>
			<trkpt lat="56.024636" lon="92.932996"><time>1970-01-01T00:00:01.000Z</time></trkpt>
			<trkpt lat="56.024696" lon="92.933232"><time>1970-01-01T00:00:01.000Z</time></trkpt>
			<trkpt lat="56.024888" lon="92.933671"><time>1970-01-01T00:00:01.000Z</time></trkpt>
			<trkpt lat="56.025113" lon="92.934219"><time>1970-01-01T00:00:01.000Z</time></trkpt>
			<trkpt lat="56.025385" lon="92.934889"><time>1970-01-01T00:00:01.000Z</time></trkpt>
			<trkpt lat="56.025677" lon="92.935551"><time>1970-01-01T00:00:01.000Z</time></trkpt>
			<trkpt lat="56.025715" lon="92.935506"><time>1970-01-01T00:00:01.000Z</time></trkpt>
			<trkpt lat="56.025880" lon="92.935948"><time>1970-01-01T00:00:01.000Z</time></trkpt>
			<trkpt lat="56.026019" lon="92.936314"><time>1970-01-01T00:00:01.000Z</time></trkpt>
			<trkpt lat="56.026138" lon="92.936705"><time>1970-01-01T00:00:01.000Z</time></trkpt>
			<trkpt lat="56.026253" lon="92.937122"><time>1970-01-01T00:00:01.000Z</time></trkpt>
			<trkpt lat="56.026375" lon="92.937802"><time>1970-01-01T00:00:01.000Z</time></trkpt>
			<trkpt lat="56.026524" lon="92.938725"><time>1970-01-01T00:00:01.000Z</time></trkpt>
			<trkpt lat="56.026596" lon="92.939186"><time>1970-01-01T00:00:01.000Z</time></trkpt>
			<trkpt lat="56.026623" lon="92.939411"><time>1970-01-01T00:00:01.000Z</time></trkpt>
			<trkpt lat="56.026593" lon="92.939588"><time>1970-01-01T00:00:01.000Z</time></trkpt>
			<trkpt lat="56.026506" lon="92.939680"><time>1970-01-01T00:00:01.000Z</time></trkpt>
			<trkpt lat="56.025973" lon="92.939867"><time>1970-01-01T00:00:01.000Z</time></trkpt>
			<trkpt lat="56.025601" lon="92.940023"><time>1970-01-01T00:00:01.000Z</time></trkpt>
			<trkpt lat="56.025205" lon="92.940179"><time>1970-01-01T00:00:01.000Z</time></trkpt>
			<trkpt lat="56.024852" lon="92.940323"><time>1970-01-01T00:00:01.000Z</time></trkpt>
			<trkpt lat="56.024711" lon="92.940362"><time>1970-01-01T00:00:01.000Z</time></trkpt>
			<trkpt lat="56.024654" lon="92.940388"><time>1970-01-01T00:00:01.000Z</time></trkpt>
			<trkpt lat="56.024340" lon="92.940496"><time>1970-01-01T00:00:01.000Z</time></trkpt>
			<trkpt lat="56.023898" lon="92.940672"><time>1970-01-01T00:00:01.000Z</time></trkpt>
			<trkpt lat="56.023536" lon="92.940806"><time>1970-01-01T00:00:01.000Z</time></trkpt>
			<trkpt lat="56.023140" lon="92.940994"><time>1970-01-01T00:00:01.000Z</time></trkpt>
			<trkpt lat="56.022945" lon="92.941090"><time>1970-01-01T00:00:01.000Z</time></trkpt>
			<trkpt lat="56.022843" lon="92.941225"><time>1970-01-01T00:00:01.000Z</time></trkpt>
			<trkpt lat="56.022756" lon="92.941369"><time>1970-01-01T00:00:01.000Z</time></trkpt>
			<trkpt lat="56.022669" lon="92.941573"><time>1970-01-01T00:00:01.000Z</time></trkpt>
			<trkpt lat="56.022570" lon="92.941777"><time>1970-01-01T00:00:01.000Z</time></trkpt>
			<trkpt lat="56.022504" lon="92.941804"><time>1970-01-01T00:00:01.000Z</time></trkpt>
			<trkpt lat="56.022393" lon="92.941782"><time>1970-01-01T00:00:01.000Z</time></trkpt>
			<trkpt lat="56.022298" lon="92.941702"><time>1970-01-01T00:00:01.000Z</time></trkpt>
			<trkpt lat="56.022241" lon="92.941541"><time>1970-01-01T00:00:01.000Z</time></trkpt>
			<trkpt lat="56.022193" lon="92.941300"><time>1970-01-01T00:00:01.000Z</time></trkpt>
			<trkpt lat="56.022145" lon="92.940924"><time>1970-01-01T00:00:01.000Z</time></trkpt>
			<trkpt lat="56.022109" lon="92.940484"><time>1970-01-01T00:00:01.000Z</time></trkpt>
			<trkpt lat="56.022064" lon="92.940125"><time>1970-01-01T00:00:01.000Z</time></trkpt>
			<trkpt lat="56.022010" lon="92.939685"><time>1970-01-01T00:00:01.000Z</time></trkpt>
			<trkpt lat="56.021917" lon="92.939245"><time>1970-01-01T00:00:01.000Z</time></trkpt>
			<trkpt lat="56.021866" lon="92.939014"><time>1970-01-01T00:00:01.000Z</time></trkpt>
			<trkpt lat="56.021836" lon="92.938816"><time>1970-01-01T00:00:01.000Z</time></trkpt>
			<trkpt lat="56.021782" lon="92.938505"><time>1970-01-01T00:00:01.000Z</time></trkpt>
			<trkpt lat="56.021734" lon="92.938151"><time>1970-01-01T00:00:01.000Z</time></trkpt>
			<trkpt lat="56.021671" lon="92.937861"><time>1970-01-01T00:00:01.000Z</time></trkpt>
			<trkpt lat="56.021581" lon="92.937469"><time>1970-01-01T00:00:01.000Z</time></trkpt>
			<trkpt lat="56.021386" lon="92.936617"><time>1970-01-01T00:00:01.000Z</time></trkpt>
			<trkpt lat="56.021343" lon="92.936448"><time>1970-01-01T00:00:01.000Z</time></trkpt>
			<trkpt lat="56.021227" lon="92.935858"><time>1970-01-01T00:00:01.000Z</time></trkpt>
			<trkpt lat="56.021110" lon="92.935431"><time>1970-01-01T00:00:01.000Z</time></trkpt>
			<trkpt lat="56.021005" lon="92.934991"><time>1970-01-01T00:00:01.000Z</time></trkpt>
			<trkpt lat="56.020861" lon="92.934480"><time>1970-01-01T00:00:01.000Z</time></trkpt>
			<trkpt lat="56.020782" lon="92.934163"><time>1970-01-01T00:00:01.000Z</time></trkpt>
			<trkpt lat="56.020742" lon="92.934020"><time>1970-01-01T00:00:01.000Z</time></trkpt>
			<trkpt lat="56.020481" lon="92.933017"><time>1970-01-01T00:00:01.000Z</time></trkpt>
			<trkpt lat="56.020328" lon="92.932454"><time>1970-01-01T00:00:01.000Z</time></trkpt>
			<trkpt lat="56.020184" lon="92.932030"><time>1970-01-01T00:00:01.000Z</time></trkpt>
			<trkpt lat="56.020019" lon="92.931628"><time>1970-01-01T00:00:01.000Z</time></trkpt>
			<trkpt lat="56.019903" lon="92.931435"><time>1970-01-01T00:00:01.000Z</time></trkpt>
			<trkpt lat="56.019762" lon="92.931242"><time>1970-01-01T00:00:01.000Z</time></trkpt>
			<trkpt lat="56.019581" lon="92.930925"><time>1970-01-01T00:00:01.000Z</time></trkpt>
			<trkpt lat="56.019425" lon="92.930592"><time>1970-01-01T00:00:01.000Z</time></trkpt>
			<trkpt lat="56.019217" lon="92.929976"><time>1970-01-01T00:00:01.000Z</time></trkpt>
			<trkpt lat="56.019057" lon="92.929482"><time>1970-01-01T00:00:01.000Z</time></trkpt>
			<trkpt lat="56.018905" lon="92.928908"><time>1970-01-01T00:00:01.000Z</time></trkpt>
			<trkpt lat="56.018763" lon="92.928302"><time>1970-01-01T00:00:01.000Z</time></trkpt>
			<trkpt lat="56.018628" lon="92.927551"><time>1970-01-01T00:00:01.000Z</time></trkpt>
			<trkpt lat="56.018031" lon="92.924525"><time>1970-01-01T00:00:01.000Z</time></trkpt>
			<trkpt lat="56.017551" lon="92.922154"><time>1970-01-01T00:00:01.000Z</time></trkpt>
			<trkpt lat="56.017210" lon="92.920448"><time>1970-01-01T00:00:01.000Z</time></trkpt>
			<trkpt lat="56.017078" lon="92.919756"><time>1970-01-01T00:00:01.000Z</time></trkpt>
			<trkpt lat="56.017024" lon="92.918989"><time>1970-01-01T00:00:01.000Z</time></trkpt>
			<trkpt lat="56.016970" lon="92.918667"><time>1970-01-01T00:00:01.000Z</time></trkpt>
			<trkpt lat="56.016826" lon="92.918378"><time>1970-01-01T00:00:01.000Z</time></trkpt>
			<trkpt lat="56.016567" lon="92.918088"><time>1970-01-01T00:00:01.000Z</time></trkpt>
			<trkpt lat="56.016235" lon="92.917686"><time>1970-01-01T00:00:01.000Z</time></trkpt>
			<trkpt lat="56.015770" lon="92.917145"><time>1970-01-01T00:00:01.000Z</time></trkpt>
			<trkpt lat="56.015536" lon="92.916849"><time>1970-01-01T00:00:01.000Z</time></trkpt>
			<trkpt lat="56.015201" lon="92.916467"><time>1970-01-01T00:00:01.000Z</time></trkpt>
			<trkpt lat="56.015106" lon="92.916281"><time>1970-01-01T00:00:01.000Z</time></trkpt>
			<trkpt lat="56.015068" lon="92.916028"><time>1970-01-01T00:00:01.000Z</time></trkpt>
			<trkpt lat="56.015045" lon="92.914912"><time>1970-01-01T00:00:01.000Z</time></trkpt>
			<trkpt lat="56.015033" lon="92.914124"><time>1970-01-01T00:00:01.000Z</time></trkpt>
			<trkpt lat="56.015018" lon="92.913533"><time>1970-01-01T00:00:01.000Z</time></trkpt>
			<trkpt lat="56.014952" lon="92.912890"><time>1970-01-01T00:00:01.000Z</time></trkpt>
			<trkpt lat="56.014655" lon="92.911125"><time>1970-01-01T00:00:01.000Z</time></trkpt>
			<trkpt lat="56.014490" lon="92.910070"><time>1970-01-01T00:00:01.000Z</time></trkpt>
			<trkpt lat="56.014436" lon="92.909693"><time>1970-01-01T00:00:01.000Z</time></trkpt>
			<trkpt lat="56.014382" lon="92.909156"><time>1970-01-01T00:00:01.000Z</time></trkpt>
			<trkpt lat="56.014325" lon="92.908019"><time>1970-01-01T00:00:01.000Z</time></trkpt>
			<trkpt lat="56.014262" lon="92.907525"><time>1970-01-01T00:00:01.000Z</time></trkpt>
			<trkpt lat="56.014208" lon="92.907391"><time>1970-01-01T00:00:01.000Z</time></trkpt>
			<trkpt lat="56.014143" lon="92.907497"><time>1970-01-01T00:00:01.000Z</time></trkpt>
			<trkpt lat="56.014209" lon="92.908762"><time>1970-01-01T00:00:01.000Z</time></trkpt>
			<trkpt lat="56.014248" lon="92.909489"><time>1970-01-01T00:00:01.000Z</time></trkpt>
			<trkpt lat="56.014304" lon="92.910567"><time>1970-01-01T00:00:01.000Z</time></trkpt>
			<trkpt lat="56.014349" lon="92.911451"><time>1970-01-01T00:00:01.000Z</time></trkpt>
			<trkpt lat="56.014415" lon="92.912536"><time>1970-01-01T00:00:01.000Z</time></trkpt>
			<trkpt lat="56.014493" lon="92.913936"><time>1970-01-01T00:00:01.000Z</time></trkpt>
			<trkpt lat="56.014532" lon="92.914832"><time>1970-01-01T00:00:01.000Z</time></trkpt>
			<trkpt lat="56.014565" lon="92.915275"><time>1970-01-01T00:00:01.000Z</time></trkpt>
			<trkpt lat="56.014601" lon="92.915588"><time>1970-01-01T00:00:01.000Z</time></trkpt>
			<trkpt lat="56.014652" lon="92.915829"><time>1970-01-01T00:00:01.000Z</time></trkpt>
			<trkpt lat="56.014739" lon="92.916076"><time>1970-01-01T00:00:01.000Z</time></trkpt>
			<trkpt lat="56.015189" lon="92.916725"><time>1970-01-01T00:00:01.000Z</time></trkpt>
			<trkpt lat="56.015740" lon="92.917516"><time>1970-01-01T00:00:01.000Z</time></trkpt>
			<trkpt lat="56.016049" lon="92.917981"><time>1970-01-01T00:00:01.000Z</time></trkpt>
			<trkpt lat="56.016211" lon="92.918238"><time>1970-01-01T00:00:01.000Z</time></trkpt>
			<trkpt lat="56.016409" lon="92.918538"><time>1970-01-01T00:00:01.000Z</time></trkpt>
			<trkpt lat="56.016643" lon="92.918893"><time>1970-01-01T00:00:01.000Z</time></trkpt>
			<trkpt lat="56.016721" lon="92.919027"><time>1970-01-01T00:00:01.000Z</time></trkpt>
			<trkpt lat="56.016853" lon="92.919306"><time>1970-01-01T00:00:01.000Z</time></trkpt>
			<trkpt lat="56.016956" lon="92.919615"><time>1970-01-01T00:00:01.000Z</time></trkpt>
			<trkpt lat="56.017006" lon="92.919780"><time>1970-01-01T00:00:01.000Z</time></trkpt>
			<trkpt lat="56.017183" lon="92.920679"><time>1970-01-01T00:00:01.000Z</time></trkpt>
			<trkpt lat="56.017332" lon="92.921398"><time>1970-01-01T00:00:01.000Z</time></trkpt>
			<trkpt lat="56.017948" lon="92.924448"><time>1970-01-01T00:00:01.000Z</time></trkpt>
			<trkpt lat="56.018271" lon="92.926092"><time>1970-01-01T00:00:01.000Z</time></trkpt>
			<trkpt lat="56.018827" lon="92.928958"><time>1970-01-01T00:00:01.000Z</time></trkpt>
			<trkpt lat="56.018935" lon="92.929370"><time>1970-01-01T00:00:01.000Z</time></trkpt>
			<trkpt lat="56.019110" lon="92.929895"><time>1970-01-01T00:00:01.000Z</time></trkpt>
			<trkpt lat="56.019290" lon="92.930431"><time>1970-01-01T00:00:01.000Z</time></trkpt>
			<trkpt lat="56.019431" lon="92.930791"><time>1970-01-01T00:00:01.000Z</time></trkpt>
			<trkpt lat="56.019524" lon="92.931005"><time>1970-01-01T00:00:01.000Z</time></trkpt>
			<trkpt lat="56.019629" lon="92.931172"><time>1970-01-01T00:00:01.000Z</time></trkpt>
			<trkpt lat="56.019809" lon="92.931451"><time>1970-01-01T00:00:01.000Z</time></trkpt>
			<trkpt lat="56.019962" lon="92.931708"><time>1970-01-01T00:00:01.000Z</time></trkpt>
			<trkpt lat="56.020166" lon="92.932197"><time>1970-01-01T00:00:01.000Z</time></trkpt>
			<trkpt lat="56.020418" lon="92.933038"><time>1970-01-01T00:00:01.000Z</time></trkpt>
			<trkpt lat="56.020595" lon="92.933688"><time>1970-01-01T00:00:01.000Z</time></trkpt>
			<trkpt lat="56.020792" lon="92.934472"><time>1970-01-01T00:00:01.000Z</time></trkpt>
			<trkpt lat="56.020966" lon="92.935098"><time>1970-01-01T00:00:01.000Z</time></trkpt>
			<trkpt lat="56.021089" lon="92.935544"><time>1970-01-01T00:00:01.000Z</time></trkpt>
			<trkpt lat="56.021200" lon="92.936000"><time>1970-01-01T00:00:01.000Z</time></trkpt>
			<trkpt lat="56.021322" lon="92.936558"><time>1970-01-01T00:00:01.000Z</time></trkpt>
			<trkpt lat="56.021499" lon="92.937363"><time>1970-01-01T00:00:01.000Z</time></trkpt>
			<trkpt lat="56.021590" lon="92.937743"><time>1970-01-01T00:00:01.000Z</time></trkpt>
			<trkpt lat="56.021677" lon="92.938194"><time>1970-01-01T00:00:01.000Z</time></trkpt>
			<trkpt lat="56.021782" lon="92.938880"><time>1970-01-01T00:00:01.000Z</time></trkpt>
			<trkpt lat="56.021827" lon="92.939138"><time>1970-01-01T00:00:01.000Z</time></trkpt>
			<trkpt lat="56.021890" lon="92.939395"><time>1970-01-01T00:00:01.000Z</time></trkpt>
			<trkpt lat="56.021959" lon="92.939706"><time>1970-01-01T00:00:01.000Z</time></trkpt>
			<trkpt lat="56.021995" lon="92.939996"><time>1970-01-01T00:00:01.000Z</time></trkpt>
			<trkpt lat="56.022067" lon="92.940586"><time>1970-01-01T00:00:01.000Z</time></trkpt>
			<trkpt lat="56.022097" lon="92.940983"><time>1970-01-01T00:00:01.000Z</time></trkpt>
			<trkpt lat="56.022145" lon="92.941310"><time>1970-01-01T00:00:01.000Z</time></trkpt>
			<trkpt lat="56.022178" lon="92.941525"><time>1970-01-01T00:00:01.000Z</time></trkpt>
			<trkpt lat="56.022232" lon="92.941734"><time>1970-01-01T00:00:01.000Z</time></trkpt>
			<trkpt lat="56.022329" lon="92.941859"><time>1970-01-01T00:00:01.000Z</time></trkpt>
			<trkpt lat="56.022492" lon="92.941933"><time>1970-01-01T00:00:01.000Z</time></trkpt>
			<trkpt lat="56.022582" lon="92.941890"><time>1970-01-01T00:00:01.000Z</time></trkpt>
			<trkpt lat="56.022648" lon="92.941761"><time>1970-01-01T00:00:01.000Z</time></trkpt>
			<trkpt lat="56.022744" lon="92.941530"><time>1970-01-01T00:00:01.000Z</time></trkpt>
			<trkpt lat="56.022852" lon="92.941326"><time>1970-01-01T00:00:01.000Z</time></trkpt>
			<trkpt lat="56.023017" lon="92.941144"><time>1970-01-01T00:00:01.000Z</time></trkpt>
			<trkpt lat="56.023632" lon="92.940887"><time>1970-01-01T00:00:01.000Z</time></trkpt>
			<trkpt lat="56.025307" lon="92.940216"><time>1970-01-01T00:00:01.000Z</time></trkpt>
			<trkpt lat="56.026324" lon="92.939835"><time>1970-01-01T00:00:01.000Z</time></trkpt>
			<trkpt lat="56.026587" lon="92.939739"><time>1970-01-01T00:00:01.000Z</time></trkpt>
			<trkpt lat="56.026710" lon="92.939680"><time>1970-01-01T00:00:01.000Z</time></trkpt>
			<trkpt lat="56.026779" lon="92.939567"><time>1970-01-01T00:00:01.000Z</time></trkpt>
			<trkpt lat="56.026815" lon="92.939326"><time>1970-01-01T00:00:01.000Z</time></trkpt>
			<trkpt lat="56.026803" lon="92.939079"><time>1970-01-01T00:00:01.000Z</time></trkpt>
			<trkpt lat="56.026692" lon="92.938221"><time>1970-01-01T00:00:01.000Z</time></trkpt>
			<trkpt lat="56.026432" lon="92.937126"><time>1970-01-01T00:00:01.000Z</time></trkpt>
			<trkpt lat="56.026222" lon="92.936361"><time>1970-01-01T00:00:01.000Z</time></trkpt>
			<trkpt lat="56.026069" lon="92.935903"><time>1970-01-01T00:00:01.000Z</time></trkpt>
			<trkpt lat="56.025490" lon="92.934498"><time>1970-01-01T00:00:01.000Z</time></trkpt>
			<trkpt lat="56.025247" lon="92.933993"><time>1970-01-01T00:00:01.000Z</time></trkpt>
			<trkpt lat="56.025095" lon="92.933596"><time>1970-01-01T00:00:01.000Z</time></trkpt>
			<trkpt lat="56.024882" lon="92.933022"><time>1970-01-01T00:00:01.000Z</time></trkpt>
			<trkpt lat="56.024789" lon="92.932674"><time>1970-01-01T00:00:01.000Z</time></trkpt>
			<trkpt lat="56.024678" lon="92.932239"><time>1970-01-01T00:00:01.000Z</time></trkpt>
			<trkpt lat="56.024378" lon="92.930818"><time>1970-01-01T00:00:01.000Z</time></trkpt>
			<trkpt lat="56.024186" lon="92.929991"><time>1970-01-01T00:00:01.000Z</time></trkpt>
			<trkpt lat="56.023988" lon="92.928919"><time>1970-01-01T00:00:01.000Z</time></trkpt>
			<trkpt lat="56.023722" lon="92.927626"><time>1970-01-01T00:00:01.000Z</time></trkpt>
			<trkpt lat="56.023659" lon="92.927299"><time>1970-01-01T00:00:01.000Z</time></trkpt>
			<trkpt lat="56.023551" lon="92.926939"><time>1970-01-01T00:00:01.000Z</time></trkpt>
			<trkpt lat="56.023322" lon="92.926337"><time>1970-01-01T00:00:01.000Z</time></trkpt>
			<trkpt lat="56.023134" lon="92.925839"><time>1970-01-01T00:00:01.000Z</time></trkpt>
			<trkpt lat="56.022969" lon="92.925485"><time>1970-01-01T00:00:01.000Z</time></trkpt>
			<trkpt lat="56.022669" lon="92.924799"><time>1970-01-01T00:00:01.000Z</time></trkpt>
			<trkpt lat="56.022367" lon="92.924088"><time>1970-01-01T00:00:01.000Z</time></trkpt>
			<trkpt lat="56.022208" lon="92.923812"><time>1970-01-01T00:00:01.000Z</time></trkpt>
			<trkpt lat="56.022046" lon="92.923608"><time>1970-01-01T00:00:01.000Z</time></trkpt>
			<trkpt lat="56.022010" lon="92.923522"><time>1970-01-01T00:00:01.000Z</time></trkpt>
			<trkpt lat="56.022062" lon="92.923410"><time>1970-01-01T00:00:01.000Z</time></trkpt>
			<trkpt lat="56.022756" lon="92.922589"><time>1970-01-01T00:00:01.000Z</time></trkpt>
			<trkpt lat="56.022973" lon="92.922342"><time>1970-01-01T00:00:01.000Z</time></trkpt>
			<trkpt lat="56.023044" lon="92.922379"><time>1970-01-01T00:00:01.000Z</time></trkpt>
			<trkpt lat="56.023095" lon="92.922604"><time>1970-01-01T00:00:01.000Z</time></trkpt>
			<trkpt lat="56.023179" lon="92.922728"><time>1970-01-01T00:00:01.000Z</time></trkpt>
			<trkpt lat="56.023233" lon="92.922616"><time>1970-01-01T00:00:01.000Z</time></trkpt>
			<trkpt lat="56.023167" lon="92.922379"><time>1970-01-01T00:00:01.000Z</time></trkpt>
			<trkpt lat="56.022870" lon="92.921408"><time>1970-01-01T00:00:01.000Z</time></trkpt>
			<trkpt lat="56.022739" lon="92.921126"><time>1970-01-01T00:00:01.000Z</time></trkpt>
			<trkpt lat="56.022615" lon="92.920899"><time>1970-01-01T00:00:01.000Z</time></trkpt>
			<trkpt lat="56.022277" lon="92.920695"><time>1970-01-01T00:00:01.000Z</time></trkpt>
			<trkpt lat="56.021785" lon="92.920513"><time>1970-01-01T00:00:01.000Z</time></trkpt>
			<trkpt lat="56.021377" lon="92.920384"><time>1970-01-01T00:00:01.000Z</time></trkpt>
			<trkpt lat="56.020987" lon="92.920287"><time>1970-01-01T00:00:01.000Z</time></trkpt>
			<trkpt lat="56.020415" lon="92.920255"><time>1970-01-01T00:00:01.000Z</time></trkpt>
			<trkpt lat="56.020079" lon="92.920244"><time>1970-01-01T00:00:01.000Z</time></trkpt>
			<trkpt lat="56.019851" lon="92.920228"><time>1970-01-01T00:00:01.000Z</time></trkpt>
			<trkpt lat="56.019623" lon="92.920180"><time>1970-01-01T00:00:01.000Z</time></trkpt>
			<trkpt lat="56.019335" lon="92.919998"><time>1970-01-01T00:00:01.000Z</time></trkpt>
			<trkpt lat="56.018811" lon="92.919653"><time>1970-01-01T00:00:01.000Z</time></trkpt>
			<trkpt lat="56.018256" lon="92.919247"><time>1970-01-01T00:00:01.000Z</time></trkpt>
			<trkpt lat="56.017881" lon="92.918962"><time>1970-01-01T00:00:01.000Z</time></trkpt>
			<trkpt lat="56.017563" lon="92.918748"><time>1970-01-01T00:00:01.000Z</time></trkpt>
			<trkpt lat="56.017344" lon="92.918635"><time>1970-01-01T00:00:01.000Z</time></trkpt>
			<trkpt lat="56.017234" lon="92.918624"><time>1970-01-01T00:00:01.000Z</time></trkpt>
			<trkpt lat="56.017165" lon="92.918699"><time>1970-01-01T00:00:01.000Z</time></trkpt>
			<trkpt lat="56.017102" lon="92.918941"><time>1970-01-01T00:00:01.000Z</time></trkpt>
			<trkpt lat="56.017066" lon="92.919155"><time>1970-01-01T00:00:01.000Z</time></trkpt>
			<trkpt lat="56.017093" lon="92.919289"><time>1970-01-01T00:00:01.000Z</time></trkpt>
			<trkpt lat="56.017171" lon="92.919385"><time>1970-01-01T00:00:01.000Z</time></trkpt>
			<trkpt lat="56.018277" lon="92.920183"><time>1970-01-01T00:00:01.000Z</time></trkpt>
			<trkpt lat="56.018922" lon="92.920604"><time>1970-01-01T00:00:01.000Z</time></trkpt>
			<trkpt lat="56.019320" lon="92.920952"><time>1970-01-01T00:00:01.000Z</time></trkpt>
			<trkpt lat="56.019866" lon="92.921489"><time>1970-01-01T00:00:01.000Z</time></trkpt>
			<trkpt lat="56.020351" lon="92.921968"><time>1970-01-01T00:00:01.000Z</time></trkpt>
			<trkpt lat="56.021267" lon="92.922874"><time>1970-01-01T00:00:01.000Z</time></trkpt>
			<trkpt lat="56.021461" lon="92.923082"><time>1970-01-01T00:00:01.000Z</time></trkpt>
			<trkpt lat="56.021773" lon="92.923522"><time>1970-01-01T00:00:01.000Z</time></trkpt>
			<trkpt lat="56.022118" lon="92.924021"><time>1970-01-01T00:00:01.000Z</time></trkpt>
			<trkpt lat="56.022390" lon="92.924595"><time>1970-01-01T00:00:01.000Z</time></trkpt>
			<trkpt lat="56.022780" lon="92.925523"><time>1970-01-01T00:00:01.000Z</time></trkpt>
			<trkpt lat="56.023035" lon="92.926118"><time>1970-01-01T00:00:01.000Z</time></trkpt>
			<trkpt lat="56.023230" lon="92.926607"><time>1970-01-01T00:00:01.000Z</time></trkpt>
			<trkpt lat="56.023311" lon="92.926902"><time>1970-01-01T00:00:01.000Z</time></trkpt>
			<trkpt lat="56.023392" lon="92.927320"><time>1970-01-01T00:00:01.000Z</time></trkpt>
			<trkpt lat="56.023644" lon="92.928457"><time>1970-01-01T00:00:01.000Z</time></trkpt>
			<trkpt lat="56.023955" lon="92.929884"><time>1970-01-01T00:00:01.000Z</time></trkpt>
			<trkpt lat="56.024273" lon="92.931512"><time>1970-01-01T00:00:01.000Z</time></trkpt>
			<trkpt lat="56.024381" lon="92.932003"><time>1970-01-01T00:00:01.000Z</time></trkpt>
			<trkpt lat="56.024507" lon="92.932625"><time>1970-01-01T00:00:01.000Z</time></trkpt>
			<trkpt lat="56.024582" lon="92.932963"><time>1970-01-01T00:00:01.000Z</time></trkpt>
			<trkpt lat="56.024678" lon="92.933275"><time>1970-01-01T00:00:01.000Z</time></trkpt>
			<trkpt lat="56.024969" lon="92.933945"><time>1970-01-01T00:00:01.000Z</time></trkpt>
			<trkpt lat="56.025253" lon="92.934627"><time>1970-01-01T00:00:01.000Z</time></trkpt>
			<trkpt lat="56.025559" lon="92.935377"><time>1970-01-01T00:00:01.000Z</time></trkpt>
			<trkpt lat="56.025916" lon="92.936230"><time>1970-01-01T00:00:01.000Z</time></trkpt>
			<trkpt lat="56.026105" lon="92.936815"><time>1970-01-01T00:00:01.000Z</time></trkpt>
			<trkpt lat="56.026252" lon="92.937346"><time>1970-01-01T00:00:01.000Z</time></trkpt>
			<trkpt lat="56.026328" lon="92.937729"><time>1970-01-01T00:00:01.000Z</time></trkpt>
			<trkpt lat="56.026433" lon="92.938314"><time>1970-01-01T00:00:01.000Z</time></trkpt>
			<trkpt lat="56.026543" lon="92.939075"><time>1970-01-01T00:00:01.000Z</time></trkpt>
			<trkpt lat="56.026586" lon="92.939365"><time>1970-01-01T00:00:01.000Z</time></trkpt>
			<trkpt lat="56.026577" lon="92.939542"><time>1970-01-01T00:00:01.000Z</time></trkpt>
			<trkpt lat="56.026464" lon="92.939645"><time>1970-01-01T00:00:01.000Z</time></trkpt>
			<trkpt lat="56.026005" lon="92.939805"><time>1970-01-01T00:00:01.000Z</time></trkpt>
			<trkpt lat="56.025213" lon="92.940122"><time>1970-01-01T00:00:01.000Z</time></trkpt>
			<trkpt lat="56.024488" lon="92.940417"><time>1970-01-01T00:00:01.000Z</time></trkpt>
			<trkpt lat="56.024020" lon="92.940623"><time>1970-01-01T00:00:01.000Z</time></trkpt>
			<trkpt lat="56.023311" lon="92.940862"><time>1970-01-01T00:00:01.000Z</time></trkpt>
			<trkpt lat="56.022884" lon="92.941081"><time>1970-01-01T00:00:01.000Z</time></trkpt>
			<trkpt lat="56.022763" lon="92.941270"><time>1970-01-01T00:00:01.000Z</time></trkpt>
			<trkpt lat="56.022673" lon="92.941484"><time>1970-01-01T00:00:01.000Z</time></trkpt>
			<trkpt lat="56.022587" lon="92.941677"><time>1970-01-01T00:00:01.000Z</time></trkpt>
			<trkpt lat="56.022533" lon="92.941747"><time>1970-01-01T00:00:01.000Z</time></trkpt>
			<trkpt lat="56.022449" lon="92.941747"><time>1970-01-01T00:00:01.000Z</time></trkpt>
			<trkpt lat="56.022319" lon="92.941704"><time>1970-01-01T00:00:01.000Z</time></trkpt>
			<trkpt lat="56.022281" lon="92.941559"><time>1970-01-01T00:00:01.000Z</time></trkpt>
			<trkpt lat="56.022185" lon="92.940980"><time>1970-01-01T00:00:01.000Z</time></trkpt>
			<trkpt lat="56.022143" lon="92.940551"><time>1970-01-01T00:00:01.000Z</time></trkpt>
			<trkpt lat="56.022104" lon="92.940218"><time>1970-01-01T00:00:01.000Z</time></trkpt>
			<trkpt lat="56.022065" lon="92.939816"><time>1970-01-01T00:00:01.000Z</time></trkpt>
			<trkpt lat="56.021978" lon="92.939408"><time>1970-01-01T00:00:01.000Z</time></trkpt>
			<trkpt lat="56.021870" lon="92.938834"><time>1970-01-01T00:00:01.000Z</time></trkpt>
			<trkpt lat="56.021768" lon="92.938249"><time>1970-01-01T00:00:01.000Z</time></trkpt>
			<trkpt lat="56.021579" lon="92.937364"><time>1970-01-01T00:00:01.000Z</time></trkpt>
			<trkpt lat="56.021348" lon="92.936308"><time>1970-01-01T00:00:01.000Z</time></trkpt>
			<trkpt lat="56.021204" lon="92.935653"><time>1970-01-01T00:00:01.000Z</time></trkpt>
			<trkpt lat="56.021058" lon="92.935111"><time>1970-01-01T00:00:01.000Z</time></trkpt>
			<trkpt lat="56.020938" lon="92.934682"><time>1970-01-01T00:00:01.000Z</time></trkpt>
			<trkpt lat="56.020794" lon="92.934092"><time>1970-01-01T00:00:01.000Z</time></trkpt>
			<trkpt lat="56.020659" lon="92.933604"><time>1970-01-01T00:00:01.000Z</time></trkpt>
			<trkpt lat="56.020395" lon="92.932595"><time>1970-01-01T00:00:01.000Z</time></trkpt>
			<trkpt lat="56.020254" lon="92.932145"><time>1970-01-01T00:00:01.000Z</time></trkpt>
			<trkpt lat="56.020080" lon="92.931700"><time>1970-01-01T00:00:01.000Z</time></trkpt>
			<trkpt lat="56.019957" lon="92.931474"><time>1970-01-01T00:00:01.000Z</time></trkpt>
			<trkpt lat="56.019816" lon="92.931260"><time>1970-01-01T00:00:01.000Z</time></trkpt>
			<trkpt lat="56.019624" lon="92.930927"><time>1970-01-01T00:00:01.000Z</time></trkpt>
			<trkpt lat="56.019442" lon="92.930535"><time>1970-01-01T00:00:01.000Z</time></trkpt>
			<trkpt lat="56.019283" lon="92.930085"><time>1970-01-01T00:00:01.000Z</time></trkpt>
			<trkpt lat="56.019103" lon="92.929500"><time>1970-01-01T00:00:01.000Z</time></trkpt>
			<trkpt lat="56.018971" lon="92.929055"><time>1970-01-01T00:00:01.000Z</time></trkpt>
			<trkpt lat="56.018818" lon="92.928422"><time>1970-01-01T00:00:01.000Z</time></trkpt>
			<trkpt lat="56.018689" lon="92.927687"><time>1970-01-01T00:00:01.000Z</time></trkpt>
			<trkpt lat="56.018545" lon="92.926952"><time>1970-01-01T00:00:01.000Z</time></trkpt>
			<trkpt lat="56.018098" lon="92.924715"><time>1970-01-01T00:00:01.000Z</time></trkpt>
			<trkpt lat="56.017607" lon="92.922280"><time>1970-01-01T00:00:01.000Z</time></trkpt>
			<trkpt lat="56.017349" lon="92.920981"><time>1970-01-01T00:00:01.000Z</time></trkpt>
			<trkpt lat="56.017190" lon="92.920102"><time>1970-01-01T00:00:01.000Z</time></trkpt>
			<trkpt lat="56.017112" lon="92.919646"><time>1970-01-01T00:00:01.000Z</time></trkpt>
			<trkpt lat="56.017064" lon="92.919302"><time>1970-01-01T00:00:01.000Z</time></trkpt>
			<trkpt lat="56.017022" lon="92.918793"><time>1970-01-01T00:00:01.000Z</time></trkpt>
			<trkpt lat="56.016923" lon="92.918476"><time>1970-01-01T00:00:01.000Z</time></trkpt>
			<trkpt lat="56.016778" lon="92.918256"><time>1970-01-01T00:00:01.000Z</time></trkpt>
			<trkpt lat="56.016362" lon="92.917784"><time>1970-01-01T00:00:01.000Z</time></trkpt>
			<trkpt lat="56.015948" lon="92.917269"><time>1970-01-01T00:00:01.000Z</time></trkpt>
			<trkpt lat="56.015610" lon="92.916872"><time>1970-01-01T00:00:01.000Z</time></trkpt>
			<trkpt lat="56.015337" lon="92.916561"><time>1970-01-01T00:00:01.000Z</time></trkpt>
			<trkpt lat="56.015169" lon="92.916325"><time>1970-01-01T00:00:01.000Z</time></trkpt>
			<trkpt lat="56.015106" lon="92.916164"><time>1970-01-01T00:00:01.000Z</time></trkpt>
			<trkpt lat="56.015091" lon="92.915815"><time>1970-01-01T00:00:01.000Z</time></trkpt>
			<trkpt lat="56.015064" lon="92.914399"><time>1970-01-01T00:00:01.000Z</time></trkpt>
			<trkpt lat="56.015037" lon="92.913663"><time>1970-01-01T00:00:01.000Z</time></trkpt>
			<trkpt lat="56.014998" lon="92.913112"><time>1970-01-01T00:00:01.000Z</time></trkpt>
			<trkpt lat="56.014899" lon="92.912457"><time>1970-01-01T00:00:01.000Z</time></trkpt>
			<trkpt lat="56.014648" lon="92.910824"><time>1970-01-01T00:00:01.000Z</time></trkpt>
			<trkpt lat="56.014479" lon="92.909823"><time>1970-01-01T00:00:01.000Z</time></trkpt>
			<trkpt lat="56.014401" lon="92.908890"><time>1970-01-01T00:00:01.000Z</time></trkpt>
			<trkpt lat="56.014362" lon="92.908239"><time>1970-01-01T00:00:01.000Z</time></trkpt>
			<trkpt lat="56.014323" lon="92.907758"><time>1970-01-01T00:00:01.000Z</time></trkpt>
			<trkpt lat="56.014287" lon="92.907479"><time>1970-01-01T00:00:01.000Z</time></trkpt>
			<trkpt lat="56.014188" lon="92.907243"><time>1970-01-01T00:00:01.000Z</time></trkpt>
			<trkpt lat="56.014143" lon="92.906835"><time>1970-01-01T00:00:01.000Z</time></trkpt>
			<trkpt lat="56.014021" lon="92.904634"><time>1970-01-01T00:00:01.000Z</time></trkpt>
			<trkpt lat="56.013819" lon="92.900688"><time>1970-01-01T00:00:01.000Z</time></trkpt>
			<trkpt lat="56.013532" lon="92.894937"><time>1970-01-01T00:00:01.000Z</time></trkpt>
			<trkpt lat="56.013496" lon="92.894476"><time>1970-01-01T00:00:01.000Z</time></trkpt>
			<trkpt lat="56.013394" lon="92.894020"><time>1970-01-01T00:00:01.000Z</time></trkpt>
			<trkpt lat="56.013232" lon="92.893762"><time>1970-01-01T00:00:01.000Z</time></trkpt>
			<trkpt lat="56.013073" lon="92.893569"><time>1970-01-01T00:00:01.000Z</time></trkpt>
			<trkpt lat="56.012833" lon="92.893553"><time>1970-01-01T00:00:01.000Z</time></trkpt>
			<trkpt lat="56.012596" lon="92.893559"><time>1970-01-01T00:00:01.000Z</time></trkpt>
		</trkseg>
	</trk>
</gpx>